,CLEE,Id,Nombre,Razon_social,Clase_actividad,Estrato,Tipo_vialidad,Calle,Num_Exterior,Num_Interior,Colonia,CP,Ubicacion,Telefono,Correo_e,Sitio_internet,Tipo,Longitud,Latitud,tipo_corredor_industrial,nom_corredor_industrial,numero_local,AGEB,Manzana,CLASE_ACTIVIDAD_ID,EDIFICIO_PISO,SECTOR_ACTIVIDAD_ID,SUBSECTOR_ACTIVIDAD_ID,RAMA_ACTIVIDAD_ID,SUBRAMA_ACTIVIDAD_ID,EDIFICIO,Tipo_Asentamiento,Fecha_Alta,AreaGeo
0,09016722516000043000003286S9,6309895,DOMINO S PIZZA,OPERADORA Y PROCESADORA DE PRODUCTOS DE PANIFICACION SA DE CV,Restaurantes de autoservicio,11 a 30 personas,AVENIDA,LAGO ALBERTO,320,0,ANAHUAC,11320,"MIGUEL HIDALGO, Miguel Hidalgo, CIUDAD DE MÉXICO",,,WWW.DOMINOS.COM.MX,Fijo,-99.18935061,19.42521077,,,,0798,001,722516,,72,722,7225,72251,,COLONIA,2010-07,090160001
1,09005722211000231020003286S1,6309896,DOMINO S PIZZA,OPERADORA Y PROCESADORA DE PRODUCTOS DE PANIFICACION SA DE CV,Restaurantes de autoservicio,11 a 30 personas,CALLE,COLECTORES 13,280,,MAGDALENA DE LAS SALINAS,07760,"GUSTAVO A. MADERO, Gustavo A. Madero, CIUDAD DE MÉXICO",,,WWW.DOMINOS.COM.MX,Fijo,-99.13088315,19.48692097,,,,1256,012,722516,,72,722,7225,72251,,COLONIA,2010-07,090050001
2,09016722516000053001003286S8,6309899,DOMINO S PIZZA,OPERADORA Y PROCESADORA DE PRODUCTOS DE PANIFICACION SA DE CV,Restaurantes de autoservicio,31 a 50 personas,CALLE,PRADO NORTE,365,,LOMAS DE CHAPULTEPE,11000,"MIGUEL HIDALGO, Miguel Hidalgo, CIUDAD DE MÉXICO",,,WWW.DOMINOS.COM.MX,Fijo,-99.20978383,19.42773319,,,,0887,006,722516,,72,722,7225,72251,,COLONIA,2010-07,090160001
3,09016722211000371020003286S2,6309900,DOMINO S PIZZA,OPERADORA Y PROCESADORA DE PRODUCTOS DE PANIFICACION SA DE CV,Restaurantes de autoservicio,11 a 30 personas,AVENIDA,HORACIO,308,0,COL POLANCO,11570,"MIGUEL HIDALGO, Miguel Hidalgo, CIUDAD DE MÉXICO",,,WWW.DOMINOS.COM.MX,Fijo,-99.18596523,19.43310466,,,,0675,003,722516,,72,722,7225,72251,,COLONIA,2010-07,090160001
4,09002722211000221020003286S9,6309901,DOMINO S PIZZA,OPERADORA Y PROCESADORA DE PRODUCTOS DE PANIFICACION SA DE CV,Restaurantes de autoservicio,11 a 30 personas,AVENIDA,AQUILES SERDAN,1193,,TIERRA NUEVA,02130,"AZCAPOTZALCO, Azcapotzalco, CIUDAD DE MÉXICO",,,WWW.DOMINOS.COM.MX,Fijo,-99.20145014,19.49878240,,,,0167,024,722516,,72,722,7225,72251,,COLONIA,2010-07,090020001
5,09016722211000041020003286S1,6309902,DOMINO S PIZZA,OPERADORA Y PROCESADORA DE PRODUCTOS DE PANIFICACION SA DE CV,Restaurantes de autoservicio,11 a 30 personas,CALLE,RAFAEL REYES ESPINDOLA,491,1,PERIODISTAS,11220,"MIGUEL HIDALGO, Miguel Hidalgo, CIUDAD DE MÉXICO",,,WWW.DOMINOS.COM.MX,Fijo,-99.21990000,19.44961653,,,,0302,001,722516,,72,722,7225,72251,,COLONIA,2014-12,090160001
6,09016722211000251022003286S6,6309903,DOMINO S PIZZA,OPERADORA Y PROCESADORA DE PRODUCTOS DE PANIFICACION SA DE CV,Restaurantes de autoservicio,31 a 50 personas,AVENIDA,LEGARIA,252,,PENSIL NORTE,11430,"MIGUEL HIDALGO, Miguel Hidalgo, CIUDAD DE MÉXICO",,,WWW.DOMINOS.COM.MX,Fijo,-99.19848689,19.45332242,,,,0251,006,722516,,72,722,7225,72251,,COLONIA,2011-03,090160001
7,09007722211001661021003286S4,6309904,DOMINO S PIZZA,OPERADORA Y PROCESADORA DE PRODUCTOS DE PANIFICACION SA DE CV,Restaurantes de autoservicio,31 a 50 personas,AVENIDA,CANAL DE TEZONTLE,1520,,ALFONSO ORTIZ TIRADO,09020,"IZTAPALAPA, Iztapalapa, CIUDAD DE MÉXICO",,,WWW.DOMINOS.COM.MX,Fijo,-99.07698993,19.38311877,,,,2390,011,722516,,72,722,7225,72251,,COLONIA,2010-07,090070001
8,09007722211000751021003286S4,6309919,DOMINO S PIZZA,OPERADORA Y PROCESADORA DE PRODUCTOS DE PANIFICACION SA DE CV,Restaurantes de autoservicio,31 a 50 personas,CALLE,TLAHUAC,3843,,SAN ANDRES TOMATLAN,09870,"IZTAPALAPA, Iztapalapa, CIUDAD DE MÉXICO",,,WWW.DOMINOS.COM.MX,Fijo,-99.10678834,19.32871262,,,,1852,027,722516,,72,722,7225,72251,,COLONIA,2010-07,090070001
9,09005722211000291020003286S5,6309932,DOMINO S PIZZA,OPERADORA Y PROCESADORA DE PRODUCTOS DE PANIFICACION SA DE CV,Restaurantes de autoservicio,11 a 30 personas,AVENIDA,LINEA 3  DEL METRO NIVEL ANDEN  ESTACION LA RAZA,0,,GUADALUPE VICTORIA,07200,"GUSTAVO A. MADERO, Gustavo A. Madero, CIUDAD DE MÉXICO",,,WWW.DOMINOS.COM.MX,Fijo,-99.13891478,19.46780435,,,,174A,032,722516,,72,722,7225,72251,,COLONIA,2010-07,090050001
10,09005722211000491022003286S1,6309935,DOMINO S PIZZA,OPERADORA Y PROCESADORA DE PRODUCTOS DE PANIFICACION SA DE CV,Restaurantes de autoservicio,11 a 30 personas,ANDADOR,LINEA 3 DEL METRO NIVEL MEZZANINE ESTACION INDIOS VERDES,0,,SAN PEDRO ZACATENCO,07360,"GUSTAVO A. MADERO, Gustavo A. Madero, CIUDAD DE MÉXICO",,,WWW.DOMINOS.COM.MX,Fijo,-99.12046141,19.49724546,,,,0756,001,722516,,72,722,7225,72251,,COLONIA,2010-07,090050001
11,09016722211000491021003286S8,6309936,DOMINO S PIZZA,OPERADORA Y PROCESADORA DE PRODUCTOS DE PANIFICACION SA DE CV,Restaurantes de autoservicio,31 a 50 personas,AVENIDA,LINEA 1 DEL METRO ESTACION TACUBAYA,0,,TACUBAYA,11870,"MIGUEL HIDALGO, Miguel Hidalgo, CIUDAD DE MÉXICO",,,WWW.DOMINOS.COM.MX,Fijo,-99.18731704,19.40290635,,,,1175,012,722516,,72,722,7225,72251,,COLONIA,2010-07,090160001
12,09016722211000241000003286S7,6309939,DOMINO S PIZZA,OPERADORA Y PROCESADORA DE PRODUCTOS DE PANIFICACION SA DE CV,Restaurantes de autoservicio,11 a 30 personas,PASAJE,2 ESTACION CUATRO CAMINOS,0,0,LOMAS DE SOTELO,53390,"MIGUEL HIDALGO, Miguel Hidalgo, CIUDAD DE MÉXICO",,,WWW.DOMINOS.COM,Fijo,-99.18646300,19.45878764,,,,0158,015,722516,,72,722,7225,72251,,COLONIA,2010-07,090160001
13,09005722211000251021003286S9,6310244,DOMINO S PIZZA,OPERADORA Y PROCESADORA DE PRODUCTOS DE PANIFICACION SA DE CV,Restaurantes de autoservicio,51 a 100 personas,CALZADA,DE GUADALUPE,431,,GUADALUPE TEPEYAC,07840,"GUSTAVO A. MADERO, Gustavo A. Madero, CIUDAD DE MÉXICO",,,WWW.DOMINOS.COM.MX,Fijo,-99.12190366,19.47224110,,,,1805,004,722516,,72,722,7225,72251,,COLONIA,2010-07,090050001
14,09005722211000661020003286S9,6310252,DOMINO S PIZZA,OPERADORA Y PROCESADORA DE PRODUCTOS DE PANIFICACION SA DE CV,Restaurantes de autoservicio,11 a 30 personas,AVENIDA,ESCUADRON 201,0,,TICOMAN ESCALERA,07330,"GUSTAVO A. MADERO, Gustavo A. Madero, CIUDAD DE MÉXICO",,,WWW.DOMINOS.COM.MX,Fijo,-99.14295580,19.51775037,,,,2856,023,722516,,72,722,7225,72251,,COLONIA,2010-07,090050001
15,09007722516000033000003286S9,6310298,DOMINO S PIZZA,OPERADORA Y PROCESADORA DE PRODUCTOS DE PANIFICACION SA DE CV,Restaurantes de autoservicio,11 a 30 personas,AVENIDA,CANAL DE TEZONTLE,1512,,DR ALFONSO ORTIZ TIRADO,09020,"IZTAPALAPA, Iztapalapa, CIUDAD DE MÉXICO",,,WWW.DOMINOS.COM.MX,Fijo,-99.08308996,19.38211684,,,,2390,011,722516,,72,722,7225,72251,,COLONIA,2010-07,090070001
16,09017722211000371021003286S0,6310299,DOMINO S PIZZA,OPERADORA Y PROCESADORA DE PRODUCTOS DE PANIFICACION SA DE CV,Restaurantes de autoservicio,31 a 50 personas,EJE VIAL,ALUMINIO,401,,20 DE NOVIEMBRE,15300,"VENUSTIANO CARRANZA, Venustiano Carranza, CIUDAD DE MÉXICO",,,WWW.DOMINOS.COM.MX,Fijo,-99.11040142,19.45018521,,,,0047,031,722516,,72,722,7225,72251,,COLONIA,2014-12,090170001
17,09014722211000221021003286S4,6313034,DOMINO S PIZZA,OPERADORA Y PROCESADORA DE PRODUCTOS DE PANIFICACION SA DE CV,Restaurantes de autoservicio,31 a 50 personas,CALLE,GEORGIA,120,,NAPOLES,03810,"BENITO JUÁREZ, Benito Juárez, CIUDAD DE MÉXICO",,,WWW.DOMINOS.COM.MX,Fijo,-99.17813091,19.38852565,,,,037A,008,722516,,72,722,7225,72251,,COLONIA,2010-07,090140001
18,09015722516000033000003286M2,6314158,DOMINO S PIZZA,OPERADORA Y PROCESADORA DE PRODUCTOS DE PANIFICACION SA DE CV,Restaurantes de autoservicio,11 a 30 personas,AVENIDA,REVOLUCIÓN,1267,0,GUADALUPE INN,01049,"ÁLVARO OBREGÓN, Álvaro Obregón, CIUDAD DE MÉXICO",,,WWW.DOMINOS.COM.MX,Fijo,-99.18956894,19.36070933,,,,0987,016,722516,,72,722,7225,72251,,COLONIA,2010-07,090100001
19,09014722211000241022003286S2,6314240,DOMINO S PIZZA,OPERADORA Y PROCESADORA DE PRODUCTOS DE PANIFICACION SA DE CV,Restaurantes de autoservicio,31 a 50 personas,CALLE,ENRIQUE REBSAMEN,966,,DEL VALLE,03100,"BENITO JUÁREZ, Benito Juárez, CIUDAD DE MÉXICO",,,WWW.DOMINOS.COM.MX,Fijo,-99.16041998,19.38585880,,,,0420,014,722516,,72,722,7225,72251,,COLONIA,2010-07,090140001
20,09007722516000043001003286S8,6314280,DOMINO S PIZZA,OPERADORA Y PROCESADORA DE PRODUCTOS DE PANIFICACION SA DE CV,Restaurantes de autoservicio,31 a 50 personas,AVENIDA,ERMITA IZTAPALAPA,941,,SANTA ISABEL INDUSTRIAL,09820,"IZTAPALAPA, Iztapalapa, CIUDAD DE MÉXICO",,,WWW.DOMINOS.COM.MX,Fijo,-99.10301309,19.35572511,,,,1208,006,722516,,72,722,7225,72251,,COLONIA,2010-07,090070001
21,09007722211000191022003286S3,6314281,DOMINO S PIZZA,OPERADORA Y PROCESADORA DE PRODUCTOS DE PANIFICACION SA DE CV,Restaurantes de autoservicio,31 a 50 personas,CALZADA,IGNACIO ZARAGOZA,3254,,EL SALADO,09510,"IZTAPALAPA, Iztapalapa, CIUDAD DE MÉXICO",,,WWW.DOMINOS.COM.MX,Fijo,-99.00530850,19.36545158,,,,5107,002,722516,,72,722,7225,72251,,COLONIA,2010-07,090070001
22,09010722516000043001003286S2,6314608,DOMINO S PIZZA,OPERADORA Y PROCESADORA DE PRODUCTOS DE PANIFICACION SA DE CV,Restaurantes de autoservicio,31 a 50 personas,CALZADA,LAS AGUILAS,873,,AMPLIACION LAS AGUILAS,01759,"ÁLVARO OBREGÓN, Álvaro Obregón, CIUDAD DE MÉXICO",,,WWW.DOMINOS.COM.MX,Fijo,-99.21705161,19.35204211,,,,2199,018,722516,,72,722,7225,72251,,COLONIA,2014-12,090100001
23,09010722516000033000003286S3,6314611,DOMINO S PIZZA,OPERADORA Y PROCESADORA DE PRODUCTOS DE PANIFICACION SA DE CV,Restaurantes de autoservicio,11 a 30 personas,AVENIDA,Boulevard Adolfo Ruíz Cortines,4132,0,JARDINES DE PEDREGAL,01900,"ÁLVARO OBREGÓN, Álvaro Obregón, CIUDAD DE MÉXICO",,,WWW.DOMINOS.COM.MX,Fijo,-99.20957155,19.30658853,,,,1307,024,722516,,72,722,7225,72251,,COLONIA,2014-12,090100001
24,09008722516000013001003286S9,6314651,DOMINO S PIZZA,OPERADORA Y PROCESADORA DE PRODUCTOS DE PANIFICACION SA DE CV,Restaurantes de autoservicio,51 a 100 personas,AVENIDA,SAN JERONIMO,819,,SAN JERONIMO LIDICE,10400,"LA MAGDALENA CONTRERAS, La Magdalena Contreras, CIUDAD DE MÉXICO",,,WWW.DOMINOS.COM.MX,Fijo,-99.22998408,19.31882325,,,,018A,016,722516,,72,722,7225,72251,,COLONIA,2010-07,090080001
25,09002722516000043001003286S9,6314881,DOMINO S PIZZA,OPERADORA Y PROCESADORA DE PRODUCTOS DE PANIFICACION SA DE CV,Restaurantes de autoservicio,31 a 50 personas,EJE VIAL,EJE 3 NORTE CAMARONES,437,,ELECTRICISTAS,02800,"AZCAPOTZALCO, Azcapotzalco, CIUDAD DE MÉXICO",,,WWW.DOMINOS.COM.MX,Fijo,-99.17843527,19.47085251,,,,0504,005,722516,,72,722,7225,72251,,COLONIA,2014-12,090020001
26,09010722211000613022003286S0,6315434,DOMINO S PIZZA,OPERADORA Y PROCESADORA DE PRODUCTOS DE PANIFICACION SA DE CV,Restaurantes de autoservicio,31 a 50 personas,AVENIDA,SANTA LUCIA,1043,,COLINAS DEL SUR,01430,"ÁLVARO OBREGÓN, Álvaro Obregón, CIUDAD DE MÉXICO",,,WWW.DOMINOS.COM.MX,Fijo,-99.22866220,19.36774668,,,,0559,018,722516,,72,722,7225,72251,,COLONIA,2010-07,090100001
27,09014722516000033001003286S5,6316242,DOMINO S PIZZA,OPERADORA Y PROCESADORA DE PRODUCTOS DE PANIFICACION SA DE CV,Restaurantes de autoservicio,31 a 50 personas,CALLE,INSURGENTES SUR,729,,NAPOLES,03810,"BENITO JUÁREZ, Benito Juárez, CIUDAD DE MÉXICO",,,WWW.DOMINOS.COM.MX,Fijo,-99.17325218,19.39269018,,,,0384,019,722516,,72,722,7225,72251,,COLONIA,2010-07,090140001
28,09007722211001733021003286S1,6316276,DOMINO S PIZZA,OPERADORA Y PROCESADORA DE PRODUCTOS DE PANIFICACION SA DE CV,Restaurantes de autoservicio,31 a 50 personas,AVENIDA,IGNACIO ZARAGOZA,2717,,TEPALCATES,09210,"IZTAPALAPA, Iztapalapa, CIUDAD DE MÉXICO",,,WWW.DOMINOS.COM.MX,Fijo,-99.06416799,19.33820055,,,,2850,014,722516,,72,722,7225,72251,,COLONIA,2010-07,090070001
29,09014722211000903000003286S7,6316297,DOMINO S PIZZA,OPERADORA Y PROCESADORA DE PRODUCTOS DE PANIFICACION SA DE CV,Restaurantes de autoservicio,11 a 30 personas,PASAJE,María de la Luz Bringas,0,0,ROMA SUR,06760,"BENITO JUÁREZ, Benito Juárez, CIUDAD DE MÉXICO",,,WWW.DOMINOS.COM,Fijo,-99.17991620,19.37021695,,,,0717,003,722516,,72,722,7225,72251,,COLONIA,2014-12,090140001
30,09016722211000623020003286S6,6316454,DOMINO S PIZZA,OPERADORA Y PROCESADORA DE PRODUCTOS DE PANIFICACION SA DE CV,Restaurantes de autoservicio,11 a 30 personas,CALLE,LAGUNA DE MAYRAN ESQ. MARINA NACIONAL,411,,ANAHUAC  LOS MANZANOS,11320,"MIGUEL HIDALGO, Miguel Hidalgo, CIUDAD DE MÉXICO",,,WWW.DOMINOS.COM.MX,Fijo,-99.17571142,19.44057444,,,,0497,004,722516,,72,722,7225,72251,,COLONIA,2010-07,090160001
31,09003722516000072101004343S6,6317579,DOMINO S PIZZA,GRUPO TERATO SA DE CV,Restaurantes de autoservicio,31 a 50 personas,CALLE,TOLUCA OLIVAR DE LOS PADRES,1417,0,COYOACÁN,14250,"ÁLVARO OBREGÓN, Álvaro Obregón, CIUDAD DE MÉXICO",,,,Fijo,-99.23752799,19.33744147,,,SN,1699,022,722516,,72,722,7225,72251,,COLONIA,2014-12,090100001
32,09014722516000062001004343M4,6317874,DOMINO S PIZZA,GRUPO TERATO SA DE CV,Restaurantes de autoservicio,11 a 30 personas,EJE VIAL,CENTRAL (LÁZARO CÁRDENAS),963,0,INDEPENDENCIA,03630,"BENITO JUÁREZ, Benito Juárez, CIUDAD DE MÉXICO",,,,Fijo,-99.14829723,19.37955460,,,,0469,003,722516,,72,722,7225,72251,,COLONIA,2010-07,090140001
33,09003722211000903021003286S0,6319025,DOMINO S PIZZA,OPERADORA Y PROCESADORA DE PRODUCTOS DE PANIFICACION SA DE CV,Restaurantes de autoservicio,31 a 50 personas,BOULEVARD,PERIFERICO SUR,4690,,AMPLIACION JARDINES DEL PEDREGAL,04500,"COYOACÁN, Coyoacán, CIUDAD DE MÉXICO",,,WWW.DOMINOS.COM.MX,Fijo,-99.19000649,19.30270687,,,,1105,016,722516,,72,722,7225,72251,,COLONIA,2010-07,090030001
34,09003722211000802020003286S4,6319027,DOMINO S PIZZA,OPERADORA Y PROCESADORA DE PRODUCTOS DE PANIFICACION SA DE CV,Restaurantes de autoservicio,11 a 30 personas,CALLE,ERASMO CASTELLANOS,0,,CENTRO,06010,"CUAUHTÉMOC, Cuauhtémoc, CIUDAD DE MÉXICO",,,WWW.DOMINOS.COM.MX,Fijo,-99.13091126,19.43140728,,,,0771,003,722516,,72,722,7225,72251,,COLONIA,2010-07,090150001
35,09014722211000742020003286S9,6319028,DOMINO S PIZZA,OPERADORA Y PROCESADORA DE PRODUCTOS DE PANIFICACION SA DE CV,Restaurantes de autoservicio,11 a 30 personas,EJE VIAL,CUAUHTEMOC,462,,NARVARTE,03020,"BENITO JUÁREZ, Benito Juárez, CIUDAD DE MÉXICO",,,WWW.DOMINOS.COM.MX,Fijo,-99.15542516,19.40268570,,,,0026,021,722516,,72,722,7225,72251,,COLONIA,2014-12,090140001
36,09003722211000863002003286S6,6319030,DOMINO S PIZZA,OPERADORA Y PROCESADORA DE PRODUCTOS DE PANIFICACION SA DE CV,Restaurantes de autoservicio,31 a 50 personas,AVENIDA,CAFETALES,1739,,HACIENDAS DE COYOACÁN,04970,"COYOACÁN, Coyoacán, CIUDAD DE MÉXICO",,,WWW.DOMINOS.COM.MX,Fijo,-99.11304952,19.30318240,,,,1213,006,722516,,72,722,7225,72251,,COLONIA,2010-07,090030001
37,09015722211001453021003286S9,6319031,DOMINO S PIZZA,OPERADORA Y PROCESADORA DE PRODUCTOS DE PANIFICACION SA DE CV,Restaurantes de autoservicio,51 a 100 personas,PEATONAL,GUERRERO,395,,GUERRERO  TLATELOLCO,06300,"CUAUHTÉMOC, Cuauhtémoc, CIUDAD DE MÉXICO",,,WWW.DOMINOS.COM.MX,Fijo,-99.14469997,19.45582868,,,,024A,006,722516,,72,722,7225,72251,,COLONIA,2010-07,090150001
38,09003722211000843022003286S8,6319032,DOMINO S PIZZA,OPERADORA Y PROCESADORA DE PRODUCTOS DE PANIFICACION SA DE CV,Restaurantes de autoservicio,31 a 50 personas,PEATONAL,CIRUELOS,2,,CIPRESES,04830,"COYOACÁN, Coyoacán, CIUDAD DE MÉXICO",,,WWW.DOMINOS.COM.MX,Fijo,-99.13039306,19.31874582,,,,0889,027,722516,,72,722,7225,72251,,COLONIA,2010-07,090030001
39,09014722211000913021003286S6,6319033,DOMINO S PIZZA,OPERADORA Y PROCESADORA DE PRODUCTOS DE PANIFICACION SA DE CV,Restaurantes de autoservicio,51 a 100 personas,AVENIDA,Universidad,0,0,DEL VALLE,03300,"BENITO JUÁREZ, Benito Juárez, CIUDAD DE MÉXICO",,,WWW.DOMINOS.COM.MX,Fijo,-99.16452058,19.37095238,,,,0825,003,722516,,72,722,7225,72251,,COLONIA,2010-07,090140001
40,09011722211000373002003286S9,6319034,DOMINO S PIZZA,OPERADORA Y PROCESADORA DE PRODUCTOS DE PANIFICACION SA DE CV,Restaurantes de autoservicio,31 a 50 personas,AVENIDA,JUAREZ,160,,ZAPOTITLAN,13300,"TLÁHUAC, Tláhuac, CIUDAD DE MÉXICO",,,WWW.DOMINOS.COM.MX,Fijo,-99.04160774,19.29931452,,,,0039,021,722516,,72,722,7225,72251,,COLONIA,2010-07,090110001
41,09015722211001403022003286S4,6319047,DOMINO S PIZZA,OPERADORA Y PROCESADORA DE PRODUCTOS DE PANIFICACION SA DE CV,Restaurantes de autoservicio,31 a 50 personas,CALLE,ISABEL LA CATOLICA,414,,OBRERA,06800,"CUAUHTÉMOC, Cuauhtémoc, CIUDAD DE MÉXICO",,,WWW.DOMINOS.COM.MX,Fijo,-99.13928408,19.40906746,,,,1407,001,722516,,72,722,7225,72251,,COLONIA,2010-07,090150001
42,09015722211001353022003286S1,6319049,DOMINO S PIZZA,OPERADORA Y PROCESADORA DE PRODUCTOS DE PANIFICACION SA DE CV,Restaurantes de autoservicio,11 a 30 personas,CALLE,TACUBA,74,,CENTRO,06010,"CUAUHTÉMOC, Cuauhtémoc, CIUDAD DE MÉXICO",,,WWW.DOMINOS.COM.MX,Fijo,-99.13523553,19.43534616,,,,0752,005,722516,,72,722,7225,72251,,COLONIA,2010-07,090150001
43,09004722211000213022003286S2,6319052,DOMINO S PIZZA,OPERADORA Y PROCESADORA DE PRODUCTOS DE PANIFICACION SA DE CV,Restaurantes de autoservicio,31 a 50 personas,PROLONGACION,PASEO DE LA REFORMA,400,,SANTA FE,01210,"CUAJIMALPA DE MORELOS, Cuajimalpa de Morelos, CIUDAD DE MÉXICO",,,WWW.DOMINOS.COM.MX,Fijo,-99.30009081,19.35711543,,,,0091,012,722516,,72,722,7225,72251,,COLONIA,2010-07,090040001
44,09014722211000973022003286S0,6319055,DOMINO S PIZZA,OPERADORA Y PROCESADORA DE PRODUCTOS DE PANIFICACION SA DE CV,Restaurantes de autoservicio,51 a 100 personas,AVENIDA,DR. VERTIZ,1136,,NARVARTE,03020,"BENITO JUÁREZ, Benito Juárez, CIUDAD DE MÉXICO",,,WWW.DOMINOS.COM.MX,Fijo,-99.15297749,19.38024119,,,,0454,015,722516,,72,722,7225,72251,,COLONIA,2010-07,090140001
45,09015722211001503020003286S1,6319067,DOMINO S PIZZA,OPERADORA Y PROCESADORA DE PRODUCTOS DE PANIFICACION SA DE CV,Restaurantes de autoservicio,11 a 30 personas,AVENIDA,LINEA 2 DEL METRO ESTACION PINO SUAREZ,0,,CENTRO,06010,"CUAUHTÉMOC, Cuauhtémoc, CIUDAD DE MÉXICO",,,WWW.DOMINOS.COM.MX,Fijo,-99.13288257,19.42632129,,,,0907,019,722516,,72,722,7225,72251,,COLONIA,2010-07,090150001
46,09017722212016743001003286S0,6232100,DOMINO S PIZZA,OPERADORA Y PROCESADORA DE PRODUCTOS DE PANIFICACION SA DE CV,Restaurantes de autoservicio,31 a 50 personas,CALZADA,IGNACIO ZARAGOZA,270,,SANTA CRUZ AVIACIÓN,15540,"VENUSTIANO CARRANZA, Venustiano Carranza, CIUDAD DE MÉXICO",,,WWW.DOMINOS.COM.MX,Fijo,-99.09495105,19.41952257,EDIFICIO COMERCIAL Y DE SERVICIOS,PLAZA AEROPUERTO,11 Y 12,0795,003,722516,,72,722,7225,72251,,COLONIA,2010-07,090170001
47,09007722516000023002003286S0,6232121,DOMINO S PIZZA,OPERADORA Y PROCESADORA DE PRODUCTOS DE PANIFICACION SA DE CV,Restaurantes de autoservicio,31 a 50 personas,CALLE,Benito Juárez,1,0,PRESIDENTES DE MEXICO,09740,"IZTAPALAPA, Iztapalapa, CIUDAD DE MÉXICO",,,WWW.DOMINOS.COM.MX,Fijo,-99.06366320,19.33797478,OTRO CONGLOMERADO,PLAZA ZENTRALIA C,,2850,014,722516,,72,722,7225,72251,,COLONIA,2014-12,090070001
48,09012722211000623020003286S5,6232585,DOMINO S PIZZA,OPERADORA Y PROCESADORA DE PRODUCTOS DE PANIFICACION SA DE CV,Restaurantes de autoservicio,11 a 30 personas,AVENIDA,ACOXPA,430,0,VERGEL DEL SUR,14340,"TLALPAN, Tlalpan, CIUDAD DE MÉXICO",,,WWW.DOMINOS.COM.MX,Fijo,-99.13086951,19.29475877,CENTRO Y PLAZA COMERCIAL,PASEO ACOXPA,11,0708,033,722516,,72,722,7225,72251,,COLONIA,2010-07,090120001
49,09015722211001523001003286S9,6232586,DOMINO S PIZZA,OPERADORA Y PROCESADORA DE PRODUCTOS DE PANIFICACION SA DE CV,Restaurantes de autoservicio,31 a 50 personas,CALLE,PLAZA DE LA CONSTITUCIÓN,1,,COLONIA CENTRO,06000,"CUAUHTÉMOC, Cuauhtémoc, CIUDAD DE MÉXICO",,,,Fijo,-99.13243000,19.43279000,,,,0771,001,722516,,72,722,7225,72251,,COLONIA,2010-07,090150001
50,09002722516000063000003286S7,6232722,DOMINO S PIZZA,OPERADORA Y PROCESADORA DE PRODUCTOS DE PANIFICACION SA DE CV,Restaurantes de autoservicio,11 a 30 personas,EJE VIAL,SAN ISIDRO,556,0,SAN PEDRO XALPA,02710,"AZCAPOTZALCO, Azcapotzalco, CIUDAD DE MÉXICO",,,WWW.DOMINOS.COM.MX,Fijo,-99.20821868,19.48494618,,,,1095,001,722516,,72,722,7225,72251,,COLONIA,2010-07,090020001
51,09015722211001463022003286S8,6304306,DOMINO S PIZZA,OPERADORA Y PROCESADORA DE PRODUCTOS DE PANIFICACION SA DE CV,Restaurantes de autoservicio,31 a 50 personas,CALLE,HAMBURGO,113,0,JUAREZ,06600,"CUAUHTÉMOC, Cuauhtémoc, CIUDAD DE MÉXICO",,,WWW.DOMINOS.COM.MX,Fijo,-99.16445103,19.42638987,,,,0945,015,722516,,72,722,7225,72251,,COLONIA,2010-07,090150001
52,09015722211001413021003286S3,6304427,DOMINO S PIZZA,OPERADORA Y PROCESADORA DE PRODUCTOS DE PANIFICACION SA DE CV,Restaurantes de autoservicio,31 a 50 personas,AVENIDA,FRAY SERVANDO TERESA DE MIER,160,,CENTRO,06010,"CUAUHTÉMOC, Cuauhtémoc, CIUDAD DE MÉXICO",,,WWW.DOMINOS.COM.MX,Fijo,-99.13569309,19.42407875,,,,0964,003,722516,,72,722,7225,72251,,COLONIA,2010-07,090150001
53,09017722211000521022003286S0,6305263,DOMINO S PIZZA,OPERADORA Y PROCESADORA DE PRODUCTOS DE PANIFICACION SA DE CV,Restaurantes de autoservicio,31 a 50 personas,AVENIDA,FRAY SERVANDO TERESA DE MIER,921,,JARDIN BALBUENA,15900,"VENUSTIANO CARRANZA, Venustiano Carranza, CIUDAD DE MÉXICO",,,WWW.DOMINOS.COM.MX,Fijo,-99.10393709,19.41763038,,,,1115,006,722516,,72,722,7225,72251,,COLONIA,2010-07,090170001
54,09015722211000871021003286S3,6305534,DOMINO S PIZZA,OPERADORA Y PROCESADORA DE PRODUCTOS DE PANIFICACION SA DE CV,Restaurantes de autoservicio,31 a 50 personas,CALLE,INSURGENTES CENTRO,34,,TABACALERA,06030,"CUAUHTÉMOC, Cuauhtémoc, CIUDAD DE MÉXICO",,,WWW.DOMINOS.COM.MX,Fijo,-99.15620732,19.43809685,,,,070A,007,722516,,72,722,7225,72251,,COLONIA,2010-07,090150001
55,09015722211000191021003286S6,6305535,DOMINO S PIZZA,OPERADORA Y PROCESADORA DE PRODUCTOS DE PANIFICACION SA DE CV,Restaurantes de autoservicio,31 a 50 personas,AVENIDA,INSURGENTES SUR,388,,ROMA,03100,"CUAUHTÉMOC, Cuauhtémoc, CIUDAD DE MÉXICO",,,WWW.DOMINOS.COM.MX,Fijo,-99.16724583,19.40939446,,,,1356,010,722516,,72,722,7225,72251,,COLONIA,2010-07,090150001
56,09016722211000411021003286S6,6305536,DOMINO S PIZZA,OPERADORA Y PROCESADORA DE PRODUCTOS DE PANIFICACION SA DE CV,Restaurantes de autoservicio,31 a 50 personas,AVENIDA,HOMERO  1416,1416,,POLANCO,11660,"MIGUEL HIDALGO, Miguel Hidalgo, CIUDAD DE MÉXICO",,,WWW.DOMINOS.COM.MX,Fijo,-99.20369160,19.43604852,,,,0637,002,722516,,72,722,7225,72251,,COLONIA,2013-07,090160001
57,09005722211001061021003286S1,6305537,DOMINO S PIZZA,OPERADORA Y PROCESADORA DE PRODUCTOS DE PANIFICACION SA DE CV,Restaurantes de autoservicio,31 a 50 personas,AVENIDA,AV. 535,116,,UNIDAD SAN JUAN DE ARAGON I,07969,"GUSTAVO A. MADERO, Gustavo A. Madero, CIUDAD DE MÉXICO",,,WWW.DOMINOS.COM.MX,Fijo,-99.08931893,19.45569459,,,,231A,020,722516,,72,722,7225,72251,,COLONIA,2010-07,090050001
58,09005722211000531002003286S4,6305978,DOMINO S PIZZA,OPERADORA Y PROCESADORA DE PRODUCTOS DE PANIFICACION SA DE CV,Restaurantes de autoservicio,31 a 50 personas,AVENIDA,INSTITUTO POLITECNICO NACIONAL,1925,,LINDAVISTA,07300,"GUSTAVO A. MADERO, Gustavo A. Madero, CIUDAD DE MÉXICO",,,WWW.DOMINOS.COM.MX,Fijo,-99.13215045,19.49693996,,,,0722,003,722516,,72,722,7225,72251,,COLONIA,2010-07,090050001
59,09005722211000741021003286S9,6306542,DOMINO S PIZZA,OPERADORA Y PROCESADORA DE PRODUCTOS DE PANIFICACION SA DE CV,Restaurantes de autoservicio,31 a 50 personas,AVENIDA,5 Norte (Calzada San Juan de Aragón),516,0,EL COYOL  DELEG. GUSTAVO A MADERO,07090,"GUSTAVO A. MADERO, Gustavo A. Madero, CIUDAD DE MÉXICO",,,WWW.DOMINOS.COM.MX,Fijo,-99.09691494,19.47882174,,,,3407,001,722516,,72,722,7225,72251,,COLONIA,2010-07,090050001
60,09003722211000823022003286S0,6319070,DOMINO S PIZZA,OPERADORA Y PROCESADORA DE PRODUCTOS DE PANIFICACION SA DE CV,Restaurantes de autoservicio,11 a 30 personas,CALLE,Cerro de Jesús,17,0,CAMPESTRE CHURUBUSCO,04200,"COYOACÁN, Coyoacán, CIUDAD DE MÉXICO",,,WWW.DOMINOS.COM.MX,Fijo,-99.14245592,19.34552555,,,,0164,012,722516,,72,722,7225,72251,,COLONIA,2010-07,090030001
61,09015722211001322020003286S6,6319071,DOMINO S PIZZA,OPERADORA Y PROCESADORA DE PRODUCTOS DE PANIFICACION SA DE CV,Restaurantes de autoservicio,11 a 30 personas,CALZADA,LINEA 9 DEL METRO ESTACION CHABACANO,0,,ASTURIAS,15810,"CUAUHTÉMOC, Cuauhtémoc, CIUDAD DE MÉXICO",,,WWW.DOMINOS.COM.MX,Fijo,-99.13536577,19.40908814,,,,1271,005,722516,,72,722,7225,72251,,COLONIA,2010-07,090150001
62,09003722211000873022003404S5,6319072,DOMINO S PIZZA,OPERADORA DE FRANQUICIAS ALSEA SAPI DE CV,Restaurantes de autoservicio,31 a 50 personas,AVENIDA,División del Norte,2943,0,EL ROSEDAL,04033,"COYOACÁN, Coyoacán, CIUDAD DE MÉXICO",,,WWW.DOMINOS.COM.MX,Fijo,-99.14894595,19.34243733,EDIFICIO COMERCIAL Y DE SERVICIOS,PLAZA MANZANA,10 Y 11,0291,011,722516,,72,722,7225,72251,,COLONIA,2010-07,090030001
63,09007722211001743020003286S0,6319073,DOMINO S PIZZA,OPERADORA Y PROCESADORA DE PRODUCTOS DE PANIFICACION SA DE CV,Restaurantes de autoservicio,11 a 30 personas,CALLE,ANDROMEDA,1,,PRADO CHURUBUSCO,09480,"IZTAPALAPA, Iztapalapa, CIUDAD DE MÉXICO",,,WWW.DOMINOS.COM.MX,Fijo,-99.13369170,19.35879199,,,,0905,006,722516,,72,722,7225,72251,,COLONIA,2010-07,090070001
64,09015722211001393001003286S7,6319440,DOMINO S PIZZA,OPERADORA Y PROCESADORA DE PRODUCTOS DE PANIFICACION SA DE CV,Restaurantes de autoservicio,31 a 50 personas,AVENIDA,INTERIOR  AVENIDA RÍO CHURUBUSCO,1072,,NUEVA ROSITA,09400,"IZTAPALAPA, Iztapalapa, CIUDAD DE MÉXICO",,,WWW.DOMINOS.COM.MX,Fijo,-99.10176346,19.37890412,,,,0375,022,722516,,72,722,7225,72251,,COLONIA,2014-12,090070001
65,09014722516000023001003286S6,6319927,DOMINO S PIZZA,OPERADORA Y PROCESADORA DE PRODUCTOS DE PANIFICACION SA DE CV,Restaurantes de autoservicio,31 a 50 personas,AVENIDA,SANTIAGO,2921,,REFORMA IZTACCIHUATL,08810,"BENITO JUÁREZ, Benito Juárez, CIUDAD DE MÉXICO",,,WWW.DOMINOS.COM.MX,Fijo,-99.13282894,19.39111400,,,,0312,014,722516,,72,722,7225,72251,,COLONIA,2010-07,090140001
66,09015722516000043000003286S1,6319946,DOMINO S PIZZA,OPERADORA Y PROCESADORA DE PRODUCTOS DE PANIFICACION SA DE CV,Restaurantes de autoservicio,11 a 30 personas,AVENIDA,NIÑOS HEROES LINEA 1 ESTACION M. BALDERAS,0,0,DOCTORES,06720,"CUAUHTÉMOC, Cuauhtémoc, CIUDAD DE MÉXICO",,,WWW.DOMINOS.COM.MX,Fijo,-99.14814291,19.42718474,,,,0860,016,722516,,72,722,7225,72251,,COLONIA,2010-07,090150001
67,09002722516000023000003286S1,6319947,DOMINO S PIZZA,OPERADORA Y PROCESADORA DE PRODUCTOS DE PANIFICACION SA DE CV,Restaurantes de autoservicio,11 a 30 personas,AVENIDA,DEL ROSARIO,1025,,EL ROSARIO    ATZCAPOTZALCO,02430,"AZCAPOTZALCO, Azcapotzalco, CIUDAD DE MÉXICO",,,WWW.DOMINOS.COM.MX,Fijo,-99.20417737,19.50193357,,,,0928,009,722516,,72,722,7225,72251,,COLONIA,2014-12,090020001
68,09007722516000103002004343S0,6321546,DOMINO S PIZZA,GRUPO TERATO SA DE CV,Restaurantes de autoservicio,51 a 100 personas,AVENIDA,8 SUR (CALZADA ERMITA IZTAPALAPA),2806,0,SANTA MARÍA AZTAHUACÁN,09730,"IZTAPALAPA, Iztapalapa, CIUDAD DE MÉXICO",,,,Fijo,-99.03086448,19.34432031,,,,1706,039,722516,,72,722,7225,72251,,COLONIA,2010-07,090070001
69,09016722516000073002004343S6,6321549,DOMINO S PIZZA,GRUPO TERATO SA DE CV,Restaurantes de autoservicio,11 a 30 personas,AVENIDA,CHAPULTEPEC,0,0,SAN MIGUEL CHAPULTEPEC,11850,"MIGUEL HIDALGO, Miguel Hidalgo, CIUDAD DE MÉXICO",,,,Fijo,-99.17733788,19.42058132,OTRO CONGLOMERADO,LINEA 1 METRO CDMX,CM 34,0798,075,722516,,72,722,7225,72251,,COLONIA,2010-07,090160001
70,09004722211000041001000000S7,6713304,DOMINO S PIZZA,OPERADORA Y PROCESADORA DE PRODUCTOS DE PANIFICACION SA DE CV,Restaurantes de autoservicio,0 a 5 personas,AVENIDA,NOCHE DE PAZ,14,0,VISTA HERMOSA,,"CUAJIMALPA DE MORELOS, Cuajimalpa de Morelos, CIUDAD DE MÉXICO",,,WWW.DOMINOS.COM.MX,Fijo,-99.27818842,19.37294565,,,,041A,039,722516,,72,722,7225,72251,,COLONIA,2016-01,090040001
71,09004722517000503012003286S6,6721573,DOMINO S PIZZA,OPERADORA Y PROCESADORA DE PRODUCTOS DE PANIFICACION SA DE CV,Restaurantes de autoservicio,31 a 50 personas,CARRETERA,Vasco de Quiroga,3900,0,LOMAS DE SANTA FE,01219,"CUAJIMALPA DE MORELOS, Cuajimalpa de Morelos, CIUDAD DE MÉXICO",,,WWW.DOMINOS.COM.MX,Fijo,-99.27889417,19.36128939,,,,0369,077,722516,,72,722,7225,72251,,COLONIA,2016-01,090040001
72,09004722211000243022003286S9,6729411,DOMINO S PIZZA,OPERADORA Y PROCESADORA DE PRODUCTOS DE PANIFICACION SA DE CV,Restaurantes de autoservicio,31 a 50 personas,AVENIDA,STIM,1320,0,LOMAS DEL CHAMIZAL,05129,"CUAJIMALPA DE MORELOS, Cuajimalpa de Morelos, CIUDAD DE MÉXICO",,,WWW.DOMINOS.COM.MX,Fijo,-99.26037134,19.38944120,,,,0180,037,722516,,72,722,7225,72251,,COLONIA,2016-01,090040001
73,09003722517001482011004343S4,6733637,DOMINO S PIZZA,GRUPO TERATO SA DE CV,Restaurantes de autoservicio,31 a 50 personas,AVENIDA,AVENIDA DEL IMÁN,151,0,PEDREGAL DE CARRASCO,04700,"COYOACÁN, Coyoacán, CIUDAD DE MÉXICO",,,,Fijo,-99.16395842,19.30806820,CENTRO Y PLAZA COMERCIAL,GRAN SUR,68,1641,036,722516,,72,722,7225,72251,,COLONIA,2016-10,090030001
74,09002722517000802011003286S6,6737456,DOMINO S PIZZA,OPERADORA Y PROCESADORA DE PRODUCTOS DE PANIFICACION SA DE CV,Restaurantes de autoservicio,31 a 50 personas,CALLE,AVENIDA EL ROSARIO,901,,UNIDAD EL ROSARIO,02100,"AZCAPOTZALCO, Azcapotzalco, CIUDAD DE MÉXICO",,,,Fijo,-99.19994681,19.50089053,,,,0928,001,722516,,72,722,7225,72251,,COLONIA,2016-10,090020001
75,09004722517000512011003286S7,6775630,DOMINO S PIZZA,OPERADORA Y PROCESADORA DE PRODUCTOS DE PANIFICACION SA DE CV,Restaurantes de autoservicio,31 a 50 personas,PROLONGACION,VASCO DE QUIROGA,3850,1072,LOMAS DE SANTA FE,05109,"CUAJIMALPA DE MORELOS, Cuajimalpa de Morelos, CIUDAD DE MÉXICO",,,WWW.DOMINOS.COM.MX,Fijo,-99.27364297,19.36289928,,,,0369,001,722516,,72,722,7225,72251,,COLONIA,2017-03,090040001
76,09016722517001303011003286S4,6775631,DOMINO S PIZZA,OPERADORA Y PROCESADORA DE PRODUCTOS DE PANIFICACION SA DE CV,Restaurantes de autoservicio,31 a 50 personas,PEATONAL,1A SECCION DEL BOSQUE DE CHAPULTEPEC,0,,SAN MIGUEL CHAPULTEPEC,06500,"MIGUEL HIDALGO, Miguel Hidalgo, CIUDAD DE MÉXICO",,,WWW.DOMINOS.COM.MX,Fijo,-99.18931589,19.42121481,,,,0798,001,722516,,72,722,7225,72251,,COLONIA,2017-03,090160001
77,09010722517001462011003286S1,6775632,DOMINO S PIZZA,OPERADORA Y PROCESADORA DE PRODUCTOS DE PANIFICACION SA DE CV,Restaurantes de autoservicio,31 a 50 personas,AVENIDA,VASCO DE QUIROGA,1684,,PUEBLO SANTA FE,01230,"ÁLVARO OBREGÓN, Álvaro Obregón, CIUDAD DE MÉXICO",,,WWW.DOMINOS.COM.MX,Fijo,-99.18970643,19.34191420,,,,1203,007,722516,,72,722,7225,72251,,COLONIA,2017-03,090100001
78,09007722517003753011003286S7,6775633,DOMINO S PIZZA,OPERADORA Y PROCESADORA DE PRODUCTOS DE PANIFICACION SA DE CV,Restaurantes de autoservicio,31 a 50 personas,AVENIDA,ERMITA IZTAPALAPA,1853,,LOS ANGELES,09830,"IZTAPALAPA, Iztapalapa, CIUDAD DE MÉXICO",,,WWW.DOMINOS.COM.MX,Fijo,-99.07369279,19.35030375,,,,141A,017,722516,,72,722,7225,72251,,COLONIA,2017-03,090070001
79,09012722212009881011003286S8,6792343,DOMINO S PIZZA,OPERADORA Y PROCESADORA DE PRODUCTOS DE PANIFICACION SA DE CV,Restaurantes de autoservicio,31 a 50 personas,CARRETERA,Federal México-Cuernavaca,5595,0,SAN PEDRO MARTIR,14650,"TLALPAN, Tlalpan, CIUDAD DE MÉXICO",,,WWW.DOMINOS.COM.MX,Fijo,-99.17075436,19.26873708,,,,1123,010,722516,,72,722,7225,72251,,COLONIA,2017-03,090120001
80,09003722212011871011003286S4,6794310,DOMINO S PIZZA,OPERADORA Y PROCESADORA DE PRODUCTOS DE PANIFICACION SA DE CV,Restaurantes de autoservicio,31 a 50 personas,CALLE,SANTA ANA ESQ. SAN FCO CULHUACAN,218,0,EX EJIDO DE CULHUACAN,04400,"COYOACÁN, Coyoacán, CIUDAD DE MÉXICO",,,WWW.DOMINOS.COM.MX,Fijo,-99.12658966,19.32996782,,,,0588,006,722516,,72,722,7225,72251,,COLONIA,2017-03,090030001
81,09003722212011881011003286S3,6794398,DOMINO S PIZZA,OPERADORA Y PROCESADORA DE PRODUCTOS DE PANIFICACION SA DE CV,Restaurantes de autoservicio,31 a 50 personas,CALLE,MONSERRAT,149,,PUEBLO DE LA CANDELARIA,04330,"COYOACÁN, Coyoacán, CIUDAD DE MÉXICO",,,WWW.DOMINOS.COM.MX,Fijo,-99.15354559,19.33230403,,,,0573,045,722516,,72,722,7225,72251,,COLONIA,2017-03,090030001
82,09012722516000213000003286S7,6811853,DOMINO S PIZZA,OPERADORA Y PROCESADORA DE PRODUCTOS DE PANIFICACION SA DE CV,Restaurantes de autoservicio,11 a 30 personas,AVENIDA,Boulevard Adolfo Ruíz Cortines,4690,0,AMPLIACIÓN JARDÍNES DEL PEDREGAL,04500,"TLALPAN, Tlalpan, CIUDAD DE MÉXICO",,,WWW.DOMINOS.COM,Fijo,-99.19620967,19.30198490,,,520,0074,005,722516,,72,722,7225,72251,,COLONIA,2017-11,090120001
83,09002722516000263000003286S3,6811854,DOMINO S PIZZA,OPERADORA Y PROCESADORA DE PRODUCTOS DE PANIFICACION SA DE CV,Restaurantes de autoservicio,11 a 30 personas,EJE VIAL,1 PONIENTE  CALZADA VALLEJO,1090,0,SANTA CRUZ DE LAS SALINAS,02340,"AZCAPOTZALCO, Azcapotzalco, CIUDAD DE MÉXICO",,,WWW.DOMINOS.COM.MX,Fijo,-99.15143226,19.48720507,,,,0877,027,722516,,72,722,7225,72251,,COLONIA,2017-11,090020001
84,09014722516000273000003286S7,6812701,DOMINO S PIZZA,OPERADORA Y PROCESADORA DE PRODUCTOS DE PANIFICACION SA DE CV,Restaurantes de autoservicio,11 a 30 personas,CALLE,SAN FRANCISCO,1621,,DEL VALLE,03100,"BENITO JUÁREZ, Benito Juárez, CIUDAD DE MÉXICO",,,WWW.DOMINOS.COM.MX,Fijo,-99.17572670,19.37284578,,,,0806,006,722516,,72,722,7225,72251,,COLONIA,2017-11,090140001
85,09015722516000663000003286S6,6812705,DOMINO S PIZZA,OPERADORA Y PROCESADORA DE PRODUCTOS DE PANIFICACION SA DE CV,Restaurantes de autoservicio,11 a 30 personas,AVENIDA,Paseo de la Reforma,222,0,JUAREZ,06600,"CUAUHTÉMOC, Cuauhtémoc, CIUDAD DE MÉXICO",,,WWW.DOMINOS.COM,Fijo,-99.16191251,19.42918111,OTRO CONGLOMERADO,LINEA 2 DEL METRO,,0803,008,722516,,72,722,7225,72251,,COLONIA,2017-11,090150001
86,09014722516000263001003286S8,6813951,DOMINO S PIZZA,OPERADORA Y PROCESADORA DE PRODUCTOS DE PANIFICACION SA DE CV,Restaurantes de autoservicio,31 a 50 personas,AVENIDA,INSURGENTES SUR,1548,,CREDITO CONSTRUCTOR,03940,"BENITO JUÁREZ, Benito Juárez, CIUDAD DE MÉXICO",,,WWW.DOMINOS.COM,Fijo,-99.14824222,19.36893829,,,,0863,026,722516,,72,722,7225,72251,,COLONIA,2017-11,090140001
87,09016722517000292011000000U0,685659,DOMINO S PIZZA,,Restaurantes de autoservicio,0 a 5 personas,AVENIDA,MEXICO TACUBA,0,0,TACUBA,11410,"MIGUEL HIDALGO, Miguel Hidalgo, CIUDAD DE MÉXICO",5518033348,Q11818@DOMINOS.COM.MX,,Fijo,-99.18808852,19.45922924,,,,0158,015,722516,,72,722,7225,72251,,COLONIA,2014-12,090160001
88,09016722517000222012003286S7,691794,DOMINO S PIZZA,OPERADORA Y PROCESADORA DE PRODUCTOS DE PANIFICACION SA DE CV,Restaurantes de autoservicio,31 a 50 personas,AVENIDA,"CHIVATITO, 1A SECC DEL BOSQUE DE",0,,AN MIGUEL CHAPULTEPEC,06500,"MIGUEL HIDALGO, Miguel Hidalgo, CIUDAD DE MÉXICO",,,WWW.DOMINOS.COM.MX,Fijo,-99.18736195,19.42301860,,,,0798,001,722516,,72,722,7225,72251,,COLONIA,2014-12,090160001
89,09007722517000063010054047S4,732732,DOMINO S PIZZA,PARA SERVIRLE A USTED SA DE CV,Restaurantes de autoservicio,11 a 30 personas,EJE VIAL,8 SUR (CALZADA ERMITA IZTAPALAPA),4071,,SANTIAGO ACAHUALTEPEC,09600,"IZTAPALAPA, Iztapalapa, CIUDAD DE MÉXICO",,,,Fijo,-99.00534483,19.35620497,,,,2564,025,722516,,72,722,7225,72251,,PUEBLO,2014-12,090070001
90,09012722517000103011003286S8,913405,DOMINO S PIZZA,OPERADORA Y PROCESADORA DE PRODUCTOS DE PANIFICACION SA DE CV,Restaurantes de autoservicio,31 a 50 personas,CALZADA,ACOXPA,567,,PRADO COAPA,14350,"TLALPAN, Tlalpan, CIUDAD DE MÉXICO",,,WWW.DOMINOS.COM.MX,Fijo,-99.21856214,19.28537066,,,,0657,014,722516,,72,722,7225,72251,,COLONIA,2014-12,090120001
91,09004722517000093011003286S8,919694,DOMINO S PIZZA,OPERADORA Y PROCESADORA DE PRODUCTOS DE PANIFICACION SA DE CV,Restaurantes de autoservicio,51 a 100 personas,CALLE,JOSE MA. CASTORENA,232,,EL YAQUI,05200,"CUAJIMALPA DE MORELOS, Cuajimalpa de Morelos, CIUDAD DE MÉXICO",,,WWW.DOMINOS.COM.MX,Fijo,-99.27791293,19.37277049,,,,041A,016,722516,,72,722,7225,72251,,COLONIA,2014-12,090040001
92,09010722517000093011003286S5,921102,DOMINO S PIZZA,OPERADORA Y PROCESADORA DE PRODUCTOS DE PANIFICACION SA DE CV,Restaurantes de autoservicio,31 a 50 personas,BOULEVARD,LOPEZ MATEOS,1701,,LOMAS DE PLATEROS,01480,"ÁLVARO OBREGÓN, Álvaro Obregón, CIUDAD DE MÉXICO",,,WWW.DOMINOS.COM.MX,Fijo,-99.26494904,19.37261640,,,,1379,068,722516,,72,722,7225,72251,,COLONIA,2014-12,090100001
93,09002722517000783012003286S8,6706028,DOMINO S PIZZA,OPERADORA Y PROCESADORA DE PRODUCTOS DE PANIFICACION SA DE CV,Restaurantes de autoservicio,31 a 50 personas,CALLE,EGIPTO,142,,CLAVERIA,02080,"AZCAPOTZALCO, Azcapotzalco, CIUDAD DE MÉXICO",,,WWW.DOMINOS.COM.MX,Fijo,-99.18202210,19.46352006,,,,0805,023,722516,,72,722,7225,72251,,COLONIA,2016-01,090020001
94,09003722211000853002003286S7,6705327,DOMINO S PIZZA SUC 11037,OPERADORA Y PROCESADORA DE PRODUCTOS DE PANIFICACION SA DE CV,Restaurantes de autoservicio,31 a 50 personas,CALLE,CERRO DE LOS HORNOS,15,,COLONIA COPILCO UNIVERSIDAD,04360,"COYOACÁN, Coyoacán, CIUDAD DE MÉXICO",,,WWW.DOMINOS.COM,Fijo,-99.17833950,19.33601776,,,,054A,013,722516,,72,722,7225,72251,,COLONIA,2016-01,090030001
95,09013722211000091002003286S3,6713284,DOMINO S PIZZA SUC 11140,OPERADORA Y PROCESADORA DE PRODUCTOS DE PANIFICACION SA DE CV,Restaurantes de autoservicio,31 a 50 personas,AVENIDA,16 de Septiembre,304,0,COLONIA SANTA MARÍA TEPEPAN,16020,"XOCHIMILCO, Xochimilco, CIUDAD DE MÉXICO",,,,Fijo,-99.13894659,19.28192366,,,D Y E,0014,027,722516,,72,722,7225,72251,,COLONIA,2016-01,090130001
96,09015722211001493000003286S5,6319069,DOMINO S PIZZA SUC 11768,OPERADORA Y PROCESADORA DE PRODUCTOS DE PANIFICACION SA DE CV,Restaurantes de autoservicio,11 a 30 personas,AVENIDA,PASEO DE LA REFORMA,0,,GUERRERO,06030,"CUAUHTÉMOC, Cuauhtémoc, CIUDAD DE MÉXICO",,,WWW.DOMINOS.COM,Fijo,-99.14731000,19.43721000,,,,0729,011,722516,,72,722,7225,72251,,COLONIA,2010-07,090150001
97,09017722516000093001003286S2,6307747,DOMINO S PIZZA SUC 11931,OPERADORA Y PROCESADORA DE PRODUCTOS DE PANIFICACION SA DE CV,Restaurantes de autoservicio,31 a 50 personas,CALZADA,General Ignacio Zaragoza,0,0,MOCTEZUMA,15500,"VENUSTIANO CARRANZA, Venustiano Carranza, CIUDAD DE MÉXICO",,,,Fijo,-99.09694223,19.41965848,,,,1153,008,722516,,72,722,7225,72251,,COLONIA,2010-07,090170001
98,09012722211000603002003286S7,6709876,DOMINO S PIZZA SUCURSAL 11124,OPERADORA Y PROCESADORA DE PRODUCTOS DE PANIFICACION SA DE CV,Restaurantes de autoservicio,31 a 50 personas,CALLE,INSURGENTES SUR,3724,,PEÑA POBRE,14000,"TLALPAN, Tlalpan, CIUDAD DE MÉXICO",,,,Fijo,-99.18003883,19.29371935,,,,0375,013,722516,,72,722,7225,72251,,COLONIA,2016-01,090120001
