,CLEE,Id,Nombre,Razon_social,Clase_actividad,Estrato,Tipo_vialidad,Calle,Num_Exterior,Num_Interior,Colonia,CP,Ubicacion,Telefono,Correo_e,Sitio_internet,Tipo,Longitud,Latitud,tipo_corredor_industrial,nom_corredor_industrial,numero_local,AGEB,Manzana,CLASE_ACTIVIDAD_ID,EDIFICIO_PISO,SECTOR_ACTIVIDAD_ID,SUBSECTOR_ACTIVIDAD_ID,RAMA_ACTIVIDAD_ID,SUBRAMA_ACTIVIDAD_ID,EDIFICIO,Tipo_Asentamiento,Fecha_Alta,AreaGeo
0,09002722517001441000000000U2,9285628,PIZZA HUT,PREMIUN RESTAURANT BRINDS S DE RL DE CV,"Restaurantes con servicio de preparación de pizzas, hamburguesas, hot dogs y pollos rostizados para llevar",0 a 5 personas,AVENIDA,AVENIDA DE LAS GRANJAS,972,,EJE 5 NORTE 990 SANTA BARBARA,02230,"AZCAPOTZALCO, Azcapotzalco, CIUDAD DE MÉXICO",,,,Fijo,-99.17616730,19.50253592,,,,0932,016,722517,,72,722,7225,72251,,COLONIA,2020-11,090020001
1,09004722211000151001004093M4,6232115,PIZZA HUT,PREMIUM RESTAURANT BRANDS S DE RL DE CV,Restaurantes de autoservicio,251 y más personas,CALLE,PASEO DE LOS TAMARINDOS,0,0,BOSQUES DE LAS LOMAS,05337,"CUAJIMALPA DE MORELOS, Cuajimalpa de Morelos, CIUDAD DE MÉXICO",,ALEJANDRA.RIVERA@PRV.COM.MX,WWW.PIZZAHUT.COM.MX,Fijo,-99.25106894,19.38817852,EDIFICIO COMERCIAL Y DE SERVICIOS,ARCOS,,0195,001,722516,PISO 1,72,722,7225,72251,400,COLONIA,2010-07,090040001
2,09002722511000121000000000U4,739621,PIZZA HUT,PREMIUM RESTAURANT BRANS S DE RL DE CV,Restaurantes con servicio de preparación de alimentos a la carta o de comida corrida,0 a 5 personas,EJE VIAL,3 NORTE (CUITLAHUAC),3651,,VICTORIA DE LAS DEMOCRACIAS,02810,"AZCAPOTZALCO, Azcapotzalco, CIUDAD DE MÉXICO",,,,Fijo,-99.16527042,19.47157268,,,8,074A,016,722511,,72,722,7225,72251,,COLONIA,2010-07,090020001
3,09010722516000341001004093S0,6848569,PIZZA HUT DESIERTO DE LOS LEONES  SUCURSAL 486,PREMIUM RESTAURANT BRANDS S DE RL DE CV,Restaurantes de autoservicio,11 a 30 personas,CALZADA,Desierto de los Leones,5051,0,TETELPAN,01700,"ÁLVARO OBREGÓN, Álvaro Obregón, CIUDAD DE MÉXICO",,,WWW.PIZZAHUT.COM.MX,Fijo,-99.23107217,19.34159502,,,,1843,013,722516,,72,722,7225,72251,,COLONIA,2018-03,090100001
4,09014722211001121101004093S5,6792291,PIZZA HUT EJE CENTRAL PORTALES,PREMIUM RESTAURANT BRANDS S DE RL DE CV,Restaurantes de autoservicio,11 a 30 personas,CALLE,Central (Lázaro Cárdenas),81,0,INDEPENDENCIA,03630,"CUAUHTÉMOC, Cuauhtémoc, CIUDAD DE MÉXICO",,,WWW.PIZZAHUT.COM.MX,Fijo,-99.14167241,19.42936559,,,,0875,025,722516,,72,722,7225,72251,,COLONIA,2017-03,090150001
5,09002551111000021011004093S1,6705297,PIZZA HUT LAS ARMAS,PREMIUM RESTAURANT BRANDS S DE RL DE CV,Restaurantes de autoservicio,11 a 30 personas,CALZADA,Calzada de las Armas,315,0,SAN PEDRO XALPA,02710,"AZCAPOTZALCO, Azcapotzalco, CIUDAD DE MÉXICO",,,WWW.PIZZAHUT.COM.MX,Fijo,-99.21754703,19.48614261,,,,1080,001,722516,,72,722,7225,72251,,COLONIA,2016-01,090020001
6,09014722517001551001004093S3,6772761,PIZZA HUT PATRIOTISMO,PREMIUM RESTAURANT BRANDS S DE RL DE CV,Restaurantes de autoservicio,11 a 30 personas,AVENIDA,Interior (Avenida Patriotismo),229,0,SAN PEDRO DE LOS PINOS,03800,"BENITO JUÁREZ, Benito Juárez, CIUDAD DE MÉXICO",,,WWW.PIZZA.COM.MX,Fijo,-99.18103335,19.39599992,,,,0187,026,722516,,72,722,7225,72251,,COLONIA,2016-10,090140001
7,09007722517000153010004093S3,715023,PIZZA HUT PLAZA CENTRAL,PREMIUM RESTAURANT BRANDS S DE RL DE CV,Restaurantes de autoservicio,11 a 30 personas,AVENIDA,4 Oriente (Río Churubusco),1635,0,CENTRAL DE ABASTOS,09040,"IZTAPALAPA, Iztapalapa, CIUDAD DE MÉXICO",,,WWW.PIZZAHUT.COM.MX,Fijo,-99.09568880,19.37865142,CENTRO Y PLAZA COMERCIAL,PLAZA CENTRAL,,2475,010,722516,,72,722,7225,72251,,COLONIA,2014-12,090070001
8,09005722211001921001004093S6,6795234,PIZZA HUT SAN JUAN DE ARAGON SUC 446,PREMIUM RESTAURANT BRANDS S DE RL DE CV,Restaurantes de autoservicio,11 a 30 personas,CALLE,5 Norte (Calzada San Juan de Aragón),42,0,HEROES DE CHAPULTEPEC,07939,"GUSTAVO A. MADERO, Gustavo A. Madero, CIUDAD DE MÉXICO",,,WWW.PIZZAHUT.COM.MX,Fijo,-99.09043539,19.47591314,,,,3055,037,722516,,72,722,7225,72251,,COLONIA,2017-03,090050001
9,09004722211000011002004093S0,6316273,PIZZA HUT SUC 110 BOSQUES DE LAS LOMAS,PREMIUM RESTAURANT BRANDS S DE RL DE CV,Restaurantes de autoservicio,11 a 30 personas,AVENIDA,Stim,1277,0,LOMAS DEL CHAMIZAL,05129,"CUAJIMALPA DE MORELOS, Cuajimalpa de Morelos, CIUDAD DE MÉXICO",,,WWW.PIZZAHUT.COM.MX,Fijo,-99.25990974,19.39239835,,,,0176,015,722516,,72,722,7225,72251,,COLONIA,2010-07,090040001
10,09016722516000063000004093S7,6315361,PIZZA HUT SUC 114 POLANCO,PREMIUM RESTAURANT BRANDS S DE RL DE CV,Restaurantes de autoservicio,11 a 30 personas,CALLE,Hipólito Taine,253,0,POLANCO,11560,"MIGUEL HIDALGO, Miguel Hidalgo, CIUDAD DE MÉXICO",,,WWW.PIZZAHUT.COM.MX,Fijo,-99.18488446,19.43332648,,,,0675,009,722516,,72,722,7225,72251,,COLONIA,2010-07,090160001
11,09012722211000371002004093S1,6315323,PIZZA HUT SUC 132 INSURGENTES SUR,PREMIUM RESTAURANT BRANDS S DE RL DE CV,Restaurantes de autoservicio,11 a 30 personas,AVENIDA,Insurgentes Sur,3757,0,LA FAMA,14263,"TLALPAN, Tlalpan, CIUDAD DE MÉXICO",,,WWW.PIZZAHUT.COM.MX,Fijo,-99.17799113,19.29261274,,,,0680,006,722516,,72,722,7225,72251,,COLONIA,2010-07,090120001
12,09005722211001351002004093S6,6308460,PIZZA HUT SUC 185 MONTEVIDEO,PREMIUM RESTAURANT BRANDS S DE RL DE CV,Restaurantes de autoservicio,11 a 30 personas,AVENIDA,5 Norte (Montevideo),83,0,TEPEYAC INSURGENTES,07020,"GUSTAVO A. MADERO, Gustavo A. Madero, CIUDAD DE MÉXICO",,,WWW.PIZZAHUT.COM.MX,Fijo,-99.12220168,19.48663831,,,,1129,005,722516,,72,722,7225,72251,,COLONIA,2010-07,090050001
13,09015722211000991002004093S9,6305420,PIZZA HUT SUC 186 HAMBURGO,PREMIUM RESTAURANT BRANDS S DE RL DE CV,Restaurantes de autoservicio,11 a 30 personas,CALLE,Hamburgo,44,0,JUAREZ,06600,"CUAUHTÉMOC, Cuauhtémoc, CIUDAD DE MÉXICO",,,WWW.PIZZAHUT.COM.MX,Fijo,-99.16372332,19.42659570,,,,095A,009,722516,,72,722,7225,72251,,COLONIA,2010-07,090150001
14,09015722211000551002004093S1,6305430,PIZZA HUT SUC 193 BALDERAS,PREMIUM RESTAURANT BRANDS S DE RL DE CV,Restaurantes de autoservicio,11 a 30 personas,AVENIDA,Balderas,72,0,CENTRO,06050,"CUAUHTÉMOC, Cuauhtémoc, CIUDAD DE MÉXICO",,,WWW.PIZZAHUT.COM.MX,Fijo,-99.14775580,19.43235509,,,,0748,024,722516,,72,722,7225,72251,,COLONIA,2010-07,090150001
15,09002722211000291001004093S2,6308451,PIZZA HUT SUC 407 CUITLAHUAC,PREMIUM RESTAURANT BRANDS S DE RL DE CV,Restaurantes de autoservicio,0 a 5 personas,AVENIDA,3 Norte (Cuitláhuac),461,0,HOGAR Y SEGURIDAD,02820,"AZCAPOTZALCO, Azcapotzalco, CIUDAD DE MÉXICO",,ALEJANDRA.RIVERA@PRB.COM.MX,WWW.PIZZAHUT.COM.MX,Fijo,-99.16863061,19.47053509,,,,0720,018,722516,,72,722,7225,72251,,COLONIA,2010-07,090020001
16,09015722211001001002004093S6,6305496,PIZZA HUT SUC 408 BUENAVISTA,PREMIUM RESTAURANT BRANDS S DE RL DE CV,Restaurantes de autoservicio,11 a 30 personas,AVENIDA,Insurgentes Norte,184,0,SANTA MARIA LA RIVERA,06400,"CUAUHTÉMOC, Cuauhtémoc, CIUDAD DE MÉXICO",,,WWW.PIZZAHUT.COM.MX,Fijo,-99.15352882,19.44573054,,,,0485,015,722516,,72,722,7225,72251,,COLONIA,2010-07,090150001
17,09007722211000701002004093S9,6314038,PIZZA HUT SUC 413 PIE DE LA CUESTA,PREMIUM RESTAURANT BRANDS S DE RL DE CV,Restaurantes de autoservicio,11 a 30 personas,CALLE,Leiria,124,0,SAN ANDRÉS TETEPILCO,09440,"IZTAPALAPA, Iztapalapa, CIUDAD DE MÉXICO",,,WWW.PIZZAHUT.COM.MX,Fijo,-99.12983175,19.37669050,,,,0483,009,722516,,72,722,7225,72251,,COLONIA,2010-07,090070001
18,09014722516000054001004093S1,6316048,PIZZA HUT SUC 452 SAN PEDRO DE LOS PINOS,PREMIUM RESTAURANT BRANDS S DE RL DE CV,Restaurantes de autoservicio,11 a 30 personas,AVENIDA,Interior (Avenida Revolución),617,0,SAN PEDRO DE LOS PINOS,03800,"BENITO JUÁREZ, Benito Juárez, CIUDAD DE MÉXICO",,,WWW.PIZZAHUT.COM.MX,Fijo,-99.18649884,19.38635370,,,,0346,019,722516,,72,722,7225,72251,,COLONIA,2010-07,090140001
19,09003722211000601000004093S0,6313084,PIZZA HUT SUC 463 MIRAMONTES,PREMIUM RESTAURANT BRANDS S DE RL DE CV,Restaurantes de autoservicio,11 a 30 personas,CALLE,1 ORIENTE (AVENIDA CANAL DE MIRAMONTES),2600,0,LOS CIRUELOS,04830,"COYOACÁN, Coyoacán, CIUDAD DE MÉXICO",,,WWW.PIZZAHUT.MX,Fijo,-99.13256119,19.32096022,,,,086A,017,722516,,72,722,7225,72251,,COLONIA,2010-07,090030001
20,09014722211000161002004093S2,6313014,PIZZA HUT SUC 504 PILARES,PREMIUM RESTAURANT BRANDS S DE RL DE CV,Restaurantes de autoservicio,11 a 30 personas,CALLE,Pilares,606,0,DEL VALLE,03100,"BENITO JUÁREZ, Benito Juárez, CIUDAD DE MÉXICO",,,WWW.PIZZAHUT.COM.MX,Fijo,-99.16176682,19.37691339,,,,0613,002,722516,,72,722,7225,72251,,COLONIA,2010-07,090140001
21,09016722211000461002004093S1,6314396,PIZZA HUT SUC 519 GALERIAS,PREMIUM RESTAURANT BRANDS S DE RL DE CV,Restaurantes de autoservicio,11 a 30 personas,CALLE,Interior (Calzada Melchor Ocampo),193,0,VERÓNICA ANZURES,11300,"MIGUEL HIDALGO, Miguel Hidalgo, CIUDAD DE MÉXICO",,,WWW.PIZZAHUT.COM.MX,Fijo,-99.17041089,19.43550053,,,,0603,021,722516,,72,722,7225,72251,,COLONIA,2010-07,090160001
22,09005722211001201002004093S3,6305548,PIZZA HUT SUC. 443 PLAZA TORRES LINDAVISTA,PREMIUM RESTAURANT BRANDS S DE RL DE CV,Restaurantes de autoservicio,11 a 30 personas,AVENIDA,Miguel Othón de Mendizabal Oriente,343,0,TORRES LINDAVISTA,07708,"GUSTAVO A. MADERO, Gustavo A. Madero, CIUDAD DE MÉXICO",,,WWW.PIZZAHUT.COM.MX,Fijo,-99.14443016,19.50736366,OTRO CONGLOMERADO,TORRES LINDAVISTA,,0525,005,722516,,72,722,7225,72251,,COLONIA,2010-07,090050001
23,09015722211001091002004093S7,6304615,PIZZA HUT SUC. 505 PALMA,PREMIUM RESTAURANT BRANDS S DE RL DE CV,Restaurantes de autoservicio,11 a 30 personas,CALLE,Palma,34,0,CENTRO,06000,"CUAUHTÉMOC, Cuauhtémoc, CIUDAD DE MÉXICO",,ALEJANDRA.RIVERA@PRB.COM.MX,WWW.PIZZAHUT.COM.MX,Fijo,-99.13516306,19.43386231,,,,0771,017,722516,,72,722,7225,72251,,COLONIA,2010-07,090150001
24,09002722516000921000004093S6,9043110,PIZZA HUT TECNOPARQUE  SUC. 917,PREMIUM RESTAURANT BRANDS S DE RL DE CV,Restaurantes de autoservicio,11 a 30 personas,CALLE,Avenida de las Granjas,972,0,SANTA BARBARA,02230,"AZCAPOTZALCO, Azcapotzalco, CIUDAD DE MÉXICO",,,WWW.PIZZAHUT.COM.MC,Fijo,-99.17628298,19.50298405,CENTRO Y PLAZA COMERCIAL,TECNO PARQUE,,0932,016,722516,,72,722,7225,72251,,COLONIA,2019-11,090020001
