,CLEE,Id,Nombre,Razon_social,Clase_actividad,Estrato,Tipo_vialidad,Calle,Num_Exterior,Num_Interior,Colonia,CP,Ubicacion,Telefono,Correo_e,Sitio_internet,Tipo,Longitud,Latitud,tipo_corredor_industrial,nom_corredor_industrial,numero_local,AGEB,Manzana,CLASE_ACTIVIDAD_ID,EDIFICIO_PISO,SECTOR_ACTIVIDAD_ID,SUBSECTOR_ACTIVIDAD_ID,RAMA_ACTIVIDAD_ID,SUBRAMA_ACTIVIDAD_ID,EDIFICIO,Tipo_Asentamiento,Fecha_Alta,AreaGeo
0,09002722515002213000054919M8,8679973,STARBUCKS,ASESORIA Y PRESTACION DE SERVICIOS INTEGRALES SA DE CV,"Cafeterías, fuentes de sodas, neverías, refresquerías y similares",11 a 30 personas,AVENIDA,AQUILES SERDAN,1025,,EL ROSARIO,02100,"AZCAPOTZALCO, Azcapotzalco, CIUDAD DE MÉXICO",,SBMX38458@STARBUCKS.COM.MX,,Semifijo,-99.20521224,19.50302436,CENTRO Y PLAZA COMERCIAL,TOWN CENTER EL ROSARIO,1025,0928,009,722515,PLANTA BAJA,72,722,7225,72251,CENTRO Y PLAZA COMERCIAL,COLONIA,2019-11,090020001
1,09010722515003192000054918M6,8694817,STARBUCKS,ASESORIA Y PRESTACION DE SERVICIOS SA DE CV,"Cafeterías, fuentes de sodas, neverías, refresquerías y similares",6 a 10 personas,AVENIDA,REVOLUCION,1267,,LOS ALPES,01010,"ÁLVARO OBREGÓN, Álvaro Obregón, CIUDAD DE MÉXICO",,,,Fijo,-99.18957305,19.36061817,CENTRO Y PLAZA COMERCIAL,PORTAL SAN ANGEL,1267,0987,016,722515,PISO 2,72,722,7225,72251,CENTRO Y PLAZA COMERCIAL,COLONIA,2019-11,090100001
2,09016722515006151000003311S6,8780039,STARBUCKS,CAFE SIRENA S DE RL DE CV,"Cafeterías, fuentes de sodas, neverías, refresquerías y similares",6 a 10 personas,AVENIDA,MIGUEL DE CERVANTES SAAVEDRA,380,,IRRIGACION,11579,"MIGUEL HIDALGO, Miguel Hidalgo, CIUDAD DE MÉXICO",,,WWW.STARBUCKS.COM.MX,Fijo,-99.20624598,19.44013440,,,,0444,006,722515,,72,722,7225,72251,,COLONIA,2019-11,090160001
3,09014722515007551000000000U1,9287876,STARBUCKS,CAFE SIRENA S DE RL DE CV,"Cafeterías, fuentes de sodas, neverías, refresquerías y similares",0 a 5 personas,AVENIDA,INSURGENTES SUR,1458,,ACTIPAN,03230,"BENITO JUÁREZ, Benito Juárez, CIUDAD DE MÉXICO",018002880888,,WWW.STARBUCKS.CO.MX,Fijo,-99.18043461,19.36861937,EDIFICIO COMERCIAL Y DE SERVICIOS,TORRE ORIGAMI,,0717,010,722515,MEZZANINE,72,722,7225,72251,,COLONIA,2020-11,090140001
4,09003722515007191000000000U9,9295028,STARBUCKS,CAFE SIRENA S DE RL DE CV,"Cafeterías, fuentes de sodas, neverías, refresquerías y similares",0 a 5 personas,CALLE,BENITO JUAREZ,117,,EX HACIENDA COAPA,04850,"COYOACÁN, Coyoacán, CIUDAD DE MÉXICO",,,,Fijo,-99.13570845,19.31361376,CENTRO Y PLAZA COMERCIAL,PLAZA AMERICA,,1410,036,722515,PLANTA BAJA,72,722,7225,72251,,COLONIA,2020-11,090030001
5,09015722511016691000000000U0,9297793,STARBUCKS,CAFE SIRENA SA DE CV,Restaurantes con servicio de preparación de alimentos a la carta o de comida corrida,0 a 5 personas,EJE VIAL,2-A SUR (SAN LUIS POTOSI),143,0,ROMA NORTE,06700,"CUAUHTÉMOC, Cuauhtémoc, CIUDAD DE MÉXICO",,,WWW.STARBUCKS.COM.MX,Fijo,-99.16131786,19.41380258,,,,1214,007,722511,,72,722,7225,72251,,COLONIA,2020-11,090150001
6,09014722515007581000000000U8,9338571,STARBUCKS,DMA CORPORATIVO SA DE CV,"Cafeterías, fuentes de sodas, neverías, refresquerías y similares",0 a 5 personas,AVENIDA,INSURGENTES SUR,38,0,NAPOLES,,"BENITO JUÁREZ, Benito Juárez, CIUDAD DE MÉXICO",,SBMX38504@STARBUCKS.COM.MX,,Fijo,-99.17259465,19.39374015,CENTRO Y PLAZA COMERCIAL,WORLD TRADE CENTER,,0219,001,722515,PLANTA BAJA,72,722,7225,72251,CAFETERIA,COLONIA,2021-05,090140001
7,09015722515013983000000000U5,9348062,STARBUCKS,CAFE SIRENA SA DE CV,"Cafeterías, fuentes de sodas, neverías, refresquerías y similares",11 a 30 personas,CALLE,TLAXCALA,207,,HIPODROMO,,"CUAUHTÉMOC, Cuauhtémoc, CIUDAD DE MÉXICO",,NUEVOLEON@STARBUCKS..COM.MX,STARBUCKS.COM,Fijo,-99.17174049,19.40632525,,,,1341,005,722515,,72,722,7225,72251,,COLONIA,2021-05,090150001
8,09014722110003541011003311S6,6793018,STARBUCKS,CAFE SIRENA S DE RL DE CV,"Cafeterías, fuentes de sodas, neverías, refresquerías y similares",6 a 10 personas,CIRCUITO,INTERIOR (AVENIDA PATRIOTISMO),229,,SAN PEDRO DE LOS PINOS,03800,"BENITO JUÁREZ, Benito Juárez, CIUDAD DE MÉXICO",,TUOPINION@STARBUCKS.COM.MX,WWW.STARBUCKS.COM.MX,Fijo,-99.18103351,19.39599924,CENTRO Y PLAZA COMERCIAL,METROPOLI PATRIOTISMO,SN,0187,026,722515,,72,722,7225,72251,,COLONIA,2017-03,090140001
9,09017722219015641011003311S2,6794431,STARBUCKS,CAFE SIRENA S DE RL DE CV,"Cafeterías, fuentes de sodas, neverías, refresquerías y similares",6 a 10 personas,EJE VIAL,1 NORTE (AVENIDA HANGARES DE AVIACIÓN FUERZA AÉREA MEXICANA),0,,AVIACION CIVIL,15620,"VENUSTIANO CARRANZA, Venustiano Carranza, CIUDAD DE MÉXICO",,TUOPINION@STARBUCKS.COM.MX,WWW.STARBUCKS.COM.MX,Fijo,-99.07070673,19.42944243,AEROPUERTO,AEROPUERTO INTERNACIONAL DE LA CIUDAD DE MEXICO,TERMINAL 2 PASUES23,0140,001,722515,,72,722,7225,72251,,COLONIA,2017-03,090170001
10,09017722219015651010003311S1,6794432,STARBUCKS,CAFE SIRENA S DE RL DE CV,"Cafeterías, fuentes de sodas, neverías, refresquerías y similares",11 a 30 personas,EJE VIAL,1 NORTE (AVENIDA HANGARES DE AVIACIÓN FUERZA AÉREA MEXICANA),10,,AVIACION CIVIL,15620,"VENUSTIANO CARRANZA, Venustiano Carranza, CIUDAD DE MÉXICO",,TUOPINION@STARBUCKS.COM.MX,WWW.STARBUCKS.COM.MX,Fijo,-99.07070673,19.42944243,AEROPUERTO,AEROPUERTO INTERNACIONAL DE LA CIUDAD DE MEXICO,TERMINAL 2 PASUES10,0140,001,722515,,72,722,7225,72251,,COLONIA,2017-03,090170001
11,09003722219013001011003311S1,6795055,STARBUCKS,CAFE SIRENA S DE RL DE CV,"Cafeterías, fuentes de sodas, neverías, refresquerías y similares",6 a 10 personas,AVENIDA,DIVISIÓN DEL NORTE,34344,,COL. NUEVA ORIENTAL COAPA,14300,"COYOACÁN, Coyoacán, CIUDAD DE MÉXICO",,TUOPINION@STARBUCKS.COM.MX,WWW.STARBUCKS.COM.MX,Fijo,-99.13799401,19.31444168,,,,1410,004,722515,,72,722,7225,72251,,COLONIA,2017-03,090030001
12,09004722110000323122003311S3,6318008,STARBUCKS  COFFE,CAFE SIRENA S DE RL DE CV,"Cafeterías, fuentes de sodas, neverías, refresquerías y similares",0 a 5 personas,AVENIDA,JOSÉ MARÍA CASTORENA,320,,VILLAS DE CUAJIMALPA,05200,"CUAJIMALPA DE MORELOS, Cuajimalpa de Morelos, CIUDAD DE MÉXICO",,TUOPINION@STARBUCKS.COM.MX,WWW.STARBUCKS.COM.MX,Fijo,-99.29154281,19.36056550,,,,0354,009,722515,,72,722,7225,72251,,COLONIA,2010-07,090040001
13,09010722515004581000003311S9,7898463,STARBUCKS  SANTA FE II  38150,CAFE SIRENA S DE RL DE CV,"Cafeterías, fuentes de sodas, neverías, refresquerías y similares",6 a 10 personas,CIRCUITO,GUILLERMO GONZÁLEZ CAMARENA,1500,1,SANTA FÉ,01210,"ÁLVARO OBREGÓN, Álvaro Obregón, CIUDAD DE MÉXICO",,TUOPINION@STARBUCKS.COM.MX,WWW.STARBUCKS.COM.MX,Fijo,-99.26501631,19.36533973,,,,1542,049,722515,,72,722,7225,72251,,COLONIA,2019-11,090100001
14,09017722219015671001003311S9,6795104,STARBUCKS 102,CAFE SIRENA S DE RL DE CV,"Cafeterías, fuentes de sodas, neverías, refresquerías y similares",6 a 10 personas,CALLE,SONORA,0,,PEÑÓN DE LOS BAÑOS,15620,"VENUSTIANO CARRANZA, Venustiano Carranza, CIUDAD DE MÉXICO",,TUOPINION@STARBUCKS.COM.MX,WWW.STARBUCKS.COM.MX,Fijo,-99.07070673,19.42944243,AEROPUERTO,AEROPUERTO INTERNACIONAL DE LA CIUDAD DE MEXICO,SN,0140,001,722515,,72,722,7225,72251,,COLONIA,2017-03,090170001
15,09014722219016131011003311S0,6795105,STARBUCKS 109,CAFE SIRENA S DE RL DE CV,"Cafeterías, fuentes de sodas, neverías, refresquerías y similares",0 a 5 personas,AVENIDA,INSURGENTES SUR,729,,NAPOLES,03810,"BENITO JUÁREZ, Benito Juárez, CIUDAD DE MÉXICO",,TUOPINION@STARBUCKS.COM.MX,WWW.STARBUCKS.COM.MX,Fijo,-99.17305090,19.39252695,,,,0384,019,722515,,72,722,7225,72251,,COLONIA,2017-03,090140001
16,09010722219000781021003311S8,6319397,STARBUCKS 122,CAFE SIRENA S DE RL DE CV,"Cafeterías, fuentes de sodas, neverías, refresquerías y similares",6 a 10 personas,CALLE,GUILLERMO GONZÁLEZ CAMARENA,2000,,CENTRO DE CIUDAD SANTA FE,01210,"ÁLVARO OBREGÓN, Álvaro Obregón, CIUDAD DE MÉXICO",,TUOPINION@STARBUCKS.COM.MX,WWW.STARBUCKS.COM.MX,Fijo,-99.26294668,19.36748226,,,,1542,038,722515,,72,722,7225,72251,,COLONIA,2010-07,090100001
17,09010722219008981001003311S6,6795112,STARBUCKS 125,CAFE SIRENA S DE RL DE CV,"Cafeterías, fuentes de sodas, neverías, refresquerías y similares",6 a 10 personas,CALLE,CALLE DE LA PAZ,14,14,SAN ÁNGEL,01000,"ÁLVARO OBREGÓN, Álvaro Obregón, CIUDAD DE MÉXICO",,TUOPINION@STARBUCKS.COM.MX,WWW.STARBUCKS.COM.MX,Fijo,-99.18852718,19.34691978,,,,1203,017,722515,,72,722,7225,72251,,COLONIA,2017-03,090100001
18,09016722219012571000003311S6,6795113,STARBUCKS 127,CAFE SIRENA S DE RL DE CV,"Cafeterías, fuentes de sodas, neverías, refresquerías y similares",11 a 30 personas,CALLE,COFRE DE PEROTE,230,,LOMAS DE CHAPULTEPEC,11010,"MIGUEL HIDALGO, Miguel Hidalgo, CIUDAD DE MÉXICO",,TUOPINION@STARBUCKS.COM.MX,WWW.STARBUCKS.COM.MX,Fijo,-99.22347955,19.42662623,,,,0853,002,722515,,72,722,7225,72251,,COLONIA,2017-03,090160001
19,09010722219005561021003311S9,6319414,STARBUCKS 169,CAFE SIRENA S DE RL DE CV,"Cafeterías, fuentes de sodas, neverías, refresquerías y similares",6 a 10 personas,AVENIDA,ALTAVISTA,147,,SAN ANGEL INN,01060,"ÁLVARO OBREGÓN, Álvaro Obregón, CIUDAD DE MÉXICO",,TUOPINION@STARBUCKS.COM.MX,WWW.STARBUCKS.COM.MX,Fijo,-99.19668004,19.34927838,,,,1114,004,722515,,72,722,7225,72251,,COLONIA,2010-07,090100001
20,09003722219006151021003311S3,6319415,STARBUCKS 172,CAFE SIRENA S DE RL DE CV,"Cafeterías, fuentes de sodas, neverías, refresquerías y similares",6 a 10 personas,AVENIDA,AVENIDA DEL IMÁN,151,,PEDREGAL DE CARRASCO,04700,"COYOACÁN, Coyoacán, CIUDAD DE MÉXICO",,TUOPINION@STARBUCKS.COM.MX,WWW.STARBUCKS.COM.MX,Fijo,-99.16405986,19.30813370,CENTRO Y PLAZA COMERCIAL,GRAN SUR,SN,1641,036,722515,,72,722,7225,72251,,COLONIA,2010-07,090030001
21,09004722219000231011003311S7,6319417,STARBUCKS 175,CAFE SIRENA S DE RL DE CV,"Cafeterías, fuentes de sodas, neverías, refresquerías y similares",0 a 5 personas,CALLE,CARRETERA AL OLIVO,22,,VISTA HERMOSA,05109,"CUAJIMALPA DE MORELOS, Cuajimalpa de Morelos, CIUDAD DE MÉXICO",,TUOPINION@STARBUCKS.COM.MX,WWW.STARBUCKS.COM.MX,Fijo,-99.27764446,19.37344811,,,,0405,012,722515,,72,722,7225,72251,,COLONIA,2010-07,090040001
22,09015722219033581010003311S2,6795610,STARBUCKS 187,CAFE SIRENA S DE RL DE CV,"Cafeterías, fuentes de sodas, neverías, refresquerías y similares",11 a 30 personas,CALLE,TLAXCALA,209,,HIPODROMO,06100,"CUAUHTÉMOC, Cuauhtémoc, CIUDAD DE MÉXICO",,TUOPINION@STARBUCKS.COM.MX,WWW.STARBUCKS.COM.MX,Fijo,-99.16256339,19.40819545,,,,1360,003,722515,,72,722,7225,72251,,COLONIA,2017-03,090150001
23,09016722219006461020003311S8,6310332,STARBUCKS 188,CAFE SIRENA S DE RL DE CV,"Cafeterías, fuentes de sodas, neverías, refresquerías y similares",11 a 30 personas,AVENIDA,PASEO DE LAS PALMAS,765,,LOMAS DE CHAPULTEPEC,11000,"MIGUEL HIDALGO, Miguel Hidalgo, CIUDAD DE MÉXICO",,TUOPINION@STARBUCKS.COM.MX,WWW.STARBUCKS.COM.MX,Fijo,-99.21638334,19.42896097,,,,0834,004,722515,,72,722,7225,72251,,COLONIA,2010-07,090160001
24,09004722219000881121003311S9,6319419,STARBUCKS 189,CAFE SIRENA S DE RL DE CV,"Cafeterías, fuentes de sodas, neverías, refresquerías y similares",6 a 10 personas,AVENIDA,MÉXICO-TOLUCA,1235,,SANTA FE,05109,"CUAJIMALPA DE MORELOS, Cuajimalpa de Morelos, CIUDAD DE MÉXICO",,TUOPINION@STARBUCKS.COM.MX,WWW.STARBUCKS.COM.MX,Fijo,-99.27602637,19.35831816,,,,0369,077,722515,,72,722,7225,72251,,COLONIA,2014-12,090040001
25,09016722219009802011003311S0,6232156,STARBUCKS 191,CAFE SIRENA S DE RL DE CV,"Cafeterías, fuentes de sodas, neverías, refresquerías y similares",11 a 30 personas,AVENIDA,PRESIDENTE MASARYK,39,,CHAPULTEPEC MORALES,11570,"MIGUEL HIDALGO, Miguel Hidalgo, CIUDAD DE MÉXICO",,TUOPINION@STARBUCKS.COM.MX,WWW.STARBUCKS.COM.MX,Fijo,-99.18285309,19.43137066,,,,068A,009,722515,,72,722,7225,72251,,COLONIA,2010-07,090160001
26,09015722110000501021003311S0,6318222,STARBUCKS 203,CAFE SIRENA S DE RL DE CV,"Cafeterías, fuentes de sodas, neverías, refresquerías y similares",6 a 10 personas,AVENIDA,PASEO DE LA REFORMA,69,,TABACALERA,06030,"CUAUHTÉMOC, Cuauhtémoc, CIUDAD DE MÉXICO",,TUOPINION@STARBUCKS.COM.MX,WWW.STARBUCKS.COM.MX,Fijo,-99.15419746,19.43360342,,,,0729,001,722515,,72,722,7225,72251,,COLONIA,2010-07,090150001
27,09005722219013361020003311S4,6310336,STARBUCKS 205,CAFE SIRENA S DE RL DE CV,"Cafeterías, fuentes de sodas, neverías, refresquerías y similares",11 a 30 personas,CALLE,COLECTOR 13,280,,MAGDALENA DE LAS SALINAS,07760,"GUSTAVO A. MADERO, Gustavo A. Madero, CIUDAD DE MÉXICO",,TUOPINION@STARBUCKS.COM.MX,WWW.STARBUCKS.COM.MX,Fijo,-99.13141098,19.48704068,,,,1256,012,722515,,72,722,7225,72251,,COLONIA,2010-07,090050001
28,09005722219016711021003311S7,6310337,STARBUCKS 207,CAFE SIRENA S DE RL DE CV,"Cafeterías, fuentes de sodas, neverías, refresquerías y similares",0 a 5 personas,CALLE,COLECTOR 13,280,,MAGDALENA DE LAS SALINAS,07760,"GUSTAVO A. MADERO, Gustavo A. Madero, CIUDAD DE MÉXICO",,TUOPINION@STARBUCKS.COM.MX,WWW.STARBUCKS.COM.MX,Fijo,-99.13143479,19.48704608,,,,1256,012,722515,,72,722,7225,72251,,COLONIA,2010-07,090050001
29,09003722219013021011003311S9,6795611,STARBUCKS 208,CAFE SIRENA S DE RL DE CV,"Cafeterías, fuentes de sodas, neverías, refresquerías y similares",0 a 5 personas,AVENIDA,MIGUEL ÁNGEL DE QUEVEDO,624,,VILLA COYOACAN,04000,"COYOACÁN, Coyoacán, CIUDAD DE MÉXICO",,TUOPINION@STARBUCKS.COM.MX,WWW.STARBUCKS.COM.MX,Fijo,-99.16707503,19.34515539,,,,0130,024,722515,,72,722,7225,72251,,COLONIA,2017-03,090030001
30,09016722219005671021003311S3,6310338,STARBUCKS 219,CAFE SIRENA S DE RL DE CV,"Cafeterías, fuentes de sodas, neverías, refresquerías y similares",0 a 5 personas,AVENIDA,MIGUEL DE CERVANTES SAAVEDRA,397,,IRRIGACION,11500,"MIGUEL HIDALGO, Miguel Hidalgo, CIUDAD DE MÉXICO",,TUOPINION@STARBUCKS.COM.MX,WWW.STARBUCKS.COM.MX,Fijo,-99.20611483,19.44030556,,,,0444,007,722515,,72,722,7225,72251,,COLONIA,2010-07,090160001
31,09002722515000012002003311S6,6319823,STARBUCKS 226,CAFE SIRENA S DE RL DE CV,"Cafeterías, fuentes de sodas, neverías, refresquerías y similares",0 a 5 personas,EJE VIAL,5 NORTE (DEPORTIVO REYNOSA),990,,SANTA BARBARA,02230,"AZCAPOTZALCO, Azcapotzalco, CIUDAD DE MÉXICO",,TUOPINION@STARBUCKS.COM.MX,WWW.STARBUCKS.COM.MX,Fijo,-99.17530989,19.50037748,,,,0129,001,722515,,72,722,7225,72251,,COLONIA,2010-07,090020001
32,09016722219000961021003311S3,6310341,STARBUCKS 227,CAFE SIRENA S DE RL DE CV,"Cafeterías, fuentes de sodas, neverías, refresquerías y similares",0 a 5 personas,PERIFERICO,BOULEVARD MANUEL ÁVILA CAMACHO,50,,LOMAS DE CHAPULTEPEC,11000,"MIGUEL HIDALGO, Miguel Hidalgo, CIUDAD DE MÉXICO",,TUOPINION@STARBUCKS.COM.MX,WWW.STARBUCKS.COM.MX,Fijo,-99.20580291,19.42988614,,,,0849,010,722515,,72,722,7225,72251,,COLONIA,2010-07,090160001
33,09015722219001581011003311S0,6319423,STARBUCKS 234,CAFE SIRENA S DE RL DE CV,"Cafeterías, fuentes de sodas, neverías, refresquerías y similares",6 a 10 personas,AVENIDA,PASEO DE LA REFORMA,80,,CENTRO DE LA CIUDAD DE MEXICO A,06300,"CUAUHTÉMOC, Cuauhtémoc, CIUDAD DE MÉXICO",,TUOPINION@STARBUCKS.COM.MX,WWW.STARBUCKS.COM.MX,Fijo,-99.15493295,19.43251857,,,,0803,007,722515,,72,722,7225,72251,,COLONIA,2010-07,090150001
34,09003722219009531021003311S3,6319396,STARBUCKS 239,CAFE SIRENA S DE RL DE CV,"Cafeterías, fuentes de sodas, neverías, refresquerías y similares",0 a 5 personas,AVENIDA,MIGUEL ÁNGEL DE QUEVEDO,287,,ROMERO DE TERREROS,04310,"COYOACÁN, Coyoacán, CIUDAD DE MÉXICO",,TUOPINION@STARBUCKS.COM.MX,WWW.STARBUCKS.COM.MX,Fijo,-99.17737591,19.34606518,CENTRO Y PLAZA COMERCIAL,OASIS COYOACAN,SN,0249,001,722515,,72,722,7225,72251,,COLONIA,2010-07,090030001
35,09014722515007411000003311S8,8001283,STARBUCKS 38372 FELIX CUEVAS,CAFE SIRENA S DE RL DE CV,"Cafeterías, fuentes de sodas, neverías, refresquerías y similares",6 a 10 personas,AVENIDA,7 SUR (EXTREMADURA),6,0,DEL VALLE CENTRO,03200,"BENITO JUÁREZ, Benito Juárez, CIUDAD DE MÉXICO",,TUOPINION@STARBUCKS.COM.MX,WWW.STARBUCKS.COM.MX,Fijo,-99.18255943,19.37469951,,,,0702,003,722515,,72,722,7225,72251,,COLONIA,2019-11,090140001
36,09014722515007421000003311S7,8601694,STARBUCKS 39193 METROPOLI PATRIOTISMO,CAFE SIRENA S DE RL DE CV,"Cafeterías, fuentes de sodas, neverías, refresquerías y similares",6 a 10 personas,AVENIDA,INTERIOR (AVENIDA PATRIOTISMO),229,14,NÁPOLES,03810,"BENITO JUÁREZ, Benito Juárez, CIUDAD DE MÉXICO",,TUOPINION@STARBUCKS.COM.MX,WWW.STARBUCKS.COM.MX,Fijo,-99.18104137,19.39596728,,,,0187,026,722515,PLANTA BAJA,72,722,7225,72251,EDIFICIO SIN NOMBRE,COLONIA,2019-11,090140001
37,09007722515016111000003311S7,8779918,STARBUCKS COFEE CAFE Y HELADOS,CAFE SIRENA S DE RL DE CV,"Cafeterías, fuentes de sodas, neverías, refresquerías y similares",0 a 5 personas,PERIFERICO,CANAL DE GARAY,3278,,UH MIRASOLES,09910,"IZTAPALAPA, Iztapalapa, CIUDAD DE MÉXICO",,,,Fijo,-99.07713564,19.31557305,CENTRO Y PLAZA COMERCIAL,PARQUE LAS ANTENAS,33,390A,004,722515,PISO 2,72,722,7225,72251,CENTRO Y PLAZA COMERCIAL,COLONIA,2019-11,090070001
38,09005722515009481000000000U7,9305840,STARBUCKS COFFE,CAFE SIRENA S DE RL DE CV,"Cafeterías, fuentes de sodas, neverías, refresquerías y similares",0 a 5 personas,EJE VIAL,4 NORTE (AVENIDA 510),340,,PUEBLO SAN JUAN DE ARAGON,07950,"GUSTAVO A. MADERO, Gustavo A. Madero, CIUDAD DE MÉXICO",,SVMX38529@STARBUCKS.COM.MX,,Fijo,-99.08438681,19.46480973,,,,2131,009,722515,,72,722,7225,72251,,COLONIA,2020-11,090050001
39,09015722511016671000000000U2,9288551,STARBUCKS COFFE,STARBUCKS COFFE ,Restaurantes con servicio de preparación de alimentos a la carta o de comida corrida,0 a 5 personas,CALLE,FRANCISCO I. MADERO,42,,CENTRO,06000,"CUAUHTÉMOC, Cuauhtémoc, CIUDAD DE MÉXICO",,,,Fijo,-99.13676052,19.43354351,,,,0767,011,722511,,72,722,7225,72251,,COLONIA,2020-11,090150001
40,09014722515003552002003311S3,6709125,STARBUCKS COFFE,CAFE SIRENA S DE RL DE CV,"Cafeterías, fuentes de sodas, neverías, refresquerías y similares",0 a 5 personas,AVENIDA,UNIVERSIDAD,1046,,XOCO,03330,"BENITO JUÁREZ, Benito Juárez, CIUDAD DE MÉXICO",,TUOPINION@STARBUCKS.COM.MX,WWW.STARBUCKS.COM.MX,Fijo,-99.16762599,19.36605237,CENTRO Y PLAZA COMERCIAL,PATIO UNIVERSIDAD,SN,0952,005,722515,,72,722,7225,72251,,COLONIA,2016-01,090140001
41,09015722515000743001003311S8,891137,STARBUCKS COFFE,CAFE SIRENA S DE RL DE CV,"Cafeterías, fuentes de sodas, neverías, refresquerías y similares",0 a 5 personas,CALLE,REPÚBLICA DE URUGUAY,51,,CENTRO,06000,"CUAUHTÉMOC, Cuauhtémoc, CIUDAD DE MÉXICO",,TUOPINION@STARBUCKS.COM.MX,WWW.STARBUCKS.COM.MX,Fijo,-99.13708628,19.43059585,,,,0818,002,722515,PLANTA BAJA,72,722,7225,72251,EDIFICIO SIN NOMBRE,COLONIA,2014-12,090150001
42,09014722515007512000003311S3,9230064,STARBUCKS COFFE MEXICO TORRE ORIGAMI,CAFE SIRENA S DE RL DE CV,"Cafeterías, fuentes de sodas, neverías, refresquerías y similares",0 a 5 personas,AVENIDA,Insurgentes Sur,1460,0,ACTIPAN,03230,"BENITO JUÁREZ, Benito Juárez, CIUDAD DE MÉXICO",,,STARBUCKS.COM.MX,Fijo,-99.17939059,19.36828729,CENTRO Y PLAZA COMERCIAL,origami,,0929,012,722515,,72,722,7225,72251,,COLONIA,2020-04,090140001
43,09014722515007561000000000U0,9286697,STARBUCKS COFFEE,CAFE SIRENA S DE RL DE CV,"Cafeterías, fuentes de sodas, neverías, refresquerías y similares",0 a 5 personas,CALZADA,CALZADA DE TLALPAN,962,,NATIVITAS,03500,"BENITO JUÁREZ, Benito Juárez, CIUDAD DE MÉXICO",,,,Fijo,-99.13930209,19.38364707,,,,051A,022,722515,,72,722,7225,72251,,COLONIA,2020-11,090140001
44,09004722515002132000003311S6,9228785,STARBUCKS COFFEE,CAFE SIRENA S DE RL DE CV,"Cafeterías, fuentes de sodas, neverías, refresquerías y similares",0 a 5 personas,AVENIDA,AVENIDA LUIS BARRAGAN,0,,LOMAS DE SANTA FE,01219,"CUAJIMALPA DE MORELOS, Cuajimalpa de Morelos, CIUDAD DE MÉXICO",,,,Fijo,-99.26451535,19.35759341,,,,0369,002,722515,,72,722,7225,72251,,COLONIA,2020-04,090040001
45,09004722515001143000000000S4,8152714,STARBUCKS COFFEE,ASESORIA Y PRESTACIONES SA DE CV,"Cafeterías, fuentes de sodas, neverías, refresquerías y similares",11 a 30 personas,AUTOPISTA,MEXICO-TOLUCA,1235,1,SANTA FE CUAJIMALPA,05348,"CUAJIMALPA DE MORELOS, Cuajimalpa de Morelos, CIUDAD DE MÉXICO",,SANTAFEIMAX@STARBUCKS.COM.MX,WWW.STARBUCKSCOFFEEMEXICO.COM,Fijo,-99.27485361,19.35900822,,,,0369,001,722515,OTRO (ESPECIFIQUE),72,722,7225,72251,ZENTRIKA,COLONIA,2019-11,090040001
46,09016722219005361021003311S1,6310335,STARBUCKS COFFEE,CAFE SIRENA S DE RL DE CV,"Cafeterías, fuentes de sodas, neverías, refresquerías y similares",6 a 10 personas,AVENIDA,HORACIO,326,,POLANCO,11560,"MIGUEL HIDALGO, Miguel Hidalgo, CIUDAD DE MÉXICO",,TUOPINION@STARBUCKS.COM.MX,WWW.STARBUCKS.COM.MX,Fijo,-99.18672649,19.43314928,,,,0675,004,722515,,72,722,7225,72251,,COLONIA,2010-07,090160001
47,09016722515003162002003311S6,6716973,STARBUCKS COFFEE,CAFE SIRENA S DE RL DE CV,"Cafeterías, fuentes de sodas, neverías, refresquerías y similares",6 a 10 personas,AVENIDA,EJÉRCITO NACIONAL MEXICANO,483,,GRANADA,11520,"MIGUEL HIDALGO, Miguel Hidalgo, CIUDAD DE MÉXICO",,TUOPINION@STARBUCKS.COM.MX,WWW.STARBUCKS.COM.MX,Fijo,-99.20451513,19.43863652,,,,0444,013,722515,,72,722,7225,72251,,COLONIA,2016-01,090160001
48,09015722110007121001003311S0,6794928,STARBUCKS COFFEE,CAFE SIRENA S DE RL DE CV,"Cafeterías, fuentes de sodas, neverías, refresquerías y similares",0 a 5 personas,CALLE,FRAY PEDRO DE GANTE,4,,CENTRO,06010,"CUAUHTÉMOC, Cuauhtémoc, CIUDAD DE MÉXICO",,TUOPINION@STARBUCKS.COM.MX,WWW.STARBUCKS.COM.MX,Fijo,-99.13939460,19.43323007,,,,0767,004,722515,,72,722,7225,72251,,COLONIA,2017-03,090150001
49,09012722515002852002003311S2,6706671,STARBUCKS COFFEE,CAFE SIRENA S DE RL DE CV,"Cafeterías, fuentes de sodas, neverías, refresquerías y similares",0 a 5 personas,CALZADA,CALZADA DE TLALPAN,4731,0,TORIELLO GUERRA,14050,"TLALPAN, Tlalpan, CIUDAD DE MÉXICO",,TUOPINION@STARBUCKS.COM.MX,WWW.STARBUCKS.COM.MX,Fijo,-99.15994914,19.29195588,,,,0411,010,722515,,72,722,7225,72251,,COLONIA,2016-01,090120001
50,09004722515000892002003311S7,6706833,STARBUCKS COFFEE  MEXICOSTIM,CAFE SIRENA S DE RL DE CV,"Cafeterías, fuentes de sodas, neverías, refresquerías y similares",0 a 5 personas,AVENIDA,STIM,1296,,LOMAS DEL CHAMIZAL,05120,"CUAJIMALPA DE MORELOS, Cuajimalpa de Morelos, CIUDAD DE MÉXICO",,TUOPINION@STARBUCKS.COM.MX,WWW.STARBUCKS.COM.MX,Fijo,-99.25950971,19.39209362,,,,0180,007,722515,,72,722,7225,72251,,COLONIA,2016-01,090040001
51,09015722219019941002003311M6,6319429,STARBUCKS COFFEE MEXICO,CAFE SIRENA S DE RL DE CV,"Cafeterías, fuentes de sodas, neverías, refresquerías y similares",51 a 100 personas,AVENIDA,REVOLUCIÓN,1267,,LOS ALPES,01040,"CUAUHTÉMOC, Cuauhtémoc, CIUDAD DE MÉXICO",,,WWW.ALSEA.NET,Fijo,-99.16218472,19.42905342,EDIFICIO COMERCIAL Y DE SERVICIOS,TORRE ANSELI,SN,0803,008,722515,PISO 20,72,722,7225,72251,EDIFICIO SIN NOMBRE,COLONIA,2010-07,090150001
52,09010722515004662000003311S7,9229617,STARBUCKS COFFEE MEXICO,CAFE SIRENA S DE RL DE CV,"Cafeterías, fuentes de sodas, neverías, refresquerías y similares",0 a 5 personas,AVENIDA,CARLOS LAZO,100,,LA LOMA SANTA FE,01260,"ÁLVARO OBREGÓN, Álvaro Obregón, CIUDAD DE MÉXICO",,,WWW.STARBUCKS.COM.MX,Fijo,-99.26049274,19.35836838,,,,2004,001,722515,,72,722,7225,72251,,COLONIA,2020-04,090100001
53,09010722515000053001003311S3,6319842,STARBUCKS COFFEE MEXICO   MEXFUND PEDREGAL,CAFE SIRENA S DE RL DE CV,"Cafeterías, fuentes de sodas, neverías, refresquerías y similares",6 a 10 personas,BOULEVARD,ANILLO PERIFÉRICO (ADOLFO RUÍZ CORTINES),4132,,JARDINES DEL PEDREGAL,01900,"ÁLVARO OBREGÓN, Álvaro Obregón, CIUDAD DE MÉXICO",,TUOPINION@STARBUCKS.COM.MX,WWW.STARBUCKS.COM.MX,Fijo,-99.20949651,19.30657520,,,,1307,024,722515,,72,722,7225,72251,,COLONIA,2010-07,090100001
54,09016722515000033001003311S2,6319847,STARBUCKS COFFEE MEXICO   PLAZA CARSO,CAFE SIRENA S DE RL DE CV,"Cafeterías, fuentes de sodas, neverías, refresquerías y similares",6 a 10 personas,CALLE,LAGO ZÚRICH,0,,COL AMPLIACION GRANADA,11529,"MIGUEL HIDALGO, Miguel Hidalgo, CIUDAD DE MÉXICO",,TUOPINION@STARBUCKS.COM.MX,WWW.STARBUCKS.COM.MX,Fijo,-99.20299338,19.44120234,,,,0444,001,722515,,72,722,7225,72251,,COLONIA,2012-06,090160001
55,09017722219013892021003311S3,6307119,STARBUCKS COFFEE MEXICO  AEROPUERTO INTL 2,CAFE SIRENA S DE RL DE CV,"Cafeterías, fuentes de sodas, neverías, refresquerías y similares",6 a 10 personas,EJE VIAL,1 NORTE (AVENIDA HANGARES DE AVIACIÓN FUERZA AÉREA MEXICANA),0,,PEÑON DE LOS BAÑOS,15620,"VENUSTIANO CARRANZA, Venustiano Carranza, CIUDAD DE MÉXICO",,TUOPINION@STARBUCKS.COM.MX,WWW.STARBUCKS.COM.MX,Fijo,-99.07944454,19.41835440,AEROPUERTO,AEROPUERTO INTERNACIONAL DE LA CIUDAD DE MEXICO,TERMINAL 2,0140,001,722515,,72,722,7225,72251,,COLONIA,2010-07,090170001
56,09017722219015681011003311S8,6795602,STARBUCKS COFFEE MEXICO  AEROPUERTO PB  D8,CAFE SIRENA S DE RL DE CV,"Cafeterías, fuentes de sodas, neverías, refresquerías y similares",6 a 10 personas,CALLE,SONORA,0,,PEÑON DE LOS BAÑOS,15620,"VENUSTIANO CARRANZA, Venustiano Carranza, CIUDAD DE MÉXICO",,TUOPINION@STARBUCKS.COM.MX,WWW.STARBUCKS.COM.MX,Fijo,-99.07070673,19.42944243,AEROPUERTO,AEROPUERTO INTERNACIONAL DE LA CIUDAD DE MEXICO,TERMINAL 1 D8,0140,001,722515,,72,722,7225,72251,,COLONIA,2017-03,090170001
57,09004722219000601022003311S1,6319422,STARBUCKS COFFEE MEXICO  AMPLIACION SANTAFE CC 3,CAFE SIRENA S DE RL DE CV,"Cafeterías, fuentes de sodas, neverías, refresquerías y similares",0 a 5 personas,PROLONGACION,VASCO DE QUIROGA,3800,,ANTIGUA MINA LA TOTOLAPA,05100,"CUAJIMALPA DE MORELOS, Cuajimalpa de Morelos, CIUDAD DE MÉXICO",,TUOPINION@STARBUCKS.COM.MX,WWW.STARBUCKS.COM.MX,Fijo,-99.27565922,19.36221014,,,,0369,001,722515,,72,722,7225,72251,,COLONIA,2010-07,090040001
58,09015722110000751021003311S1,6317089,STARBUCKS COFFEE MEXICO  AMSTERDAM,CAFE SIRENA S DE RL DE CV,"Cafeterías, fuentes de sodas, neverías, refresquerías y similares",6 a 10 personas,AVENIDA,SONORA,180,,HIPODROMO CONDESA,06300,"CUAUHTÉMOC, Cuauhtémoc, CIUDAD DE MÉXICO",,TUOPINION@STARBUCKS.COM.MX,WWW.STARBUCKS.COM.MX,Fijo,-99.16759297,19.41314235,,,,120A,004,722515,,72,722,7225,72251,,COLONIA,2014-12,090150001
59,09016722219004511021003311S2,6310334,STARBUCKS COFFEE MEXICO  ANTARA II,CAFE SIRENA S DE RL DE CV,"Cafeterías, fuentes de sodas, neverías, refresquerías y similares",11 a 30 personas,AVENIDA,EJÉRCITO NACIONAL MEXICANO,843,,COL GRANADA,11520,"MIGUEL HIDALGO, Miguel Hidalgo, CIUDAD DE MÉXICO",,TUOPINION@STARBUCKS.COM.MX,WWW.STARBUCKS.COM.MX,Fijo,-99.20298934,19.43859428,,,,0444,013,722515,,72,722,7225,72251,,COLONIA,2010-07,090160001
60,09017722110000653021003311S5,6307137,STARBUCKS COFFEE MEXICO  APTO INTL DUFRY,CAFE SIRENA S DE RL DE CV,"Cafeterías, fuentes de sodas, neverías, refresquerías y similares",6 a 10 personas,CALLE,SONORA,0,,PEÑON DE LOS BAÑOS,15620,"VENUSTIANO CARRANZA, Venustiano Carranza, CIUDAD DE MÉXICO",,TUOPINION@STARBUCKS.COM.MX,WWW.STARBUCKS.COM.MX,Fijo,-99.08117046,19.42032809,AEROPUERTO,AEROPUERTO INTERNACIONAL DE LA CIUDAD DE MEXICO,SN,0140,001,722515,,72,722,7225,72251,,COLONIA,2010-07,090170001
61,09017722110000783021003311S0,6307131,STARBUCKS COFFEE MEXICO  APTO. SALA BRAVO,CAFE SIRENA S DE RL DE CV,"Cafeterías, fuentes de sodas, neverías, refresquerías y similares",6 a 10 personas,CALLE,SONORA,0,,PEÑON DE LOS BAÑOS,15620,"VENUSTIANO CARRANZA, Venustiano Carranza, CIUDAD DE MÉXICO",,TUOPINION@STARBUCKS.COM.MX,WWW.STARBUCKS.COM.MX,Fijo,-99.08038811,19.41919602,AEROPUERTO,AEROPUERTO INTERNACIONAL DE LA CIUDAD DE MEXICO,TERMINAL 1 SALA BRAV,0140,001,722515,,72,722,7225,72251,,COLONIA,2010-07,090170001
62,09017722515000073001003311S6,6319859,STARBUCKS COFFEE MEXICO  BALBUENA,CAFE SIRENA S DE RL DE CV,"Cafeterías, fuentes de sodas, neverías, refresquerías y similares",6 a 10 personas,AVENIDA,FRAY SERVANDO TERESA DE MIER,964,,COL JARDIN BALBUENA,15900,"VENUSTIANO CARRANZA, Venustiano Carranza, CIUDAD DE MÉXICO",,TUOPINION@STARBUCKS.COM.MX,WWW.STARBUCKS.COM.MX,Fijo,-99.10228695,19.41767760,,,,112A,011,722515,,72,722,7225,72251,,COLONIA,2010-07,090170001
63,09016722511004262000000000U2,6845620,STARBUCKS COFFEE MEXICO  CHAPULTEPEC REFORMA,CAF¿ SIRENA S DE RL DE CV,Restaurantes con servicio de preparación de alimentos a la carta o de comida corrida,6 a 10 personas,AVENIDA,PASEO DE LA REFORMA,,,BOSQUE DE CHAPULTEPEC,11100,"MIGUEL HIDALGO, Miguel Hidalgo, CIUDAD DE MÉXICO",,,,Fijo,-99.18472056,19.42449951,,,,0798,059,722511,,72,722,7225,72251,,COLONIA,2018-03,090160001
64,09012722515000043000003311S0,6319846,STARBUCKS COFFEE MEXICO  CM COAPA,CAFE SIRENA S DE RL DE CV,"Cafeterías, fuentes de sodas, neverías, refresquerías y similares",11 a 30 personas,CALLE,PUENTE,186,,COL AMSA,14380,"TLALPAN, Tlalpan, CIUDAD DE MÉXICO",,TUOPINION@STARBUCKS.COM.MX,WWW.STARBUCKS.COM.MX,Fijo,-99.13729991,19.28478565,,,,0996,003,722515,,72,722,7225,72251,,COLONIA,2010-07,090120001
65,09014722515000113001003311S7,6319856,STARBUCKS COFFEE MEXICO  CM MIXCOAC,CAFE SIRENA S DE RL DE CV,"Cafeterías, fuentes de sodas, neverías, refresquerías y similares",0 a 5 personas,CIRCUITO,INTERIOR (AVENIDA REVOLUCIÓN),780,,COLONIA SAN JUAN,03730,"BENITO JUÁREZ, Benito Juárez, CIUDAD DE MÉXICO",,TUOPINION@STARBUCKS.COM.MX,WWW.STARBUCKS.COM.MX,Fijo,-99.18701656,19.37957579,,,,069A,006,722515,,72,722,7225,72251,,COLONIA,2014-12,090140001
66,09003722515000052001003311S0,6319837,STARBUCKS COFFEE MEXICO  COAPA CHEDRAUI,CAFE SIRENA S DE RL DE CV,"Cafeterías, fuentes de sodas, neverías, refresquerías y similares",11 a 30 personas,CALZADA,CALZADA DEL HUESO,670,,LOS ROBLES,14300,"COYOACÁN, Coyoacán, CIUDAD DE MÉXICO",,TUOPINION@STARBUCKS.COM.MX,WWW.STARBUCKS.COM.MX,Fijo,-99.11831666,19.30193412,,,,1444,025,722515,,72,722,7225,72251,,FRACCIONAMIENTO,2010-07,090030001
67,09015722515000012002003311S8,6319860,STARBUCKS COFFEE MEXICO  DURANGO,CAFE SIRENA S DE RL DE CV,"Cafeterías, fuentes de sodas, neverías, refresquerías y similares",0 a 5 personas,CALLE,DURANGO,205,,COL ROMA,06700,"CUAUHTÉMOC, Cuauhtémoc, CIUDAD DE MÉXICO",,TUOPINION@STARBUCKS.COM.MX,WWW.STARBUCKS.COM.MX,Fijo,-99.16743472,19.41982308,,,,0998,004,722515,,72,722,7225,72251,,COLONIA,2014-12,090150001
68,09016722515000043001003311S1,6319848,STARBUCKS COFFEE MEXICO  EJERCITO NACIONAL,CAFE SIRENA S DE RL DE CV,"Cafeterías, fuentes de sodas, neverías, refresquerías y similares",6 a 10 personas,AVENIDA,EJÉRCITO NACIONAL MEXICANO,579,,COL GRANADA,11520,"MIGUEL HIDALGO, Miguel Hidalgo, CIUDAD DE MÉXICO",,TUOPINION@STARBUCKS.COM.MX,WWW.STARBUCKS.COM.MX,Fijo,-99.19364900,19.43814223,,,,0571,014,722515,,72,722,7225,72251,,COLONIA,2010-07,090160001
69,09014722511004343010003311S5,6850574,STARBUCKS COFFEE MEXICO  FELIX CUEVAS,CAFE SIRENA S DE RL DE CV,"Cafeterías, fuentes de sodas, neverías, refresquerías y similares",11 a 30 personas,AVENIDA,INSURGENTES SUR,0,,INSURGENTES MIXCOAC,03920,"BENITO JUÁREZ, Benito Juárez, CIUDAD DE MÉXICO",,TUOPINION@STARBUCKS.COM.MX,WWW.STARBUCKS.COM.MX,Fijo,-99.17869529,19.37396502,,,,0717,004,722515,,72,722,7225,72251,,COLONIA,2018-11,090140001
70,09014722515000142001003311S6,6319818,STARBUCKS COFFEE MEXICO  GABRIEL MANCERA,CAFE SIRENA S DE RL DE CV,"Cafeterías, fuentes de sodas, neverías, refresquerías y similares",11 a 30 personas,EJE VIAL,2 PONIENTE (GABRIEL MANCERA),1357,,COL DEL VALLE,01400,"BENITO JUÁREZ, Benito Juárez, CIUDAD DE MÉXICO",,TUOPINION@STARBUCKS.COM.MX,WWW.STARBUCKS.COM.MX,Fijo,-99.16746422,19.37362494,,,,0740,002,722515,,72,722,7225,72251,,COLONIA,2011-03,090140001
71,09012722515000013000003311S3,6319896,STARBUCKS COFFEE MEXICO  GALERIAS COAPA,CAFE SIRENA S DE RL DE CV,"Cafeterías, fuentes de sodas, neverías, refresquerías y similares",11 a 30 personas,CALZADA,CALZADA DEL HUESO,519,,COL RESIDENCIAL ACOXPA,14300,"TLALPAN, Tlalpan, CIUDAD DE MÉXICO",,TUOPINION@STARBUCKS.COM.MX,WWW.STARBUCKS.COM.MX,Fijo,-99.12356086,19.30339873,,,,1918,012,722515,,72,722,7225,72251,,COLONIA,2010-07,090120001
72,09014722511004312000000000S0,6845201,STARBUCKS COFFEE MEXICO  GALERIAS INSURGENTES,CAFE SIRENA S DE RL DE CV,Restaurantes con servicio de preparación de alimentos a la carta o de comida corrida,6 a 10 personas,AVENIDA,INSURGENTES SUR,1352,,ACTIPAN,03230,"BENITO JUÁREZ, Benito Juárez, CIUDAD DE MÉXICO",8002880888,FUNDACION@ALSEA.COM.MX,WWW.STARBUCKS.COMMX,Fijo,-99.17951646,19.37144540,CENTRO Y PLAZA COMERCIAL,GALERIAS INSURGENTES,1352,0717,003,722511,PLANTA BAJA,72,722,7225,72251,CENTRO Y PLAZA COMERCIAL,COLONIA,2018-03,090140001
73,09016722515003693001003311S0,6812288,STARBUCKS COFFEE MEXICO  HOMERO,CAFE SIRENA S DE RL DE CV,"Cafeterías, fuentes de sodas, neverías, refresquerías y similares",0 a 5 personas,AVENIDA,HOMERO,308,,COL POLANCO,11560,"MIGUEL HIDALGO, Miguel Hidalgo, CIUDAD DE MÉXICO",,TUOPINION@STARBUCKS.COM.MX,WWW.STARBUCKS.COM.MX,Fijo,-99.19975583,19.43604145,,,,0641,016,722515,,72,722,7225,72251,,COLONIA,2017-11,090160001
74,09010722515000022001003311S8,6319819,STARBUCKS COFFEE MEXICO  HOSPITAL ABC KIOSKO,CAFE SIRENA S DE RL DE CV,"Cafeterías, fuentes de sodas, neverías, refresquerías y similares",11 a 30 personas,CALLE,SUR 136,116,,COL LAS AMERICAS,01120,"ÁLVARO OBREGÓN, Álvaro Obregón, CIUDAD DE MÉXICO",,TUOPINION@STARBUCKS.COM.MX,WWW.STARBUCKS.COM.MX,Fijo,-99.20434811,19.40028771,"HOSPITAL, CENTRO MEDICO O CLINICA",HOSPITAL ABC,SN,0031,021,722515,,72,722,7225,72251,,COLONIA,2010-07,090100001
75,09004722515000013001003311S0,6319843,STARBUCKS COFFEE MEXICO  HOSPITAL ABC SANTA FE,CAFE SIRENA S DE RL DE CV,"Cafeterías, fuentes de sodas, neverías, refresquerías y similares",6 a 10 personas,CALLE,AVENIDA CARLOS GRAFF FERNÁNDEZ,154,,COL TLAXCALA SANTA FE,05500,"CUAJIMALPA DE MORELOS, Cuajimalpa de Morelos, CIUDAD DE MÉXICO",,TUOPINION@STARBUCKS.COM.MX,WWW.STARBUCKS.COM.MX,Fijo,-99.28549851,19.37493104,"HOSPITAL, CENTRO MEDICO O CLINICA",HOSPITAL ABC,SN,002A,001,722515,,72,722,7225,72251,,COLONIA,2014-12,090040001
76,09004722511001043000000000U5,6845927,STARBUCKS COFFEE MEXICO  HOSPITAL ABC SANTA FE,CAF¿ SIRENA S DE RL DE CV,Restaurantes con servicio de preparación de alimentos a la carta o de comida corrida,11 a 30 personas,CALLE,VIALIDAD VASCO DE QUIROGA SEGUNDA ETAPA,154,,CONTADERO,05348,"CUAJIMALPA DE MORELOS, Cuajimalpa de Morelos, CIUDAD DE MÉXICO",,,,Fijo,-99.28177166,19.35994590,"HOSPITAL, CENTRO MEDICO O CLINICA",HOSPITAL ABC SANTA FE,,0369,004,722511,PLANTA BAJA,72,722,7225,72251,,COLONIA,2018-03,090040001
77,09005722511002862010003311S4,6813204,STARBUCKS COFFEE MEXICO  MADERO,CAFE SIRENA S DE RL DE CV,"Cafeterías, fuentes de sodas, neverías, refresquerías y similares",11 a 30 personas,CALLE,FRANCISCO I. MADERO,42,,COL CENTRO,06000,"GUSTAVO A. MADERO, Gustavo A. Madero, CIUDAD DE MÉXICO",,TUOPINION@STARBUCKS.COM.MX,WWW.STARBUCKS.COM.MX,Fijo,-99.13691568,19.54524023,,,,0169,006,722515,,72,722,7225,72251,,COLONIA,2017-11,090050001
78,09016722515000053001003311S0,6319836,STARBUCKS COFFEE MEXICO  MARINA NACIONAL,CAFE SIRENA S DE RL DE CV,"Cafeterías, fuentes de sodas, neverías, refresquerías y similares",0 a 5 personas,CALLE,BAHÍA DE SAN HIPÓLITO,43,,COL ANAHUAC,11320,"MIGUEL HIDALGO, Miguel Hidalgo, CIUDAD DE MÉXICO",,TUOPINION@STARBUCKS.COM.MX,WWW.STARBUCKS.COM.MX,Fijo,-99.17631948,19.44043988,,,,0482,011,722515,,72,722,7225,72251,,COLONIA,2014-12,090160001
79,09005722515000022001003311S8,6319821,STARBUCKS COFFEE MEXICO  MONTEVIDEO DT,CAFE SIRENA S DE RL DE CV,"Cafeterías, fuentes de sodas, neverías, refresquerías y similares",11 a 30 personas,EJE VIAL,5 NORTE (MONTEVIDEO),257,,LINDAVISTA,07300,"GUSTAVO A. MADERO, Gustavo A. Madero, CIUDAD DE MÉXICO",,TUOPINION@STARBUCKS.COM.MX,WWW.STARBUCKS.COM.MX,Fijo,-99.13032878,19.48967791,,,,0953,007,722515,,72,722,7225,72251,,COLONIA,2014-12,090050001
80,09002722219008441120003311S8,6310340,STARBUCKS COFFEE MEXICO  PABELLON AZCAPOTZALCO,CAFE SIRENA S DE RL DE CV,"Cafeterías, fuentes de sodas, neverías, refresquerías y similares",11 a 30 personas,AVENIDA,AQUILES SERDÁN,400,,NEXTENGO,02070,"AZCAPOTZALCO, Azcapotzalco, CIUDAD DE MÉXICO",,TUOPINION@STARBUCKS.COM.MX,WWW.STARBUCKS.COM.MX,Fijo,-99.17760104,19.50202329,,,,0932,016,722515,,72,722,7225,72251,,COLONIA,2010-07,090020001
81,09010722515000043001003311S4,6319855,STARBUCKS COFFEE MEXICO  PARK PLAZA,CAFE SIRENA S DE RL DE CV,"Cafeterías, fuentes de sodas, neverías, refresquerías y similares",6 a 10 personas,AVENIDA,JAVIER BARROS SIERRA,540,,COL SANTA FE,01210,"ÁLVARO OBREGÓN, Álvaro Obregón, CIUDAD DE MÉXICO",,TUOPINION@STARBUCKS.COM.MX,WWW.STARBUCKS.COM.MX,Fijo,-99.26025985,19.36422412,,,,2358,018,722515,,72,722,7225,72251,,COLONIA,2012-06,090100001
82,09016722515000063001003311S9,6319833,STARBUCKS COFFEE MEXICO  PARQUE DURAZNOS,CAFE SIRENA S DE RL DE CV,"Cafeterías, fuentes de sodas, neverías, refresquerías y similares",6 a 10 personas,CALLE,BOSQUE DE DURAZNOS,39,,COL BOSQUES DE LAS LOMAS,11700,"MIGUEL HIDALGO, Miguel Hidalgo, CIUDAD DE MÉXICO",,TUOPINION@STARBUCKS.COM.MX,WWW.STARBUCKS.COM.MX,Fijo,-99.24306068,19.40277190,,,,1245,001,722515,,72,722,7225,72251,,COLONIA,2010-07,090160001
83,09007722219013281021003311S0,6310343,STARBUCKS COFFEE MEXICO  PATIO LOMAS ESTRELLA,CAFE SIRENA S DE RL DE CV,"Cafeterías, fuentes de sodas, neverías, refresquerías y similares",0 a 5 personas,AVENIDA,TLÁHUAC,0,,COL LOMAS ESTRELLA,09890,"IZTAPALAPA, Iztapalapa, CIUDAD DE MÉXICO",,TUOPINION@STARBUCKS.COM.MX,WWW.STARBUCKS.COM.MX,Fijo,-99.08297092,19.38209090,,,,2390,011,722515,,72,722,7225,72251,,COLONIA,2010-07,090070001
84,09003722515000173000003311S4,909975,STARBUCKS COFFEE MEXICO  PERISUR,CAFE SIRENA S DE RL DE CV,"Cafeterías, fuentes de sodas, neverías, refresquerías y similares",11 a 30 personas,PERIFERICO,BOULEVARD ADOLFO RUÍZ CORTINES,4690,,COL AMPLIACION JARDINES DEL PEDREGAL,04530,"COYOACÁN, Coyoacán, CIUDAD DE MÉXICO",,TUOPINION@STARBUCKS.COM.MX,WWW.STARBUCKS.COM.MX,Fijo,-99.18999234,19.30270872,CENTRO Y PLAZA COMERCIAL,PERISUR,SN,1105,016,722515,,72,722,7225,72251,,COLONIA,2014-12,090030001
85,09007722511002782011003311S0,6813053,STARBUCKS COFFEE MEXICO  PLAZA AMERICA,CAFE SIRENA S DE RL DE CV,"Cafeterías, fuentes de sodas, neverías, refresquerías y similares",0 a 5 personas,CALLE,BENITO JUÁREZ,117,,COL EX HACIENDA COAPA,04980,"IZTAPALAPA, Iztapalapa, CIUDAD DE MÉXICO",,TUOPINION@STARBUCKS.COM.MX,WWW.STARBUCKS.COM.MX,Fijo,-99.10961254,19.34198308,CENTRO Y PLAZA COMERCIAL,PLAZA AMERICA COAPA,SN,1566,019,722515,,72,722,7225,72251,,COLONIA,2017-11,090070001
86,09010722515000063001003311S2,6319868,STARBUCKS COFFEE MEXICO  PRISMA INSURGENTES,CAFE SIRENA S DE RL DE CV,"Cafeterías, fuentes de sodas, neverías, refresquerías y similares",6 a 10 personas,CALLE,JOSÉ MARÍA IBARRARÁN,1647,,COLONIA SAN JOSE INSURGENTES,03900,"BENITO JUÁREZ, Benito Juárez, CIUDAD DE MÉXICO",,TUOPINION@STARBUCKS.COM.MX,WWW.STARBUCKS.COM.MX,Fijo,-99.18284427,19.36248724,,,,0914,004,722515,,72,722,7225,72251,,COLONIA,2010-07,090140001
87,09015722515007833000003311S0,6812164,STARBUCKS COFFEE MEXICO  RIO MARNE,CAFE SIRENA S DE RL DE CV,"Cafeterías, fuentes de sodas, neverías, refresquerías y similares",11 a 30 personas,AVENIDA,PASEO DE LA REFORMA,195,,COL CUAUHTEMOC,06500,"CUAUHTÉMOC, Cuauhtémoc, CIUDAD DE MÉXICO",,TUOPINION@STARBUCKS.COM.MX,WWW.STARBUCKS.COM.MX,Fijo,-99.16135998,19.43044990,,,,0837,004,722515,,72,722,7225,72251,,COLONIA,2017-11,090150001
88,09010722515000072001003311S3,6319835,STARBUCKS COFFEE MEXICO  SAMARA,CAFE SIRENA S DE RL DE CV,"Cafeterías, fuentes de sodas, neverías, refresquerías y similares",11 a 30 personas,CALLE,RÍO SANTA FE,94,,COL CADEC SANTA FE,01219,"ÁLVARO OBREGÓN, Álvaro Obregón, CIUDAD DE MÉXICO",,TUOPINION@STARBUCKS.COM.MX,WWW.STARBUCKS.COM.MX,Fijo,-99.25949003,19.36841671,,,,1542,053,722515,,72,722,7225,72251,,COLONIA,2012-06,090100001
89,09014722515000053001003311S5,6319857,STARBUCKS COFFEE MEXICO  SAN JOSE INSURGENTES,CAFE SIRENA S DE RL DE CV,"Cafeterías, fuentes de sodas, neverías, refresquerías y similares",6 a 10 personas,CALLE,DAMAS,130,,COLONIA SAN JOSE INSURGENTES,03900,"BENITO JUÁREZ, Benito Juárez, CIUDAD DE MÉXICO",,TUOPINION@STARBUCKS.COM.MX,WWW.STARBUCKS.COM.MX,Fijo,-99.18330680,19.36373965,,,,0914,002,722515,,72,722,7225,72251,,COLONIA,2012-06,090140001
90,09017722511002233010003311S3,6851018,STARBUCKS COFFEE MEXICO  T2 LLEGADAS PB,CAFE SIRENA S DE RL DE CV,"Cafeterías, fuentes de sodas, neverías, refresquerías y similares",11 a 30 personas,EJE VIAL,1 NORTE (AVENIDA HANGARES DE AVIACIÓN FUERZA AÉREA MEXICANA),0,,PEÑON DE LOS BAÑOS,15620,"VENUSTIANO CARRANZA, Venustiano Carranza, CIUDAD DE MÉXICO",,TUOPINION@STARBUCKS.COM.MX,WWW.STARBUCKS.COM.MX,Fijo,-99.07927644,19.41824181,AEROPUERTO,AEROPUERTO INTERNACIONAL CIUDAD DE MEXICO,T2 PB,0140,001,722515,,72,722,7225,72251,,COLONIA,2018-11,090170001
91,09015722511009502011003311S8,6813054,STARBUCKS COFFEE MEXICO  TORRE DEL ANGEL,CAFE SIRENA S DE RL DE CV,"Cafeterías, fuentes de sodas, neverías, refresquerías y similares",0 a 5 personas,AVENIDA,PASEO DE LA REFORMA,342,,COL JUAREZ,06500,"CUAUHTÉMOC, Cuauhtémoc, CIUDAD DE MÉXICO",,TUOPINION@STARBUCKS.COM.MX,WWW.STARBUCKS.COM.MX,Fijo,-99.16758357,19.42606415,,,,0945,005,722515,,72,722,7225,72251,,COLONIA,2017-11,090150001
92,09015722515000062001003311S3,6319827,STARBUCKS COFFEE MEXICO  TORRE DEL CABALLITO,CAFE SIRENA S DE RL DE CV,"Cafeterías, fuentes de sodas, neverías, refresquerías y similares",11 a 30 personas,AVENIDA,PASEO DE LA REFORMA,10,,COL GUERRERO,06600,"CUAUHTÉMOC, Cuauhtémoc, CIUDAD DE MÉXICO",,TUOPINION@STARBUCKS.COM.MX,WWW.STARBUCKS.COM.MX,Fijo,-99.14868785,19.43638825,,,,0729,008,722515,,72,722,7225,72251,,COLONIA,2010-07,090150001
93,09014722515000022002003311S0,6319829,STARBUCKS COFFEE MEXICO  TORRE MEXICANA,CAFE SIRENA S DE RL DE CV,"Cafeterías, fuentes de sodas, neverías, refresquerías y similares",6 a 10 personas,EJE VIAL,4 SUR (XOLA),535,,COL DEL VALLE,03103,"BENITO JUÁREZ, Benito Juárez, CIUDAD DE MÉXICO",,TUOPINION@STARBUCKS.COM.MX,WWW.STARBUCKS.COM.MX,Fijo,-99.16507868,19.39699974,,,,0242,005,722515,,72,722,7225,72251,,COLONIA,2010-07,090140001
94,09015722515000422002003311S9,895680,STARBUCKS COFFEE MEXICO  VARSOVIA REFORMA,CAFE SIRENA S DE RL DE CV,"Cafeterías, fuentes de sodas, neverías, refresquerías y similares",0 a 5 personas,AVENIDA,PASEO DE LA REFORMA,374,,COL JUAREZ,06600,"CUAUHTÉMOC, Cuauhtémoc, CIUDAD DE MÉXICO",,TUOPINION@STARBUCKS.COM.MX,WWW.STARBUCKS.COM.MX,Fijo,-99.16913490,19.42574714,,,,0945,001,722515,,72,722,7225,72251,,COLONIA,2010-07,090150001
95,09010722511002642000000000U0,6846030,STARBUCKS COFFEE MEXICO  WALMART PLATEROS,CAF¿ SIRENA S DE RL DE CV,Restaurantes con servicio de preparación de alimentos a la carta o de comida corrida,6 a 10 personas,CALLE,DOCTOR ENRIQUE CABRERA,1701,,MERCED GOMEZ,01701,"ÁLVARO OBREGÓN, Álvaro Obregón, CIUDAD DE MÉXICO",,,,Fijo,-99.19359328,19.36918274,,,,0811,005,722511,,72,722,7225,72251,,COLONIA,2018-03,090100001
96,09016722515003182002003311S4,6724303,STARBUCKS COFFEE MEXICOS  HILLER,CAFE SIRENA S DE RL DE CV,"Cafeterías, fuentes de sodas, neverías, refresquerías y similares",0 a 5 personas,AVENIDA,PRESIDENTE MASARYK,39,,COL POLANCO,11560,"MIGUEL HIDALGO, Miguel Hidalgo, CIUDAD DE MÉXICO",,TUOPINION@STARBUCKS.COM.MX,WWW.STARBUCKS.COM.MX,Fijo,-99.18607605,19.43143799,,,,0675,003,722515,,72,722,7225,72251,,COLONIA,2016-01,090160001
97,09010722515004561000003311S1,9025839,STARBUCKS PLAZA EXHIBIMEX 38692,CAFE SIRENA S DE RL DE CV,"Cafeterías, fuentes de sodas, neverías, refresquerías y similares",11 a 30 personas,CALLE,10,9910,,SAN PEDRO DE LOS PINOS,01180,"ÁLVARO OBREGÓN, Álvaro Obregón, CIUDAD DE MÉXICO",,TUOPINION@STARBUCKS.COM.MX,WWW.STARBUCKS.COM,Fijo,-99.19165842,19.38949275,CENTRO Y PLAZA COMERCIAL,EXHIBIMEX,C 01,0135,003,722515,PLANTA BAJA,72,722,7225,72251,CENTRO Y PLAZA COMERCIAL,COLONIA,2019-11,090100001
98,09010722219005911102003311S6,6319400,STARBUCKS SUC 38120,CAFE SIRENA S DE RL DE CV,"Cafeterías, fuentes de sodas, neverías, refresquerías y similares",6 a 10 personas,AVENIDA,INSURGENTES SUR,310,17,VILLAS COYOACÁN,04000,"ÁLVARO OBREGÓN, Álvaro Obregón, CIUDAD DE MÉXICO",,TUOPINION@STARBUCKS.COM.MX,WWW.STARBUCKS.COM.MX,Fijo,-99.18774462,19.34734088,,,,1129,012,722515,,72,722,7225,72251,,COLONIA,2010-07,090100001
99,09008722219000101001003311S3,6319399,STARBUCKS SUC 38124,CAFE SIRENA S DE RL DE CV,"Cafeterías, fuentes de sodas, neverías, refresquerías y similares",0 a 5 personas,AVENIDA,MÉXICOCONTRERAS,0,,SAN JERÓNIMO LÍDICE,10200,"LA MAGDALENA CONTRERAS, La Magdalena Contreras, CIUDAD DE MÉXICO",,TUOPINION@STARBUCKS.COM.MX,WWW.STARBUCKS.COM.MX,Fijo,-99.21387940,19.32866705,,,,0086,009,722515,,72,722,7225,72251,,COLONIA,2010-07,090080001
100,09017722219013592002003311S9,6307118,STARBUCKS SUC 38171,CAFE SIRENA S DE RL DE CV,"Cafeterías, fuentes de sodas, neverías, refresquerías y similares",6 a 10 personas,CALLE,SONORA,0,,PEÑÓN DE LOS BAÑOS,15620,"VENUSTIANO CARRANZA, Venustiano Carranza, CIUDAD DE MÉXICO",,TUOPINION@STARBUCKS.COM.MX,WWW.STARBUCKS.COM.MX,Fijo,-99.08068813,19.43682590,AEROPUERTO,AEROPUERTO INTERNACIONAL DE LA CIUDAD DE MEXICO,SN,0140,001,722515,,72,722,7225,72251,,COLONIA,2010-07,090170001
101,09016722219001081000003311S9,6310333,STARBUCKS SUC 38191,CAFE SIRENA S DE RL DE CV,"Cafeterías, fuentes de sodas, neverías, refresquerías y similares",11 a 30 personas,AVENIDA,PRESIDENTE MASARYK,39,,CHAPULTEPEC MORALES,11560,"MIGUEL HIDALGO, Miguel Hidalgo, CIUDAD DE MÉXICO",,TUOPINION@STARBUCKS.COM.MX,WWW.STARBUCKS.COM.MX,Fijo,-99.18275543,19.43137012,,,,068A,009,722515,,72,722,7225,72251,,COLONIA,2010-07,090160001
102,09003722219002511001003311S2,6319421,STARBUCKS SUC 38208,CAFE SIRENA S DE RL DE CV,"Cafeterías, fuentes de sodas, neverías, refresquerías y similares",6 a 10 personas,CALLE,TRES CRUCES,624,,BARRIO SANTA CATARINA,04010,"COYOACÁN, Coyoacán, CIUDAD DE MÉXICO",,TUOPINION@STARBUCKS.COM.MX,WWW.STARBUCKS.COM.MX,Fijo,-99.16515354,19.34496240,,,,0130,014,722515,,72,722,7225,72251,,COLONIA,2010-07,090030001
103,09015722219009711001003311S5,6319425,STARBUCKS SUC 38240,CAFE SIRENA S DE RL DE CV,"Cafeterías, fuentes de sodas, neverías, refresquerías y similares",0 a 5 personas,AVENIDA,PASEO DE LA REFORMA,1,,JUÁREZ,06600,"CUAUHTÉMOC, Cuauhtémoc, CIUDAD DE MÉXICO",,TUOPINION@STARBUCKS.COM.MX,WWW.STARBUCKS.COM.MX,Fijo,-99.16620157,19.42718765,,,,0945,012,722515,,72,722,7225,72251,,COLONIA,2010-07,090150001
104,09003722219003151001003311S6,6319431,STARBUCKS SUC 38360,CAFE SIRENA S DE RL DE CV,"Cafeterías, fuentes de sodas, neverías, refresquerías y similares",6 a 10 personas,CALLE,RANCHO PIOMO,4344,,NUEVA ORIENTAL COAPA,14300,"TLALPAN, Tlalpan, CIUDAD DE MÉXICO",,TUOPINION@STARBUCKS.COM.MX,WWW.STARBUCKS.COM.MX,Fijo,-99.13106834,19.29827308,,,,0233,019,722515,,72,722,7225,72251,,COLONIA,2014-12,090120001
105,09014722515000072002003311S5,6319820,STARBUCKS SUC 38369,CAFE SIRENA S DE RL DE CV,"Cafeterías, fuentes de sodas, neverías, refresquerías y similares",6 a 10 personas,EJE VIAL,5 SUR (EUGENIA),1016,,DEL VALLE,03100,"BENITO JUÁREZ, Benito Juárez, CIUDAD DE MÉXICO",,TUOPINION@STARBUCKS.COM.MX,WWW.STARBUCKS.COM.MX,Fijo,-99.16170011,19.38613483,,,,0416,009,722515,,72,722,7225,72251,,COLONIA,2010-07,090140001
106,09010722110000833101003311S8,6318535,STARBUCKS SUC 38372,CAFE SIRENA S DE RL DE CV,"Cafeterías, fuentes de sodas, neverías, refresquerías y similares",0 a 5 personas,BOULEVARD,ANILLO PERIFÉRICO (ADOLFO RUÍZ CORTINES),4020,,DEL VALLE,03200,"ÁLVARO OBREGÓN, Álvaro Obregón, CIUDAD DE MÉXICO",,TUOPINION@STARBUCKS.COM.MX,WWW.STARBUCKS.COM.MX,Fijo,-99.21356387,19.30736050,,,,1307,024,722515,,72,722,7225,72251,,COLONIA,2014-12,090100001
107,09005722515000033001003311S5,6319853,STARBUCKS SUC 38411,CAFE SIRENA S DE RL DE CV,"Cafeterías, fuentes de sodas, neverías, refresquerías y similares",0 a 5 personas,AVENIDA,MIGUEL OTHÓN DE MENDIZABAL ORIENTE,343,,TORRES LINDAVISTA,07700,"GUSTAVO A. MADERO, Gustavo A. Madero, CIUDAD DE MÉXICO",,TUOPINION@STARBUCKS.COM.MX,WWW.STARBUCKS.COM.MX,Fijo,-99.14442504,19.50736564,,,,0525,005,722515,,72,722,7225,72251,,COLONIA,2010-07,090050001
108,09010722515000093001003311S9,6319880,STARBUCKS SUC 38447,CAFE SIRENA S DE RL DE CV,"Cafeterías, fuentes de sodas, neverías, refresquerías y similares",0 a 5 personas,BOULEVARD,ANILLO PERIFÉRICO (ADOLFO RUÍZ CORTINES),1055,,HÉROES DE PADIERNA,10700,"ÁLVARO OBREGÓN, Álvaro Obregón, CIUDAD DE MÉXICO",,TUOPINION@STARBUCKS.COM.MX,WWW.STARBUCKS.COM.MX,Fijo,-99.21560834,19.30799154,,,,1307,015,722515,,72,722,7225,72251,,COLONIA,2014-12,090100001
109,09015722219012011002003311S5,6319230,STARBUCKS SUC 38474,CAFE SIRENA S DE RL DE CV,"Cafeterías, fuentes de sodas, neverías, refresquerías y similares",0 a 5 personas,AVENIDA,PASEO DE LA REFORMA,234,,JUÁREZ,06600,"CUAUHTÉMOC, Cuauhtémoc, CIUDAD DE MÉXICO",,TUOPINION@STARBUCKS.COM.MX,WWW.STARBUCKS.COM.MX,Fijo,-99.16221539,19.42903903,,,,0803,008,722515,,72,722,7225,72251,,COLONIA,2012-06,090150001
110,09015722515000073001003311S0,6309385,STARBUCKS SUC 38487,CAFE SIRENA S DE RL DE CV,"Cafeterías, fuentes de sodas, neverías, refresquerías y similares",0 a 5 personas,CALLE,MOTOLINÍA,25,,CENTRO,06000,"CUAUHTÉMOC, Cuauhtémoc, CIUDAD DE MÉXICO",,TUOPINION@STARBUCKS.COM.MX,WWW.STARBUCKS.COM.MX,Fijo,-99.13731056,19.43339027,,,,0767,003,722515,,72,722,7225,72251,,COLONIA,2010-07,090150001
111,09014722515000102002003311S0,6309393,STARBUCKS SUC 38513,CAFE SIRENA S DE RL DE CV,"Cafeterías, fuentes de sodas, neverías, refresquerías y similares",6 a 10 personas,CALLE,MANZANAS,40,,DEL VALLE TLACOQUEMECATL,03200,"BENITO JUÁREZ, Benito Juárez, CIUDAD DE MÉXICO",,TUOPINION@STARBUCKS.COM.MX,WWW.STARBUCKS.COM.MX,Fijo,-99.17777754,19.37550655,,,,0717,007,722515,,72,722,7225,72251,,COLONIA,2014-12,090140001
112,09004722515001991000003311S6,8535999,STARBUCKS SUPERAMA SANTA FÉ 38166,CAFE SIRENA S DE RL DE CV,"Cafeterías, fuentes de sodas, neverías, refresquerías y similares",0 a 5 personas,AVENIDA,TAMAULIPAS,3000,0,LOMAS DE SANTA FÉ,01219,"CUAJIMALPA DE MORELOS, Cuajimalpa de Morelos, CIUDAD DE MÉXICO",,TUOPINION@STARBUCKS.COM.MX,WWW.STARBUCKS.COM.MX,Fijo,-99.27609226,19.35625376,CENTRO Y PLAZA COMERCIAL,SUPERAMA SANTA FÉ,SN,0369,003,722515,,72,722,7225,72251,,COLONIA,2019-11,090040001
