,CLEE,Id,Nombre,Razon_social,Clase_actividad,Estrato,Tipo_vialidad,Calle,Num_Exterior,Num_Interior,Colonia,CP,Ubicacion,Telefono,Correo_e,Sitio_internet,Tipo,Longitud,Latitud,tipo_corredor_industrial,nom_corredor_industrial,numero_local,AGEB,Manzana,CLASE_ACTIVIDAD_ID,EDIFICIO_PISO,SECTOR_ACTIVIDAD_ID,SUBSECTOR_ACTIVIDAD_ID,RAMA_ACTIVIDAD_ID,SUBRAMA_ACTIVIDAD_ID,EDIFICIO,Tipo_Asentamiento,Fecha_Alta,AreaGeo
0,09007722219009251000000000U9,822300,ANTOJITOS MEXICANOS VIPS,,Restaurantes con servicio de preparación de antojitos,0 a 5 personas,CALLE,LAURELES,24,,SAN JUAN XALPA,09850,"IZTAPALAPA, Iztapalapa, CIUDAD DE MÉXICO",,,,Fijo,-99.08418637,19.33946866,,,,4804,006,722513,,72,722,7225,72251,,COLONIA,2010-07,090070001
1,09012722412000561001000000U1,934844,BAR 3ER MILENIO VIP,PLUTONIA SA DE CV,"Bares, cantinas y similares",6 a 10 personas,CALLE,HACIENDA TOTOAPAN,,,PRADO COAPA 2A SECCION,14357,"TLALPAN, Tlalpan, CIUDAD DE MÉXICO",5513848376,,,Fijo,-99.13314667,19.29602202,,,,0229,019,722412,PLANTA BAJA,72,722,7224,72241,EDIFICIO SIN NOMBRE,COLONIA,2014-12,090120001
2,09011722219004923000000000U0,1051887,CAFE-RESTAURANTE VIP LAS MAYITAS,,Restaurantes con servicio de preparación de alimentos a la carta o de comida corrida,11 a 30 personas,CALLE,ALDAMA,1,0,SANTIAGO ZAPOTITLAN,13300,"TLÁHUAC, Tláhuac, CIUDAD DE MÉXICO",,MAYITASVIPMX@HOTMAIL.COM,,Fijo,-99.03679607,19.29834741,,,,0039,014,722511,,72,722,7225,72251,,COLONIA,2010-07,090110001
3,09007722110000451002003155S5,6324480,CENTRO DE DISTRIBUCION IZTAPALAPA,OPERADORA VIPS S DE RL DE CV,Restaurantes con servicio de preparación de alimentos a la carta o de comida corrida,101 a 250 personas,AVENIDA,5 SUR (AVENIDA MARCELINO BUENDIA),149,0,CHINAMPAC DE JUÁREZ,09208,"IZTAPALAPA, Iztapalapa, CIUDAD DE MÉXICO",,DRAMIREZC@ALSEA.COM.MX,WWW.ALSEA.NET,Fijo,-99.05563684,19.37552175,,,,5484,044,722511,,72,722,7225,72251,,COLONIA,2010-07,090070001
4,09017722511003704000000000U2,9348094,CORAZON DE BARRIO,OPERADORA VIPS S DE RL DE CV,Restaurantes con servicio de preparación de alimentos a la carta o de comida corrida,31 a 50 personas,CALLE,SONORA,,,PEÑON DE LOS BAÑOS,,"VENUSTIANO CARRANZA, Venustiano Carranza, CIUDAD DE MÉXICO",,,CORAZONDEBARRIO,Fijo,-99.08557818,19.43404208,AEROPUERTO,AEROPUERTO INTERNACIONAL BENITO JUAREZ T1,MEZANINE 2A,0140,001,722511,PISO 1,72,722,7225,72251,,COLONIA,2021-05,090170001
6,09002722511003131000000000U0,9281320,EL PORTON VIA VALLEJO RESTAURANTE,OPERADORA VIPS S DE RL DE CV,Restaurantes con servicio de preparación de alimentos a la carta o de comida corrida,0 a 5 personas,EJE VIAL,1 PONIENTE (CALZADA VALLEJO),1090,,INDUSTRIAL VALLEJO,02300,"AZCAPOTZALCO, Azcapotzalco, CIUDAD DE MÉXICO",,,,Fijo,-99.15154021,19.48749487,CENTRO Y PLAZA COMERCIAL,PARQUE VIA VALLEJO,R13 Y R13B,0877,027,722511,PISO 2,72,722,7225,72251,,COLONIA,2020-11,090020001
7,09015812110004611000000000U1,1029018,ER SALON ALDO ALCANTARA VIP ES COMO DISCO,,"Bares, cantinas y similares",6 a 10 personas,CALLE,AMBERES,58,,JUAREZ,06600,"CUAUHTÉMOC, Cuauhtémoc, CIUDAD DE MÉXICO",,,,Fijo,-99.16482018,19.42478614,,,,095A,001,722412,PLANTA BAJA,72,722,7224,72241,EDIFICIO SIN NOMBRE,COLONIA,2010-07,090150001
8,09015721111000332002000000U9,6305051,HOTELES MARSELLA VIP,OPERADORA DE HOTELES MARSELLA SA DE CV,Hoteles con otros servicios integrados,6 a 10 personas,AVENIDA,PERALVILLO,107,,MORELOS,06200,"CUAUHTÉMOC, Cuauhtémoc, CIUDAD DE MÉXICO",,HMARSELLA.VIP@HOTMAIL.COM,,Fijo,-99.13148021,19.45092083,,,,0339,007,721111,,72,721,7211,72111,,COLONIA,2010-07,090150001
9,09015722412004522000000000U2,8326260,MACHO VIP DANCE BAR,BARES DE AMBERES SA DE CV,"Bares, cantinas y similares",6 a 10 personas,CALLE,AMBERES,24,,JUAREZ,06600,"CUAUHTÉMOC, Cuauhtémoc, CIUDAD DE MÉXICO",,MAURICITO33@HOTMAIL.COM,,Fijo,-99.16553191,19.42612059,,,,0945,015,722412,,72,722,7224,72241,,COLONIA,2019-11,090150001
10,09003722412000661000000000U8,7717448,MURALITOS VIP,,"Bares, cantinas y similares",0 a 5 personas,CALLE,DALIAS,335,,PEDREGAL DE SANTO DOMINGO,04369,"COYOACÁN, Coyoacán, CIUDAD DE MÉXICO",,,,Fijo,-99.17345664,19.32629699,,,,0785,027,722412,,72,722,7224,72241,,COLONIA,2019-11,090030001
11,09017722511002203001003155S6,6848028,OPERADORA VIPS,OPERADORA VIPS S DE RL DE CV,Restaurantes con servicio de preparación de alimentos a la carta o de comida corrida,101 a 250 personas,AVENIDA,1 Norte (Albañiles),179,0,20 DE NOVIEMBRE,15340,"VENUSTIANO CARRANZA, Venustiano Carranza, CIUDAD DE MÉXICO",,DRAMIREZC@ALSEA.COM.MX,WWW.ALSEA.NET.MX,Fijo,-99.11351099,19.43796108,,,,0403,014,722511,,72,722,7225,72251,,ZONA COMERCIAL,2018-03,090170001
12,09004722110000531001003155S1,6794454,OPERADORA VIPS ,OPERADORA VIPS S DE RL DE CV,Restaurantes con servicio de preparación de alimentos a la carta o de comida corrida,51 a 100 personas,CALLE,Ninguno,84,0,EL YAQUI,05330,"CUAJIMALPA DE MORELOS, Cuajimalpa de Morelos, CIUDAD DE MÉXICO",,DRAMIREZC@ALSEA.COM.MX,WWW.ALSEA.NET.MX,Fijo,-99.29830529,19.35429079,,,,0091,004,722511,,72,722,7225,72251,,AMPLIACION,2017-03,090040001
13,09010722511002473001003155S0,6802572,OPERADORA VIPS ,OPERADORA VIPS S DE RL DE CV,Restaurantes con servicio de preparación de alimentos a la carta o de comida corrida,101 a 250 personas,AVENIDA,Revolución,1267,0,LOS ALPES,01049,"ÁLVARO OBREGÓN, Álvaro Obregón, CIUDAD DE MÉXICO",,DRAMIREZC@ALSEA.COM.MX,WWW.ALSEA.NET.MX,Fijo,-99.18957274,19.36066589,CENTRO Y PLAZA COMERCIAL,,,0987,016,722511,,72,722,7225,72251,,COLONIA,2017-11,090100001
14,09002722515000181000000000U9,680624,PALETERÍA MICHOACANA VIP,,"Cafeterías, fuentes de sodas, neverías, refresquerías y similares",0 a 5 personas,AVENIDA,AQUILES SERDAN,1025,11,EL ROSARIO,02100,"AZCAPOTZALCO, Azcapotzalco, CIUDAD DE MÉXICO",,,,Fijo,-99.20521224,19.50302436,CENTRO Y PLAZA COMERCIAL,TOWN CENTER EL ROSARIO,CR 11B,0928,009,722515,PISO 2,72,722,7225,72251,CENTRO Y PLAZA COMERCIAL,COLONIA,2014-12,090020001
15,09015722511000145002003155S5,6311723,PORTON,OPERADORA VIPS S DE RL DE CV,Restaurantes con servicio de preparación de alimentos a la carta o de comida corrida,101 a 250 personas,AVENIDA,Insurgentes Norte,0,0,GUERRERO,06700,"CUAUHTÉMOC, Cuauhtémoc, CIUDAD DE MÉXICO",,DRAMIREZC@ALSEA.COM.MX,WWW.ALSEA.NET,Fijo,-99.15340534,19.44528671,,,,049A,007,722511,,72,722,7225,72251,,COLONIA,2014-12,090150001
16,09017722110000021001003155S5,6306699,PORTON AEROPUERTO,OPERADORA VIPS S DE RL DE CV,Restaurantes con servicio de preparación de alimentos a la carta o de comida corrida,51 a 100 personas,CONTINUACION,Interior (Boulevard Puerto Aéreo),1,0,FEDERAL,15700,"VENUSTIANO CARRANZA, Venustiano Carranza, CIUDAD DE MÉXICO",,,,Fijo,-99.09532723,19.42114554,,,,0795,002,722511,,72,722,7225,72251,,COLONIA,2010-07,090170001
17,09002722110000181002003155S9,6305956,PORTON AZCAPOTZALCO,OPERADORA VIPS S DE RL DE CV,Restaurantes con servicio de preparación de alimentos a la carta o de comida corrida,51 a 100 personas,CALLE,5 de Mayo,78,0,SANTA CRUZ ATOYAC,02770,"AZCAPOTZALCO, Azcapotzalco, CIUDAD DE MÉXICO",,dramirezc@alsea.com.mx,WWW.ALSEA.NET,Fijo,-99.19288323,19.47123883,,,,0665,004,722511,,72,722,7225,72251,,COLONIA,2010-07,090020001
18,09015722110001091002003155S1,6304508,PORTON BUENAVISTA,OPERADORA VIPS S DE RL DE CV,Restaurantes con servicio de preparación de alimentos a la carta o de comida corrida,101 a 250 personas,AVENIDA,1 Norte (Mosqueta),151,0,GUERRERO,06300,"CUAUHTÉMOC, Cuauhtémoc, CIUDAD DE MÉXICO",,DRAMIREZC@ALSEA.COM.MX,WWW.ALSEA.NET,Fijo,-99.15306385,19.44608903,,,,049A,007,722511,,72,722,7225,72251,,COLONIA,2010-07,090150001
19,09007722110001411001003155S8,6313995,PORTON CABEZA DE JUAREZ,OPERADORA VIPS S DE RL DE CV,Restaurantes con servicio de preparación de alimentos a la carta o de comida corrida,51 a 100 personas,CALZADA,Ninguno,1911,0,EJÉRCITO CONSTITUCIONALISTA,09220,"IZTAPALAPA, Iztapalapa, CIUDAD DE MÉXICO",,DRAMIREZC@ALSEA.COM.MX,WWW.ALSEA.NET,Fijo,-99.05913907,19.37766100,,,,547A,001,722511,,72,722,7225,72251,,COLONIA,2010-07,090070001
20,09015722110001191001003155S9,6305169,PORTON CUAUHTEMOC,OPERADORA VIPS S DE RL DE CV,Restaurantes con servicio de preparación de alimentos a la carta o de comida corrida,51 a 100 personas,EJE VIAL,1 Poniente (Avenida Cuauhtémoc),19,0,ROMA NORTE,06700,"CUAUHTÉMOC, Cuauhtémoc, CIUDAD DE MÉXICO",,DRAMIREZC@ALSEA.COM.CMX,WWW.ALSEA.NET,Fijo,-99.15391648,19.42453237,,,,1017,024,722511,,72,722,7225,72251,,COLONIA,2010-07,090150001
21,09002722110000171002003155S0,6309948,PORTON CUITLAHUAC DF,OPERADORA VIPS S DE RL DE CV,Restaurantes con servicio de preparación de alimentos a la carta o de comida corrida,51 a 100 personas,AVENIDA,3 Norte (Cuitláhuac),3651,0,HOGAR Y SEGURIDAD,02820,"AZCAPOTZALCO, Azcapotzalco, CIUDAD DE MÉXICO",,DRAMIREZC@ALSEA.COM.MX,WWW.ALSEA.NET,Fijo,-99.16420464,19.47188874,,,,074A,016,722511,,72,722,7225,72251,,COLONIA,2010-07,090020001
22,09017722110000241002003155S9,6310301,PORTON EDUARDO MOLINA,OPERADORA VIPS S DE RL DE CV,Restaurantes con servicio de preparación de alimentos a la carta o de comida corrida,51 a 100 personas,EJE VIAL,3 Oriente (Ingeniero Eduardo Molina),115,0,20 DE NOVIEMBRE,15340,"VENUSTIANO CARRANZA, Venustiano Carranza, CIUDAD DE MÉXICO",,DRAMIREZC@ALSEA.COM.MX,WWW.ALSEA.NET.MX,Fijo,-99.11398005,19.43839488,,,,0403,019,722511,,72,722,7225,72251,,COLONIA,2010-07,090170001
23,09016722110000291002003155S6,6314714,PORTON LOMAS,OPERADORA VIPS S DE RL DE CV,Restaurantes con servicio de preparación de alimentos a la carta o de comida corrida,101 a 250 personas,PERIFERICO,Boulevard Manuel Ávila Camacho,487,0,PERIODISTAS,11220,"MIGUEL HIDALGO, Miguel Hidalgo, CIUDAD DE MÉXICO",,DRAMIREZC@ALSEA.COM.CMX,WWW.ALSEA.NET.MX,Fijo,-99.21975656,19.45121465,,,,0302,001,722511,,72,722,7225,72251,,COLONIA,2010-07,090160001
24,09005722110001271002003155S0,6310106,PORTON PLAZA E MOLINA,OPERADORA VIPS S DE RL DE CV,Restaurantes con servicio de preparación de alimentos a la carta o de comida corrida,51 a 100 personas,CALZADA,5 Norte (Calzada San Juan de Aragón),516,0,D M NACIONAL,07090,"GUSTAVO A. MADERO, Gustavo A. Madero, CIUDAD DE MÉXICO",,DRAMIREZC@ALSEA.COM.MX,WWW.ALSEA.NET,Fijo,-99.09577848,19.47837915,,,,3407,001,722511,,72,722,7225,72251,,COLONIA,2010-07,090050001
25,09007722110000231001003155S1,6313594,PORTON PLAZA ORIENTE,OPERADORA VIPS S DE RL DE CV,Restaurantes con servicio de preparación de alimentos a la carta o de comida corrida,101 a 250 personas,AVENIDA,Canal de Tezontle,1520,0,ALFONSO TIRADO,09020,"IZTAPALAPA, Iztapalapa, CIUDAD DE MÉXICO",,DRAMIREZC@ALSEA.COM.MX,WWW.ALSEA.NET,Fijo,-99.07646395,19.38327485,CENTRO Y PLAZA COMERCIAL,PLAZA ORIENTE,,2390,011,722511,,72,722,7225,72251,,COLONIA,2010-07,090070001
26,09010722110000131002003155S7,6314962,PORTON SAN JERONIMO,OPERADORA VIPS S DE RL DE CV,Restaurantes con servicio de preparación de alimentos a la carta o de comida corrida,51 a 100 personas,AVENIDA,San Jerónimo,630,0,JARDINES DEL PEDREGAL,01900,"ÁLVARO OBREGÓN, Álvaro Obregón, CIUDAD DE MÉXICO",,dramirezc@alsea.com.mx,WWW.ALSEA.NET,Fijo,-99.20928369,19.33134519,,,,1260,005,722511,,72,722,7225,72251,,COLONIA,2010-07,090100001
27,09016722110000341001003155S9,6315147,PORTON TACUBAYA,OPERADORA VIPS S DE RL DE CV,Restaurantes con servicio de preparación de alimentos a la carta o de comida corrida,51 a 100 personas,CALLE,Gobernador Ignacio Esteva,16,0,SAN MIGUEL CHAPULTEPEC,11850,"MIGUEL HIDALGO, Miguel Hidalgo, CIUDAD DE MÉXICO",,DRAMIREZC@ALSEA.COM.MX,WWW.ALSEA.NET.MX,Fijo,-99.18367055,19.40950823,,,,1029,017,722511,,72,722,7225,72251,,COLONIA,2010-07,090160001
29,09005722110001161001003155S3,6308401,PORTON TORRES LINDAVISTA,OPERADORA VIPS S DE RL DE CV,Restaurantes con servicio de preparación de alimentos a la carta o de comida corrida,51 a 100 personas,AVENIDA,Miguel Othón de Mendizabal Oriente,343,0,NUEVA INDUSTRIAL VALLEJO,07700,"GUSTAVO A. MADERO, Gustavo A. Madero, CIUDAD DE MÉXICO",,DRAMIREZC@ALSEA.COM.MX,WWW.ALSEA.NET,Fijo,-99.14469925,19.50725989,,,,0525,005,722511,,72,722,7225,72251,,COLONIA,2010-07,090050001
31,09005722110000521101003155S9,6306371,PORTON VALLEJO,OPERADORA VIPS S DE RL DE CV,Restaurantes con servicio de preparación de alimentos a la carta o de comida corrida,101 a 250 personas,CALZADA,1 Poniente (Calzada Vallejo),1090,0,INDUSTRIAL VALLEJO,07729,"AZCAPOTZALCO, Azcapotzalco, CIUDAD DE MÉXICO",,DRAMIREZC@ALSEA.COM.MX,WWW.ALSEA.NET,Fijo,-99.15357501,19.48606059,,,,0877,027,722511,,72,722,7225,72251,,COLONIA,2010-07,090020001
32,09012722110000371001003155S5,6314861,PORTON VILLA COAPA,OPERADORA VIPS S DE RL DE CV,Restaurantes con servicio de preparación de alimentos a la carta o de comida corrida,101 a 250 personas,PEATONAL,2 Oriente (Avenida Canal de Miramontes),744,0,SAN BARTOLO COAPA,14390,"TLALPAN, Tlalpan, CIUDAD DE MÉXICO",,,,Fijo,-99.12526179,19.29489542,,,,0483,006,722511,,72,722,7225,72251,,COLONIA,2010-07,090120001
33,09007722511004261000000000U3,8522500,PUESTO DE COMIDA CORRIDA LA VENTANITA VIPS,,Restaurantes con servicio de preparación de alimentos a la carta o de comida corrida,0 a 5 personas,CALLE,CENTENO,,,GRANJAS ESMERALDA,09810,"IZTAPALAPA, Iztapalapa, CIUDAD DE MÉXICO",,,,Fijo,-99.11715552,19.35432246,,,,1180,019,722511,,72,722,7225,72251,,COLONIA,2019-11,090070001
34,09007561110000101002003155S0,6324719,RAGAZZI PLAZA ORIENTE,OPERADORA VIPS S DE RL DE CV,Restaurantes con servicio de preparación de alimentos a la carta o de comida corrida,101 a 250 personas,AVENIDA,CANAL DE TEZONTLE,1520,0,DR ALFONSO ORTIZ TIRADO,09020,"IZTAPALAPA, Iztapalapa, CIUDAD DE MÉXICO",,,WWW.VIPS.COM.MX,Fijo,-99.07624707,19.38333921,,,,2390,011,722511,,72,722,7225,72251,,COLONIA,2010-07,090070001
35,09007722511004981000003155S6,8921812,RESTAURANTE VIPS,OPERADORA VIPS S DE RL DE CV,Restaurantes con servicio de preparación de alimentos a la carta o de comida corrida,51 a 100 personas,PERIFERICO,CANAL DE GARAY,3278,,UH MIRASOLES,09910,"IZTAPALAPA, Iztapalapa, CIUDAD DE MÉXICO",,,,Fijo,-99.07713564,19.31557305,CENTRO Y PLAZA COMERCIAL,PARQUE LAS ANTENAS,SN,390A,004,722511,PLANTA BAJA,72,722,7225,72251,CENTRO Y PLAZA COMERCIAL,COLONIA,2019-11,090070001
36,09003722511004411000003155S3,9041880,RESTAURANTE VIPS COPILCO,OPERADORA VIPS S DE RL DE CV,Restaurantes con servicio de preparación de alimentos a la carta o de comida corrida,51 a 100 personas,EJE VIAL,10 SUR (AVENIDA PEDRO ENRIQUEZ UREÑA),546,,PUEBLO LOS REYES,04330,"COYOACÁN, Coyoacán, CIUDAD DE MÉXICO",,DRAMIREZC@ALSEA.COM.MX,WWW.ALSEA.NET,Fijo,-99.15729991,19.33522177,,,,0446,001,722511,,72,722,7225,72251,,COLONIA,2019-11,090030001
37,09010722514003971000000000U6,8694932,TACOS DE CECINA Y ARRACHERA V.I.P.,,Restaurantes con servicio de preparación de tacos y tortas,0 a 5 personas,AVENIDA,MIGUEL ANGEL DE QUEVEDO,,,AGRICOLA,01050,"ÁLVARO OBREGÓN, Álvaro Obregón, CIUDAD DE MÉXICO",,,,Semifijo,-99.18113298,19.34724665,,,,1133,021,722514,,72,722,7225,72251,,COLONIA,2019-11,090100001
38,09005722514008681000000000U6,8277326,TORTAS VIP,,Restaurantes con servicio de preparación de tacos y tortas,0 a 5 personas,CALLE,HIDALGO,12,0,SAN JUAN DE ARAGON,07950,"GUSTAVO A. MADERO, Gustavo A. Madero, CIUDAD DE MÉXICO",,,,Fijo,-99.08547876,19.47004175,,,,1951,003,722514,,72,722,7225,72251,,PUEBLO,2019-11,090050001
39,09012722515003871000000000U1,7728508,VIP CAFE,,"Cafeterías, fuentes de sodas, neverías, refresquerías y similares",0 a 5 personas,CALLE,FRAY PEDRO DE GANTE,87,,BELISARIO DOMINGUEZ SECCION XVI,14080,"TLALPAN, Tlalpan, CIUDAD DE MÉXICO",76916220,,,Fijo,-99.15466170,19.29113905,,,,0426,014,722515,,72,722,7225,72251,,COLONIA,2019-11,090120001
40,09012722511000043002003155S9,6317601,VIPS,OPERADORA VIPS S DE RL DE CV,Restaurantes con servicio de preparación de alimentos a la carta o de comida corrida,51 a 100 personas,CALLE,Cañaverales,222,0,GRANJAS COAPA,14330,"TLALPAN, Tlalpan, CIUDAD DE MÉXICO",,DRAMIREZC@ALSEA.COM.MX,WWW.ALSEA.NET.MX,Fijo,-99.10789859,19.29383811,,,,1975,001,722511,,72,722,7225,72251,,COLONIA,2010-07,090120001
41,09010722511005241000003155S8,8001334,VIPS,OPERADORA VIPS S DE RL DE CV,Restaurantes con servicio de preparación de alimentos a la carta o de comida corrida,101 a 250 personas,CALLE,NINGUNO,166,,SAN PEDRO DE LOS PINOS,01180,"ÁLVARO OBREGÓN, Álvaro Obregón, CIUDAD DE MÉXICO",,DRAMIREZC@ALSEA.COM.MX,WWW.ALSEA.NET,Fijo,-99.19181804,19.38701422,CENTRO Y PLAZA COMERCIAL,PLAZA EXHIBIMEX TOLTECAS,SN,0135,056,722511,PLANTA BAJA,72,722,7225,72251,CENTRO Y PLAZA COMERCIAL,COLONIA,2019-11,090100001
42,09015722511016584000003155S7,9230372,VIPS,OPERADORA VIPS S DE RL DE CV,Restaurantes con servicio de preparación de alimentos a la carta o de comida corrida,101 a 250 personas,CALLE,LORENZO BOTURINI,234,,TRANSITO,06820,"CUAUHTÉMOC, Cuauhtémoc, CIUDAD DE MÉXICO",,,,Fijo,-99.13026266,19.41771691,,,,106A,003,722511,,72,722,7225,72251,,COLONIA,2020-04,090150001
43,09002722511002951000003155S2,8780050,VIPS,OPERADORA VIPS S DE RL DE CV,Restaurantes con servicio de preparación de alimentos a la carta o de comida corrida,101 a 250 personas,AVENIDA,AQUILES SERDAN,520,,CENTRO AZCAPOTZALCO,02000,"AZCAPOTZALCO, Azcapotzalco, CIUDAD DE MÉXICO",,,,Fijo,-99.18856169,19.47814557,,,,0472,011,722511,,72,722,7225,72251,,COLONIA,2019-11,090020001
45,09002722511000035002003155S6,6311695,VIPS,OPERADORA VIPS S DE RL DE CV,Restaurantes con servicio de preparación de alimentos a la carta o de comida corrida,51 a 100 personas,AVENIDA,El Rosario,1025,0,TIERRA NUEVA,02430,"AZCAPOTZALCO, Azcapotzalco, CIUDAD DE MÉXICO",,dramirezc@alsea.com.mx,WWW.ALSEA.NET,Fijo,-99.20417737,19.50193357,,,,0928,009,722511,,72,722,7225,72251,,COLONIA,2010-07,090020001
46,09007722511000025002003155S6,6311732,VIPS,OPERADORA VIPS S DE RL DE CV,Restaurantes con servicio de preparación de alimentos a la carta o de comida corrida,101 a 250 personas,CIRCUITO,Interior (Avenida Río Churubusco),583,0,POPULAR,09060,"IZTAPALAPA, Iztapalapa, CIUDAD DE MÉXICO",,DRAMIREZC@ALSEA.COM.MX,WWW.ALSEA.NET,Fijo,-99.12159716,19.36907189,,,,0676,007,722511,,72,722,7225,72251,,COLONIA,2014-12,090070001
47,09015722110001061002003155S4,6305361,VIPS 16 DE SEPTIEMBRE,OPERADORA VIPS S DE RL DE CV,Restaurantes con servicio de preparación de alimentos a la carta o de comida corrida,101 a 250 personas,CALLE,16 de Septiembre,81,0,CENTRO,06060,"CUAUHTÉMOC, Cuauhtémoc, CIUDAD DE MÉXICO",,DRAMIREZC@ALSEA.COM.MX,WWW.ALSEA.NET,Fijo,-99.13491794,19.43195553,,,,0818,009,722511,,72,722,7225,72251,,COLONIA,2010-07,090150001
48,09017722110000431002003155S6,6306701,VIPS AEROPUERTO,OPERADORA VIPS S DE RL DE CV,Restaurantes con servicio de preparación de alimentos a la carta o de comida corrida,51 a 100 personas,AVENIDA,General Ignacio Zaragoza,0,0,FEDERAL,15700,"VENUSTIANO CARRANZA, Venustiano Carranza, CIUDAD DE MÉXICO",,DRAMIREZC@ALSEA.COM.MX,WWW.ALSEA.NET.MX,Fijo,-99.09470829,19.41938989,,,,0795,003,722511,,72,722,7225,72251,,COLONIA,2010-07,090170001
49,09017722511002211001003155S9,6848353,VIPS AEROPUERTO SALA BRAVO,OPERADORA VIPS S DE RL DE CV,Restaurantes con servicio de preparación de alimentos a la carta o de comida corrida,51 a 100 personas,AMPLIACION,SONORA,0,0,B,15620,"VENUSTIANO CARRANZA, Venustiano Carranza, CIUDAD DE MÉXICO",,DRAMIREZC@ALSEA.COM.MX,WWW.ALSEA.NET,Fijo,-99.08062621,19.43686132,,,,0140,001,722511,,72,722,7225,72251,,FRACCIONAMIENTO,2018-03,090170001
50,09014722110000401000003155S6,6314350,VIPS ALABAMA,OPERADORA VIPS S DE RL DE CV,Restaurantes con servicio de preparación de alimentos a la carta o de comida corrida,51 a 100 personas,AVENIDA,Alabama,7,0,NAPOLES,03810,"BENITO JUÁREZ, Benito Juárez, CIUDAD DE MÉXICO",,DRAMIREZC@ALSEA.COM.MX,WWW.ALSEA.NET,Fijo,-99.17334963,19.39160931,,,,0384,012,722511,,72,722,7225,72251,,COLONIA,2010-07,090140001
51,09015722110001131002003155S5,6304411,VIPS AMERICAS,OPERADORA VIPS S DE RL DE CV,Restaurantes con servicio de preparación de alimentos a la carta o de comida corrida,31 a 50 personas,AVENIDA,Insurgentes Sur,453,0,HIPODROMO CONDESA,06760,"CUAUHTÉMOC, Cuauhtémoc, CIUDAD DE MÉXICO",,dramirezc@alsea.com.mx,WWW.ALSEA.NET,Fijo,-99.16846507,19.40654960,,,,1341,012,722511,,72,722,7225,72251,,COLONIA,2010-07,090150001
52,09015722110001581000003155S1,6305172,VIPS ASTURIAS,OPERADORA VIPS S DE RL DE CV,Restaurantes con servicio de preparación de alimentos a la carta o de comida corrida,51 a 100 personas,CALLE,José Antonio Torres,647,0,ASTURIAS,06700,"CUAUHTÉMOC, Cuauhtémoc, CIUDAD DE MÉXICO",,DRAMIREZC@ALSEA.COM.MX,WWW.ALSEA.NET,Fijo,-99.13364717,19.40792190,,,,1500,007,722511,,72,722,7225,72251,,COLONIA,2010-07,090150001
53,09010722110000051002003155S7,6319110,VIPS AXOMIATLA,OPERADORA VIPS S DE RL DE CV,Restaurantes con servicio de preparación de alimentos a la carta o de comida corrida,51 a 100 personas,CALZADA,Manzana o Edificación Contigua,1819,0,SAN ANTONIO TARANGO,01620,"ÁLVARO OBREGÓN, Álvaro Obregón, CIUDAD DE MÉXICO",,DRAMIREZC@ALSEA.COM.MX,WWW.ALSEA.NET.MX,Fijo,-99.24820534,19.34114197,,,,1148,008,722511,,72,722,7225,72251,,COLONIA,2010-07,090100001
54,09002722110000271002003155S8,6308564,VIPS AZCAPOTZALCO,OPERADORA VIPS S DE RL DE CV,Restaurantes con servicio de preparación de alimentos a la carta o de comida corrida,101 a 250 personas,CALLE,5 de Mayo,78,0,SANTA CRUZ ACAYUCAN,02770,"AZCAPOTZALCO, Azcapotzalco, CIUDAD DE MÉXICO",,dramirezc@alsea.com.mx,WWW.ALSEA.NET,Fijo,-99.19102147,19.47082920,,,,0665,004,722511,,72,722,7225,72251,,COLONIA,2010-07,090020001
55,09015722110001501002003155S9,6305170,VIPS BOLIVAR,OPERADORA VIPS S DE RL DE CV,Restaurantes con servicio de preparación de alimentos a la carta o de comida corrida,51 a 100 personas,AVENIDA,Fray Servando Teresa de Mier,45,0,OBRERA,06800,"CUAUHTÉMOC, Cuauhtémoc, CIUDAD DE MÉXICO",,DRAMIREZC@ALSEA.COM.MX,WWW.ALSEA.NET,Fijo,-99.14045248,19.42426166,,,,1040,019,722511,,72,722,7225,72251,,COLONIA,2010-07,090150001
56,09007722110000611002003155S4,6306741,VIPS CABEZA DE JUAREZ,OPERADORA VIPS S DE RL DE CV,Restaurantes con servicio de preparación de alimentos a la carta o de comida corrida,51 a 100 personas,PERIFERICO,Canal de San Juan,1911,0,EJERC CONSTITUCIONAL,09208,"IZTAPALAPA, Iztapalapa, CIUDAD DE MÉXICO",,DRAMIREZC@ALSEA.COM.MX,WWW.ALSEA.NET,Fijo,-99.05976631,19.37865590,,,,547A,001,722511,,72,722,7225,72251,,COLONIA,2010-07,090070001
57,09014722110000531002003155S0,6315633,VIPS CADIZ,OPERADORA VIPS S DE RL DE CV,Restaurantes con servicio de preparación de alimentos a la carta o de comida corrida,101 a 250 personas,AVENIDA,Calzada De Tlalpan,515,0,ALAMOS,03400,"BENITO JUÁREZ, Benito Juárez, CIUDAD DE MÉXICO",,DRAMIREZC@ALSEA.COM.CMX,WWW.ALSEA.NET,Fijo,-99.13746729,19.39890545,,,,0115,020,722511,,72,722,7225,72251,,COLONIA,2010-07,090140001
58,09005722110000871000003155S8,6308403,VIPS CALZ DE GUADALUPE,OPERADORA VIPS S DE RL DE CV,Restaurantes con servicio de preparación de alimentos a la carta o de comida corrida,51 a 100 personas,CALZADA,Calzada de Guadalupe,206,0,VALLEJO,07840,"GUSTAVO A. MADERO, Gustavo A. Madero, CIUDAD DE MÉXICO",,,,Fijo,-99.12604666,19.46244762,,,,1773,009,722511,,72,722,7225,72251,,COLONIA,2010-07,090050001
59,09002722110000071002003155S2,6306503,VIPS CAMARONES,OPERADORA VIPS S DE RL DE CV,Restaurantes con servicio de preparación de alimentos a la carta o de comida corrida,51 a 100 personas,AVENIDA,Cuitláhuac,3338,0,CLAVERIA,02080,"AZCAPOTZALCO, Azcapotzalco, CIUDAD DE MÉXICO",,dramirezc@alsea.com.mx,WWW.ALSEA.NET,Fijo,-99.17664334,19.46791613,,,,0699,016,722511,,72,722,7225,72251,,COLONIA,2010-07,090020001
60,09015722110001141000003155S4,6304688,VIPS CHILPANCINGO,OPERADORA VIPS S DE RL DE CV,Restaurantes con servicio de preparación de alimentos a la carta o de comida corrida,51 a 100 personas,AVENIDA,INSURGENTES SUR,493,0,ROMA SUR,06760,"CUAUHTÉMOC, Cuauhtémoc, CIUDAD DE MÉXICO",,DRAMIREZC@ALSEA.COM.MX,WWW.ALSEA.NET,Fijo,-99.16923135,19.40408009,,,,1430,002,722511,,72,722,7225,72251,,COLONIA,2010-07,090150001
61,09006722110000491002003155S3,6306056,VIPS CHURUBUSCO,OPERADORA VIPS S DE RL DE CV,Restaurantes con servicio de preparación de alimentos a la carta o de comida corrida,51 a 100 personas,AVENIDA,Interior (Avenida Río Churubusco),1120,0,INFONAVIT IZTACALCO,08770,"IZTACALCO, Iztacalco, CIUDAD DE MÉXICO",,DRAMIREZC@ALSEA.COM.MX,WWW.ALSEA.NET,Fijo,-99.10139469,19.38250605,,,,0946,043,722511,,72,722,7225,72251,,COLONIA,2010-07,090060001
62,09003722110000151002003155S0,6315830,VIPS CIPRESES,OPERADORA VIPS S DE RL DE CV,Restaurantes con servicio de preparación de alimentos a la carta o de comida corrida,51 a 100 personas,PEATONAL,2 Oriente (Heroica Escuela Naval Militar),753,0,LOS CIPRESES,04890,"COYOACÁN, Coyoacán, CIUDAD DE MÉXICO",,DRAMIREZC@ALSEA.COM.CMX,WWW.ALSEA.NET.MX,Fijo,-99.12458783,19.31768732,,,,0906,042,722511,,72,722,7225,72251,,COLONIA,2010-07,090030001
63,09015722110001221000003155S4,6304601,VIPS COLON,OPERADORA VIPS S DE RL DE CV,Restaurantes con servicio de preparación de alimentos a la carta o de comida corrida,51 a 100 personas,CALLE,Ignacio Ramírez,15,0,SAN RAFAEL,06030,"CUAUHTÉMOC, Cuauhtémoc, CIUDAD DE MÉXICO",,DRAMIREZC@ALSEA.COM.MX,WWW.ALSEA.NET,Fijo,-99.15461777,19.43449057,,,,070A,010,722511,,72,722,7225,72251,,COLONIA,2010-07,090150001
64,09003722110000331002003155S8,6315822,VIPS COPILCO,OPERADORA VIPS S DE RL DE CV,Restaurantes con servicio de preparación de alimentos a la carta o de comida corrida,101 a 250 personas,AVENIDA,Universidad,164,0,OXTOPULCO UNIVERSIDAD,04318,"COYOACÁN, Coyoacán, CIUDAD DE MÉXICO",,DRAMIREZC@ALSEA.COM.MX,WWW.ALSEA.NET.MX,Fijo,-99.18320300,19.33799660,,,,0380,057,722511,,72,722,7225,72251,,COLONIA,2010-07,090030001
65,09003722110000161000003155S9,6313615,VIPS COYOACAN,OPERADORA VIPS S DE RL DE CV,Restaurantes con servicio de preparación de alimentos a la carta o de comida corrida,51 a 100 personas,AVENIDA,Pacífico,870,0,LA CONCEPCION,04020,"COYOACÁN, Coyoacán, CIUDAD DE MÉXICO",,dramirezc@alsea.com.mx,WWW.ALSEA.NET,Fijo,-99.15643695,19.34389203,,,,015A,019,722511,,72,722,7225,72251,,COLONIA,2010-07,090030001
66,09004722110000101002003155S3,6314992,VIPS CUAJIMALPA,OPERADORA VIPS S DE RL DE CV,Restaurantes con servicio de preparación de alimentos a la carta o de comida corrida,51 a 100 personas,AVENIDA,José María Castorena,470,0,SAN JOSÉ DE LOS CEDROS,05200,"CUAJIMALPA DE MORELOS, Cuajimalpa de Morelos, CIUDAD DE MÉXICO",,DRAMIREZC@ALSEA.COM.MX,WWW.ALSEA.NET.MX,Fijo,-99.28730628,19.36278377,,,SN,0354,009,722511,,72,722,7225,72251,,COLONIA,2010-07,090040001
67,09014722511004143001003155S9,6812370,VIPS CUAUHTEMOC DELTA,OPERADORA VIPS S DE RL DE CV,Restaurantes con servicio de preparación de alimentos a la carta o de comida corrida,51 a 100 personas,EJE VIAL,1 Poniente (Avenida Cuauhtémoc),533,0,NARVARTE,03020,"BENITO JUÁREZ, Benito Juárez, CIUDAD DE MÉXICO",,DRAMIREZC@ALSEA.COM.MX,WWW.ALSEA.NET,Fijo,-99.15590216,19.39906129,,,,0064,012,722511,,72,722,7225,72251,,COLONIA,2017-11,090140001
68,09003722110000561002003155S0,6313408,VIPS DIVISION DEL NORTE,OPERADORA VIPS S DE RL DE CV,Restaurantes con servicio de preparación de alimentos a la carta o de comida corrida,51 a 100 personas,AVENIDA,División del Norte,3651,0,SAN PEDRO TEPETLAPAN,04620,"COYOACÁN, Coyoacán, CIUDAD DE MÉXICO",,DRAMIREZC@ALSEA.COM.MX,WWW.ALSEA.NET.MX,Fijo,-99.13900831,19.32131488,,,,0677,008,722511,,72,722,7225,72251,,COLONIA,2010-07,090030001
69,09015722110000111000003155S8,6304674,VIPS DURANGO,OPERADORA VIPS S DE RL DE CV,Restaurantes con servicio de preparación de alimentos a la carta o de comida corrida,51 a 100 personas,CALLE,Durango,259,0,CONDESA,06700,"CUAUHTÉMOC, Cuauhtémoc, CIUDAD DE MÉXICO",,DRAMIREZC@ALSEA.COM.CMX,WWW.ALSEA.NET,Fijo,-99.16981994,19.41931022,,,,0998,016,722511,,72,722,7225,72251,,COLONIA,2010-07,090150001
70,09017722110000341000003155S7,6308404,VIPS EDUARDO MOLINA,OPERADORA VIPS S DE RL DE CV,Restaurantes con servicio de preparación de alimentos a la carta o de comida corrida,51 a 100 personas,CALLE,Vulcanización,5,0,20 DE NOVIEMBRE,15340,"VENUSTIANO CARRANZA, Venustiano Carranza, CIUDAD DE MÉXICO",,,,Fijo,-99.11352717,19.43857617,,,,0403,014,722511,,72,722,7225,72251,,COLONIA,2010-07,090170001
71,09016722110000121002003155S5,6314733,VIPS EJERCITO NACIONAL,OPERADORA VIPS S DE RL DE CV,Restaurantes con servicio de preparación de alimentos a la carta o de comida corrida,51 a 100 personas,CALLE,José Luis Lagrange,103,0,CHAPULTEPEC MORALES,11510,"MIGUEL HIDALGO, Miguel Hidalgo, CIUDAD DE MÉXICO",,DRAMIREZC@ALSEA.COM.MX,WWW.ALSEA.NET.MX,Fijo,-99.21080987,19.43850203,,,,0622,010,722511,,72,722,7225,72251,,COLONIA,2010-07,090160001
72,09010722513003331000000000U5,7261831,VIPS EL ARBOLITO ANTOJITOS MEXICANOS,,Restaurantes con servicio de preparación de antojitos,0 a 5 personas,CALLE,TOLTECAS,,,SAN PEDRO DE LOS PINOS,01180,"ÁLVARO OBREGÓN, Álvaro Obregón, CIUDAD DE MÉXICO",,,,Semifijo,-99.19214985,19.38919047,,,,0135,003,722513,,72,722,7225,72251,,COLONIA,2019-11,090100001
73,09014722110000441000003155S2,6316212,VIPS EUGENIA,OPERADORA VIPS S DE RL DE CV,Restaurantes con servicio de preparación de alimentos a la carta o de comida corrida,51 a 100 personas,PEATONAL,5 Sur (Eugenia),194,0,VERTIZ NARVARTE,03600,"BENITO JUÁREZ, Benito Juárez, CIUDAD DE MÉXICO",,DRAMIREZC@ALSEA.COM.MX,WWW.ALSEA.NET,Fijo,-99.14841074,19.38392808,,,,0454,005,722511,,72,722,7225,72251,,COLONIA,2010-07,090140001
74,09014722110000861002003155S1,6316009,VIPS FELIX CUEVAS,OPERADORA VIPS S DE RL DE CV,Restaurantes con servicio de preparación de alimentos a la carta o de comida corrida,101 a 250 personas,EJE VIAL,7 Sur (Félix Cuevas),1621,0,DEL VALLE,03100,"BENITO JUÁREZ, Benito Juárez, CIUDAD DE MÉXICO",,DRAMIREZC@ALSEA.COM.MX,WWW.ALSEA.NET,Fijo,-99.17570592,19.37292878,,,,0806,006,722511,,72,722,7225,72251,,COLONIA,2010-07,090140001
75,09017722110000171002003155S8,6305265,VIPS FRANCISCO DEL PASO,OPERADORA VIPS S DE RL DE CV,Restaurantes con servicio de preparación de alimentos a la carta o de comida corrida,51 a 100 personas,PEATONAL,3 Oriente (Francisco del Paso y Troncoso),619,0,M MIXIHUCA,15620,"VENUSTIANO CARRANZA, Venustiano Carranza, CIUDAD DE MÉXICO",,dramirezc@alsea.com.mx,WWW.ALSEA.NET,Fijo,-99.11364909,19.40689021,,,,1416,013,722511,,72,722,7225,72251,,COLONIA,2010-07,090170001
76,09017722110000501002003155S6,6306017,VIPS FRAY SERVANDO,OPERADORA VIPS S DE RL DE CV,Restaurantes con servicio de preparación de alimentos a la carta o de comida corrida,51 a 100 personas,AVENIDA,Fray Servando Teresa de Mier,881,0,JARDIN BALBUENA,15150,"VENUSTIANO CARRANZA, Venustiano Carranza, CIUDAD DE MÉXICO",,DRAMIREZC@ALSEA.COM.MX,WWW.ALSEA.NET.MX,Fijo,-99.10538172,19.41799362,,,,1115,016,722511,,72,722,7225,72251,,COLONIA,2010-07,090170001
77,09016722110000401002003155S1,6315160,VIPS GALERIAS,OPERADORA VIPS S DE RL DE CV,Restaurantes con servicio de preparación de alimentos a la carta o de comida corrida,51 a 100 personas,CIRCUITO,INTERIOR (CALZADA MELCHOR OCAMPO),193,0,ANZURES,11300,"MIGUEL HIDALGO, Miguel Hidalgo, CIUDAD DE MÉXICO",,DRAMIREZC@ALSEA.COM.MX,WWW.ALSEA.NET.MX,Fijo,-99.17041029,19.43550143,,,,0603,021,722511,,72,722,7225,72251,,COLONIA,2010-07,090160001
78,09015722110001051002003155S5,6304732,VIPS HAMBURGO,OPERADORA VIPS S DE RL DE CV,Restaurantes con servicio de preparación de alimentos a la carta o de comida corrida,51 a 100 personas,CALLE,Hamburgo,126,0,JUAREZ,06600,"CUAUHTÉMOC, Cuauhtémoc, CIUDAD DE MÉXICO",,DRAMIREZC@ALSEA.COM.CMX,WWW.ALSEA.NET,Fijo,-99.16505757,19.42596231,,,,095A,008,722511,,72,722,7225,72251,,COLONIA,2010-07,090150001
79,09012722110000301001003155S2,6315433,VIPS HUIPULCO,OPERADORA VIPS S DE RL DE CV,Restaurantes con servicio de preparación de alimentos a la carta o de comida corrida,101 a 250 personas,CALZADA,Calzada de Tlalpan,4349,0,TORIELLO GUERRA,14050,"TLALPAN, Tlalpan, CIUDAD DE MÉXICO",,DRAMIREZC@ALSEA.COM.MX,WWW.ALSEA.NET.MX,Fijo,-99.15422011,19.29617765,,,,0430,007,722511,,72,722,7225,72251,,COLONIA,2010-07,090120001
80,09010722110000171002003155S3,6316154,VIPS INSURGENTES LORETO,OPERADORA VIPS S DE RL DE CV,Restaurantes con servicio de preparación de alimentos a la carta o de comida corrida,51 a 100 personas,AVENIDA,Ninguno,2383,0,TIZAPAN SAN ANGEL,01080,"ÁLVARO OBREGÓN, Álvaro Obregón, CIUDAD DE MÉXICO",,DRAMIREZC@ALSEA.COM.MX,WWW.ALSEA.NET.MX,Fijo,-99.18991604,19.34136923,,,,1203,007,722511,,72,722,7225,72251,,COLONIA,2010-07,090100001
81,09015722110001411002003155S1,6305362,VIPS IZAZAGA,OPERADORA VIPS S DE RL DE CV,Restaurantes con servicio de preparación de alimentos a la carta o de comida corrida,31 a 50 personas,AVENIDA,José María Izazaga,38,0,CENTRO,05060,"CUAUHTÉMOC, Cuauhtémoc, CIUDAD DE MÉXICO",,DRAMIREZC@ALSEA.COM.MX,WWW.ALSEA.NET,Fijo,-99.14001311,19.42661510,,,,088A,013,722511,,72,722,7225,72251,,COLONIA,2010-07,090150001
82,09007722110001521002003155S4,6313328,VIPS IZTAPALAPA,OPERADORA VIPS S DE RL DE CV,Restaurantes con servicio de preparación de alimentos a la carta o de comida corrida,51 a 100 personas,AVENIDA,8 Sur (Calzada Ermita Iztapalapa),907,0,ISABEL INDUSTRIAL,09820,"IZTAPALAPA, Iztapalapa, CIUDAD DE MÉXICO",,dramirezc@alsea.com.mx,WWW.ALSEA.NET,Fijo,-99.10297338,19.35572174,,,,1208,006,722511,,72,722,7225,72251,,COLONIA,2010-07,090070001
83,09007722110000301002003155S2,6306740,VIPS IZTAPALAPA MARGARITA,OPERADORA VIPS S DE RL DE CV,Restaurantes con servicio de preparación de alimentos a la carta o de comida corrida,101 a 250 personas,AVENIDA,8 Sur (Calzada Ermita Iztapalapa),2013,0,LOS ANGELES,09830,"IZTAPALAPA, Iztapalapa, CIUDAD DE MÉXICO",,DRAMIREZC@ALSEA.COM.MX,WWW.ALSEA.NET,Fijo,-99.06813812,19.34772429,,,,1424,002,722511,,72,722,7225,72251,,COLONIA,2010-07,090070001
84,09017722110000251002003155S8,6306365,VIPS JARDIN BALBUENA,OPERADORA VIPS S DE RL DE CV,Restaurantes con servicio de preparación de alimentos a la carta o de comida corrida,51 a 100 personas,AVENIDA,Fray Servando Teresa de Mier,644,0,JARDIN BALBUENA,15340,"VENUSTIANO CARRANZA, Venustiano Carranza, CIUDAD DE MÉXICO",,DRAMIREZC@ALSEA.COM.MX,WWW.ALSEA.NET.MX,Fijo,-99.11458518,19.42084372,,,,0738,008,722511,,72,722,7225,72251,,COLONIA,2010-07,090170001
85,09017722110000481002003155S1,6310300,VIPS LA VIGA,OPERADORA VIPS S DE RL DE CV,Restaurantes con servicio de preparación de alimentos a la carta o de comida corrida,31 a 50 personas,PEATONAL,1 Oriente (Calzada de la Viga),136,0,LORENZO BUTURINI,15820,"VENUSTIANO CARRANZA, Venustiano Carranza, CIUDAD DE MÉXICO",,DRAMIREZC@ALSEA.COM.MX,WWW.ALSEA.NET.MX,Fijo,-99.12791755,19.41468785,,,,1045,005,722511,,72,722,7225,72251,,COLONIA,2010-07,090170001
86,09016722110000471001003155S4,6315376,VIPS LEGARIA,OPERADORA VIPS S DE RL DE CV,Restaurantes con servicio de preparación de alimentos a la carta o de comida corrida,51 a 100 personas,AVENIDA,Calzada Legaria,252,0,TACUBA,11430,"MIGUEL HIDALGO, Miguel Hidalgo, CIUDAD DE MÉXICO",,DRAMIREZC@ALSEA.COM.CMX,WWW.ALSEA.NET.MX,Fijo,-99.19848689,19.45332242,,,,0251,006,722511,,72,722,7225,72251,,COLONIA,2010-07,090160001
87,09004722110000071101003155S8,6314565,VIPS LILAS,OPERADORA VIPS S DE RL DE CV,Restaurantes con servicio de preparación de alimentos a la carta o de comida corrida,51 a 100 personas,CALLE,Paseo de las Lilas,92,0,BOSQUE DE LAS LOMAS,05120,"MIGUEL HIDALGO, Miguel Hidalgo, CIUDAD DE MÉXICO",,DRAMIREZC@ALSEA.COM.MX,WWW.ALSEA.NET.MX,Fijo,-99.24793375,19.38745339,,,,1300,012,722511,,72,722,7225,72251,,COLONIA,2010-07,090160001
88,09016722110000161002003155S1,6315262,VIPS LOMAS,OPERADORA VIPS S DE RL DE CV,Restaurantes con servicio de preparación de alimentos a la carta o de comida corrida,101 a 250 personas,PERIFERICO,Boulevard Manuel Ávila Camacho,631,0,PERIODISTAS,11220,"MIGUEL HIDALGO, Miguel Hidalgo, CIUDAD DE MÉXICO",,dramirezc@alsea.com.mx,WWW.ALSEA.NET,Fijo,-99.21994854,19.44907572,CENTRO Y PLAZA COMERCIAL,WALMART LOMAS TOREO,,0302,001,722511,,72,722,7225,72251,,COLONIA,2010-07,090160001
89,09007722110001131002003155S2,6314016,VIPS LOMAS ESTRELLA,OPERADORA VIPS S DE RL DE CV,Restaurantes con servicio de preparación de alimentos a la carta o de comida corrida,51 a 100 personas,AVENIDA,Tláhuac,4431,0,LOMAS ESTRELLA,09890,"IZTAPALAPA, Iztapalapa, CIUDAD DE MÉXICO",,DRAMIREZC@ALSEA.COM.MX,WWW.ALSEA.NE,Fijo,-99.09232979,19.32143565,,,,4433,001,722511,,72,722,7225,72251,,COLONIA,2010-07,090070001
90,09015722110001351002003155S9,6304613,VIPS MADERO,OPERADORA VIPS S DE RL DE CV,Restaurantes con servicio de preparación de alimentos a la carta o de comida corrida,51 a 100 personas,CALLE,Francisco I. Madero,53,0,CENTRO,06000,"CUAUHTÉMOC, Cuauhtémoc, CIUDAD DE MÉXICO",,,,Fijo,-99.13592914,19.43334141,,,,0771,015,722511,,72,722,7225,72251,,COLONIA,2010-07,090150001
91,09015722110000911000003155S1,6305363,VIPS MADERO RITZ,OPERADORA VIPS S DE RL DE CV,Restaurantes con servicio de preparación de alimentos a la carta o de comida corrida,51 a 100 personas,CALLE,Francisco I. Madero,30,0,CENTRO,06000,"CUAUHTÉMOC, Cuauhtémoc, CIUDAD DE MÉXICO",,DRAMIREZC@ALSEA.COM.CMX,WWW.ALSEA.NET,Fijo,-99.13783357,19.43369717,,,,0767,002,722511,,72,722,7225,72251,,COLONIA,2010-07,090150001
92,09016722110000141001003155S3,6315144,VIPS MASARIK,OPERADORA VIPS S DE RL DE CV,Restaurantes con servicio de preparación de alimentos a la carta o de comida corrida,51 a 100 personas,AVENIDA,Presidente Masaryk,29,0,POLANCO,11571,"MIGUEL HIDALGO, Miguel Hidalgo, CIUDAD DE MÉXICO",,DRAMIREZC@ALSEA.COM.MX,WWW.ALSEA.NET.MX,Fijo,-99.18242449,19.43136003,,,,068A,004,722511,,72,722,7225,72251,,COLONIA,2010-07,090160001
93,09003722110000271002003155S6,6316616,VIPS MIRAMONTES,OPERADORA VIPS S DE RL DE CV,Restaurantes con servicio de preparación de alimentos a la carta o de comida corrida,51 a 100 personas,EJE VIAL,2 Oriente (Avenida Canal de Miramontes),2053,0,LOS GIRASOLES,04920,"COYOACÁN, Coyoacán, CIUDAD DE MÉXICO",,DRAMIREZC@ALSEA.COM.MX,WWW.ALSEA.NET.MX,Fijo,-99.12416801,19.31089159,,,,168A,020,722511,,72,722,7225,72251,,COLONIA,2010-07,090030001
94,09005722110001231002003155S4,6306288,VIPS MONTEVIDEO,OPERADORA VIPS S DE RL DE CV,Restaurantes con servicio de preparación de alimentos a la carta o de comida corrida,51 a 100 personas,EJE VIAL,5 Norte (Montevideo),109,0,LINDAVISTA,07300,"GUSTAVO A. MADERO, Gustavo A. Madero, CIUDAD DE MÉXICO",,DRAMIREZC@ALSEA.COM.MX,WWW.ALSEA.NET,Fijo,-99.12455660,19.48755469,,,,0968,018,722511,,72,722,7225,72251,,COLONIA,2010-07,090050001
95,09015722110000021001003155S9,6305702,VIPS NIZA,OPERADORA VIPS S DE RL DE CV,Restaurantes con servicio de preparación de alimentos a la carta o de comida corrida,51 a 100 personas,AVENIDA,Insurgentes Sur,105,0,JUAREZ,06600,"CUAUHTÉMOC, Cuauhtémoc, CIUDAD DE MÉXICO",,dramirezc@alsea.com.mx,WWW.ALSE.NET,Fijo,-99.16226223,19.42548635,,,,095A,002,722511,,72,722,7225,72251,,COLONIA,2010-07,090150001
96,09010722110000121002003155S8,6315359,VIPS OBSERVATORIO,OPERADORA VIPS S DE RL DE CV,Restaurantes con servicio de preparación de alimentos a la carta o de comida corrida,31 a 50 personas,AVENIDA,Observatorio,457,0,LAS AMERICAS,01120,"ÁLVARO OBREGÓN, Álvaro Obregón, CIUDAD DE MÉXICO",,DRAMIREZC@ALSEA.COM.MX,WWW.ALSEA.NET.MX,Fijo,-99.20939601,19.40045535,CENTRO Y PLAZA COMERCIAL,,,0031,006,722511,,72,722,7225,72251,,COLONIA,2010-07,090100001
97,09016722110000111002003155S6,6315169,VIPS PALMAS,OPERADORA VIPS S DE RL DE CV,Restaurantes con servicio de preparación de alimentos a la carta o de comida corrida,51 a 100 personas,AVENIDA,Paseo de las Palmas,555,0,LOMAS DE BARRILACO,11010,"MIGUEL HIDALGO, Miguel Hidalgo, CIUDAD DE MÉXICO",,DRAMIREZC@ALSEA.COM.CMX,WWW.ALSEA.NET.MX,Fijo,-99.21358729,19.42979643,,,,0834,001,722511,,72,722,7225,72251,,COLONIA,2010-07,090160001
98,09016722110000051001003155S4,6310159,VIPS PARQUES POLANCO,OPERADORA VIPS S DE RL DE CV,Restaurantes con servicio de preparación de alimentos a la carta o de comida corrida,101 a 250 personas,CALLE,Lago Alberto,320,0,GRANADA,11320,"MIGUEL HIDALGO, Miguel Hidalgo, CIUDAD DE MÉXICO",,DRAMIREZC@ALSEA.COM.MX,WWW.ALSEA.NET.MX,Fijo,-99.18461597,19.43989605,,,,0478,003,722511,,72,722,7225,72251,,COLONIA,2010-07,090160001
99,09010722110000181002003155S2,6314957,VIPS PEDREGAL,OPERADORA VIPS S DE RL DE CV,Restaurantes con servicio de preparación de alimentos a la carta o de comida corrida,101 a 250 personas,CALLE,Iglesia,270,0,J DEL PEDREGAL,01900,"ÁLVARO OBREGÓN, Álvaro Obregón, CIUDAD DE MÉXICO",,DRAMIREZC@ALSEA.COM.MX,WWW.ALSEA.NET.MX,Fijo,-99.19963119,19.33597087,,,,1241,015,722511,,72,722,7225,72251,,COLONIA,2010-07,090100001
100,09003722110000581002003155S8,6306506,VIPS PERISUR,OPERADORA VIPS S DE RL DE CV,Restaurantes con servicio de preparación de alimentos a la carta o de comida corrida,51 a 100 personas,AVENIDA,Insurgentes Sur,3195,0,INSURGENTES CUICUILCO,05430,"COYOACÁN, Coyoacán, CIUDAD DE MÉXICO",,dramirezc@alsea.com.mx,WWW.ALSEA.NET,Fijo,-99.18681774,19.30800525,,,,1105,032,722511,,72,722,7225,72251,,COLONIA,2010-07,090030001
101,09010722110000021002003155S0,6314491,VIPS PLATEROS,OPERADORA VIPS S DE RL DE CV,Restaurantes con servicio de preparación de alimentos a la carta o de comida corrida,51 a 100 personas,CALLE,Francisco de P. Miranda,1701,0,TORRES DE MIXCOAC,01600,"ÁLVARO OBREGÓN, Álvaro Obregón, CIUDAD DE MÉXICO",,DRAMIREZC@ALSEA.COM.MX,WWW.ALSEA.NET.MX,Fijo,-99.19211388,19.37008774,CENTRO Y PLAZA COMERCIAL,,,0811,005,722511,,72,722,7225,72251,,COLONIA,2010-07,090100001
102,09014722110000031002003155S1,6315293,VIPS PLAZA CALIFORNIA,OPERADORA VIPS S DE RL DE CV,Restaurantes con servicio de preparación de alimentos a la carta o de comida corrida,51 a 100 personas,AVENIDA,Insurgentes Sur,954,0,DEL VALLE,03100,"BENITO JUÁREZ, Benito Juárez, CIUDAD DE MÉXICO",,DRAMIREZC@ALSEA.COM.MX,WWW.ALSEA.NET,Fijo,-99.17530081,19.38436496,,,,0223,022,722511,,72,722,7225,72251,,COLONIA,2010-07,090140001
103,09005722110000641002003155S5,6308549,VIPS PLAZA EDUARDO MOLINA,OPERADORA VIPS S DE RL DE CV,Restaurantes con servicio de preparación de alimentos a la carta o de comida corrida,101 a 250 personas,CALZADA,5 Norte (Calzada San Juan de Aragón),516,0,D M NACIONAL PREPARATORIA3,07450,"GUSTAVO A. MADERO, Gustavo A. Madero, CIUDAD DE MÉXICO",,dramirezc@alsea.com.mx,WWW.ALSEA.NET,Fijo,-99.09696886,19.47884273,,,,3407,001,722511,,72,722,7225,72251,,COLONIA,2010-07,090050001
104,09016722110000031002003155S6,6314363,VIPS POLANCO,OPERADORA VIPS S DE RL DE CV,Restaurantes con servicio de preparación de alimentos a la carta o de comida corrida,51 a 100 personas,CALLE,Horacio,203,0,CHAPULTEPEC MORALES,11560,"MIGUEL HIDALGO, Miguel Hidalgo, CIUDAD DE MÉXICO",,DRAMIREZC@ALSEA.COM.MX,WWW.ALSEA.NET.MX,Fijo,-99.18459176,19.43320760,,,,068A,023,722511,,72,722,7225,72251,,COLONIA,2010-07,090160001
105,09015722511009463001003155S3,6812371,VIPS REFORMA,OPERADORA VIPS S DE RL DE CV,Restaurantes con servicio de preparación de alimentos a la carta o de comida corrida,51 a 100 personas,AVENIDA,Paseo de la Reforma,180,0,JUAREZ,06600,"CUAUHTÉMOC, Cuauhtémoc, CIUDAD DE MÉXICO",,DRAMIREZC@ALSEA.COM.MX,WWW.ALSEA.NET,Fijo,-99.16049644,19.42982745,,,,0803,005,722511,,72,722,7225,72251,,COLONIA,2017-11,090150001
106,09014722110000371002003155S1,6315297,VIPS REVOLUCION,OPERADORA VIPS S DE RL DE CV,Restaurantes con servicio de preparación de alimentos a la carta o de comida corrida,51 a 100 personas,CONTINUACION,Interior (Avenida Revolución),682,0,SAN PEDRO DE LOS PINOS,03700,"BENITO JUÁREZ, Benito Juárez, CIUDAD DE MÉXICO",,DRAMIREZ@ALSEA.COM.MX,WWW.ALSEA.NET,Fijo,-99.18643506,19.38490433,,,,0558,012,722511,,72,722,7225,72251,,COLONIA,2010-07,090140001
107,09015722110000231002003155S4,6305364,VIPS SAN COSME,OPERADORA VIPS S DE RL DE CV,Restaurantes con servicio de preparación de alimentos a la carta o de comida corrida,51 a 100 personas,AVENIDA,Ribera de San Cosme,8,0,SAN RAFAEL,06470,"CUAUHTÉMOC, Cuauhtémoc, CIUDAD DE MÉXICO",,DRAMIREZC@ALSEA.COM.MX,WWW.ALSEA.NET.MX,Fijo,-99.15616120,19.43974891,,,,0697,010,722511,,72,722,7225,72251,,COLONIA,2010-07,090150001
108,09008722110000091002003155S7,6327161,VIPS SAN JERONIMO,OPERADORA VIPS S DE RL DE CV,Restaurantes con servicio de preparación de alimentos a la carta o de comida corrida,101 a 250 personas,AVENIDA,México-Contreras,32,0,SAN JERONIMO LIDICE,10200,"LA MAGDALENA CONTRERAS, La Magdalena Contreras, CIUDAD DE MÉXICO",,DRAMIREZC@ALSEA.COM.MX,WWW.ALSEA.NET,Fijo,-99.21210980,19.33008451,CENTRO Y PLAZA COMERCIAL,,,0086,013,722511,,72,722,7225,72251,,COLONIA,2010-07,090080001
109,09014722110000771002003155S2,6319111,VIPS SAN JOSE INSURGENTES,OPERADORA VIPS S DE RL DE CV,Restaurantes con servicio de preparación de alimentos a la carta o de comida corrida,51 a 100 personas,AVENIDA,Insurgentes Sur,1581,0,SAN JOSE INSURGENTES,03900,"BENITO JUÁREZ, Benito Juárez, CIUDAD DE MÉXICO",,DRAMIREZC@ALSEA.COM.MX,WWW.ALSEA.NET,Fijo,-99.18211549,19.36462894,,,,0914,006,722511,,72,722,7225,72251,,COLONIA,2010-07,090140001
110,09015722110000191002003155S0,6304545,VIPS SAN RAFAEL,OPERADORA VIPS S DE RL DE CV,Restaurantes con servicio de preparación de alimentos a la carta o de comida corrida,51 a 100 personas,AVENIDA,Insurgentes Centro,67,0,SAN RAFAEL,06470,"CUAUHTÉMOC, Cuauhtémoc, CIUDAD DE MÉXICO",,DRAMIREZC@ALSEA.COM.MX,WWW.ALSEA.NET,Fijo,-99.15728433,19.43644872,,,,0697,003,722511,,72,722,7225,72251,,COLONIA,2010-07,090150001
111,09004722110000111002003155S2,6319292,VIPS SANTA FE MIX,OPERADORA VIPS S DE RL DE CV,Restaurantes con servicio de preparación de alimentos a la carta o de comida corrida,51 a 100 personas,PROLONGACION,Vasco de Quiroga,3900,0,ANTIGUA MINA DE TOTOLAPA,05109,"CUAJIMALPA DE MORELOS, Cuajimalpa de Morelos, CIUDAD DE MÉXICO",,DRAMIREZC@ALSEA.COM.MX,WWW.ALSEA.NET.MX,Fijo,-99.27874026,19.36133882,,,,0369,077,722511,,72,722,7225,72251,,COLONIA,2010-07,090040001
112,09015722110006705002003155S1,6304265,VIPS SULIVAN,OPERADORA VIPS S DE RL DE CV,Restaurantes con servicio de preparación de alimentos a la carta o de comida corrida,51 a 100 personas,CALLE,SADI CARNOD,121,0,SAN RAFAEL,06470,"CUAUHTÉMOC, Cuauhtémoc, CIUDAD DE MÉXICO",,,,Fijo,-99.15995623,19.43270665,,,,0697,012,722511,,72,722,7225,72251,,COLONIA,2010-07,090150001
113,09002722110000081002003155S1,6309947,VIPS TECNOPARQUE AZCAPOTZALCO,OPERADORA VIPS S DE RL DE CV,Restaurantes con servicio de preparación de alimentos a la carta o de comida corrida,31 a 50 personas,PEATONAL,5 Norte (Deportivo Reynosa),990,0,BARBARA,02230,"AZCAPOTZALCO, Azcapotzalco, CIUDAD DE MÉXICO",,DRAMIREZC@ALSEA.COM.MX,WWW.ALSEA.NET,Fijo,-99.17764053,19.50204053,CENTRO Y PLAZA COMERCIAL,TECNO PARQUE,,0932,016,722511,,72,722,7225,72251,,COLONIA,2010-07,090020001
115,09007722110001501001003155S6,6314284,VIPS TLAHUAC,OPERADORA VIPS S DE RL DE CV,Restaurantes con servicio de preparación de alimentos a la carta o de comida corrida,101 a 250 personas,AVENIDA,Tláhuac,5662,0,SAN LORENZO TEZONCO,09790,"IZTAPALAPA, Iztapalapa, CIUDAD DE MÉXICO",,DRAMIREZC@ALSEA.COM.MX,WWW.ALSEA.NET,Fijo,-99.06125788,19.30520727,,,,2121,001,722511,,72,722,7225,72251,,COLONIA,2010-07,090070001
116,09015722110001541002003155S5,6304922,VIPS TONALA,OPERADORA VIPS S DE RL DE CV,Restaurantes con servicio de preparación de alimentos a la carta o de comida corrida,51 a 100 personas,AVENIDA,Insurgentes Sur,180,0,ROMA,06700,"CUAUHTÉMOC, Cuauhtémoc, CIUDAD DE MÉXICO",,dramirezc@alsea.com.mx,WWW.ALSEA.NET,Fijo,-99.16344712,19.42156092,,,,1002,006,722511,,72,722,7225,72251,,COLONIA,2010-07,090150001
117,09005722110001281002003155S9,6306188,VIPS TORRES LINDAVISTA,OPERADORA VIPS S DE RL DE CV,Restaurantes con servicio de preparación de alimentos a la carta o de comida corrida,51 a 100 personas,AVENIDA,Miguel Othón de Mendizabal Oriente,343,0,NUEVA INDUSTRIAL VALLEJO,07700,"GUSTAVO A. MADERO, Gustavo A. Madero, CIUDAD DE MÉXICO",,DRAMIREZC@ALSEA.COM.MX,WWW.ALSEA.NET,Fijo,-99.14507225,19.50711606,,,,0525,005,722511,,72,722,7225,72251,,COLONIA,2010-07,090050001
119,09015722110000071002003155S4,6305173,VIPS URUGUAY,OPERADORA VIPS S DE RL DE CV,Restaurantes con servicio de preparación de alimentos a la carta o de comida corrida,51 a 100 personas,CALLE,República de Uruguay,53,0,CENTRO,06000,"CUAUHTÉMOC, Cuauhtémoc, CIUDAD DE MÉXICO",,,,Fijo,-99.13704328,19.43048158,,,,0818,003,722511,,72,722,7225,72251,,COLONIA,2010-07,090150001
120,09013722110000201002003155S2,6314251,VIPS VAQUERITOS,OPERADORA VIPS S DE RL DE CV,Restaurantes con servicio de preparación de alimentos a la carta o de comida corrida,51 a 100 personas,AVENIDA,Prolongación División del Norte,4901,0,SN LORENZO LA CEBADA,16035,"XOCHIMILCO, Xochimilco, CIUDAD DE MÉXICO",,DRAMIREZC@ALSEA.COM.MX,WWW.ALSEA.NET.MX,Fijo,-99.12500414,19.28242499,,,,1065,042,722511,,72,722,7225,72251,,COLONIA,2010-07,090130001
121,09012722110000601002003155S5,6314862,VIPS VILLA COAPA,OPERADORA VIPS S DE RL DE CV,Restaurantes con servicio de preparación de alimentos a la carta o de comida corrida,51 a 100 personas,PEATONAL,2 Oriente (Avenida Canal de Miramontes),744,0,SAN BARTOLO COAPA,14390,"TLALPAN, Tlalpan, CIUDAD DE MÉXICO",,DRAMIREZC@ALSEA.COM.MX,WWW.ALSEA.NET.MX,Fijo,-99.12527218,19.29478932,,,,0483,006,722511,,72,722,7225,72251,,COLONIA,2010-07,090120001
122,09006722110000011001003155S9,6313997,VIPS ZARAGOZA,OPERADORA VIPS S DE RL DE CV,Restaurantes con servicio de preparación de alimentos a la carta o de comida corrida,51 a 100 personas,AVENIDA,Calzada General Ignacio Zaragoza,1090,0,AGRICOLA PANTITLAN,08100,"IZTACALCO, Iztacalco, CIUDAD DE MÉXICO",,DRAMIREZC@ALSEA.COM.MX,WWW.ALSEA.NET,Fijo,-99.06398853,19.40180423,,,,0128,003,722511,,72,722,7225,72251,,COLONIA,2010-07,090060001
